{"type": "FeatureCollection", "features": [{"type": "Feature", "properties": {"ID": "53", "Country": "Algeria", "Basin_Sub_": "Guir", "Group": "N/A", "Formation": "Rhoundja? ", "Member": "Lower limestone unit", "Well name/ outcrop": "Djebel El Rhelida and Oued Boudjihane (Section 3)", "Latitude": "35.56", "Longitude": "8.08", "Dating evidence": "Biostratigraphy: Ammonites", "REF(Authors, Year)": "Benyoucef et al., 2017", "Show_on_Ma": "100", "Lithology, structures, paleowind": "Massive grey limestone; mudstone?ackestone, rare packstone; bioclastic limestone; strongly bioturbated horizons", "Paleoenvironment": "Marine: Middle carbonate ramp / open-marine shelf", "REF (Authors, Year)": "Benyoucef et al., 2017", "Fossil occurrences": "Oysters: Costagyra olisiponensis, Rhynchostreon suborbiculatum, Costagyra olisiponensis, Ceratostreon flabellatum, Ilymatogyra africana;  Bivalves: Plicatula auressensis,\nPlicatula ferryi, Neithea (N.) quinquecostat, N. (N.) notabilis, N. sp., Costagyra olisiponensis, Plicatula ferryi, Camptonectes curvatus, Granocardium productum, G. (G.) cf. desvauxi, Pholadomya (P.) pedernalis, P. (P.) vignesi; Gastropods:  Cerithiinae indet., Cimolithium tenouklense, Ampullina sp., Strombus incertus,Tylostoma sp.; Echinoids: Tetragramma variolare, Heterodiadema libycum, Mecaster batnensis; Ammonites: Neolobites vibrayeanus, Calycoceras (C.) naviculare; Icnhotaxa: Thalassinoides occurs, Rhizocorallium isp., Planolites isp. ", "REF (Authors, Year)_1": "Benyoucef et al., 2017", "Geochemistry data": "N/A", "REF (Authors, Year)_2": "N/A", "Sediment-based climate inference (hot/cold, humid/semi-arid/desert)": "semi-arid", "Fossil-based climate inference (hot/cold, humid/semi-arid/desert)": "N/A", "Geochemistry-based climate inference  (hot/cold, humid/semi-arid/desert)": "N/A", "Climate assignment leading evidence": "carbonate ramp (limited siliciclastic input)", "Climate_Cl": "S", "Weight": "2", "PlateID": "706", "Sediment-based climate inference (hot/cold, humid/S/desert)": null, "Fossil-based climate inference (hot/cold, humid/S/desert)": null, "Geochemistry-based climate inference  (hot/cold, humid/S/desert)": null, "PaleozonaCodigo": null, "layer": "100.00Ma_point", "path": "C:/Users/Leonardo Bachi/OneDrive/Desktop/ITT_OCEANEON/20_SETEMBRO_TABELA_FINAL/PONTOS_RETIFICADOS/100.00Ma.geojson", "winner": "H", "cluster_size": 24}, "geometry": {"type": "Point", "coordinates": [1.095771327166477, 11.65422501123165]}}, {"type": "Feature", "properties": {"ID": "55", "Country": "Algeria", "Basin_Sub_": "Guir", "Group": "N/A", "Formation": "Mdaouer", "Member": "ms-ls", "Well name/ outcrop": "Djebel Rhoundja? (Section 1) ", "Latitude": "35.56", "Longitude": "8.08", "Dating evidence": "Biostratigraphy: Ammonites", "REF(Authors, Year)": "Benyoucef et al., 2017", "Show_on_Ma": "100", "Lithology, structures, paleowind": "Dolomitized limestone, yellowish marlstone, bioclastic limestone, microbial laminites, desiccation polygons", "Paleoenvironment": "Coastal: Peritidal to lagoonal", "REF (Authors, Year)": "Benyoucef et al., 2017", "Fossil occurrences": "Ostracoda: Paracypris cf. dubertreti, Pterygocythere? Neknaffiensis", "REF (Authors, Year)_1": "Benyoucef et al., 2017", "Geochemistry data": "N/A", "REF (Authors, Year)_2": "N/A", "Sediment-based climate inference (hot/cold, humid/semi-arid/desert)": "Adrid to semio-arid", "Fossil-based climate inference (hot/cold, humid/semi-arid/desert)": "N/A", "Geochemistry-based climate inference  (hot/cold, humid/semi-arid/desert)": "N/A", "Climate assignment leading evidence": "Dolomitized limestone, mud cracks, halite moulds", "Climate_Cl": "D", "Weight": "3", "PlateID": "706", "Sediment-based climate inference (hot/cold, humid/S/desert)": null, "Fossil-based climate inference (hot/cold, humid/S/desert)": null, "Geochemistry-based climate inference  (hot/cold, humid/S/desert)": null, "PaleozonaCodigo": null, "layer": "100.00Ma_point", "path": "C:/Users/Leonardo Bachi/OneDrive/Desktop/ITT_OCEANEON/20_SETEMBRO_TABELA_FINAL/PONTOS_RETIFICADOS/100.00Ma.geojson", "winner": "H", "cluster_size": 24}, "geometry": {"type": "Point", "coordinates": [1.095771327166477, 11.65422501123165]}}, {"type": "Feature", "properties": {"ID": "57", "Country": "Algeria", "Basin_Sub_": "Guir", "Group": "N/A", "Formation": "Mdaouer", "Member": "evaporic ", "Well name/ outcrop": "Djebel Rhoundja? (Section 1) ", "Latitude": "35.56", "Longitude": "8.08", "Dating evidence": "Biostratigraphy: Ammonites", "REF(Authors, Year)": "Benyoucef et al., 2017", "Show_on_Ma": "100", "Lithology, structures, paleowind": "Gypsiferous marlstones, massive and laminated gypsum, gypsum?lgal beds, fine-grained sandstone, fenestral dolostone, mudstone with evaporitic casts, halite pseudomorphs; stromatolitic laminae", "Paleoenvironment": "Coastal: sabkha / supratidal to intertidal flat", "REF (Authors, Year)": "Benyoucef et al., 2017", "Fossil occurrences": "Ostracoda: Paracypris cf. dubertreti, Pterygocythere? Neknaffiensis", "REF (Authors, Year)_1": "Benyoucef et al., 2017", "Geochemistry data": "N/A", "REF (Authors, Year)_2": "N/A", "Sediment-based climate inference (hot/cold, humid/semi-arid/desert)": "Arid", "Fossil-based climate inference (hot/cold, humid/semi-arid/desert)": "N/A", "Geochemistry-based climate inference  (hot/cold, humid/semi-arid/desert)": "N/A", "Climate assignment leading evidence": "Sabkha and gypsum", "Climate_Cl": "D", "Weight": "3", "PlateID": "706", "Sediment-based climate inference (hot/cold, humid/S/desert)": null, "Fossil-based climate inference (hot/cold, humid/S/desert)": null, "Geochemistry-based climate inference  (hot/cold, humid/S/desert)": null, "PaleozonaCodigo": null, "layer": "100.00Ma_point", "path": "C:/Users/Leonardo Bachi/OneDrive/Desktop/ITT_OCEANEON/20_SETEMBRO_TABELA_FINAL/PONTOS_RETIFICADOS/100.00Ma.geojson", "winner": "H", "cluster_size": 24}, "geometry": {"type": "Point", "coordinates": [1.095771327166477, 11.65422501123165]}}, {"type": "Feature", "properties": {"ID": "59", "Country": "Algeria", "Basin_Sub_": "Guir", "Group": "N/A", "Formation": "El Rhedida", "Member": "Claystone-limestone", "Well name/ outcrop": "Djebel El Rhelida (Section 2)", "Latitude": "35.56", "Longitude": "8.08", "Dating evidence": "Biostratigraphy: Ammonites", "REF(Authors, Year)": "Benyoucef et al., 2017", "Show_on_Ma": "100", "Lithology, structures, paleowind": "Red/green claystones alternating with bioclastic limestones; biolaminated limestone; mud cracks; halite moulds; dewatering structures; current ripples", "Paleoenvironment": "Coastal: mudflat", "REF (Authors, Year)": "Benyoucef et al., 2017", "Fossil occurrences": "Bivalves (Pseudoptera anomala), gastropods, ostracodes; Thalassinoides and Ophiomorpha", "REF (Authors, Year)_1": "Benyoucef et al., 2017", "Geochemistry data": "N/A", "REF (Authors, Year)_2": "N/A", "Sediment-based climate inference (hot/cold, humid/semi-arid/desert)": "Arid", "Fossil-based climate inference (hot/cold, humid/semi-arid/desert)": "N/A", "Geochemistry-based climate inference  (hot/cold, humid/semi-arid/desert)": "N/A", "Climate assignment leading evidence": "mud cracks; halite moulds; dewatering structures", "Climate_Cl": "D", "Weight": "3", "PlateID": "706", "Sediment-based climate inference (hot/cold, humid/S/desert)": null, "Fossil-based climate inference (hot/cold, humid/S/desert)": null, "Geochemistry-based climate inference  (hot/cold, humid/S/desert)": null, "PaleozonaCodigo": null, "layer": "100.00Ma_point", "path": "C:/Users/Leonardo Bachi/OneDrive/Desktop/ITT_OCEANEON/20_SETEMBRO_TABELA_FINAL/PONTOS_RETIFICADOS/100.00Ma.geojson", "winner": "H", "cluster_size": 24}, "geometry": {"type": "Point", "coordinates": [1.095771327166477, 11.65422501123165]}}, {"type": "Feature", "properties": {"ID": "61", "Country": "Algeria", "Basin_Sub_": "Guir", "Group": "N/A", "Formation": "El Rhedida", "Member": "mixed siliciclastic-carbonate", "Well name/ outcrop": "Djebel El Rhelida (Section 2)", "Latitude": "35.56", "Longitude": "8.08", "Dating evidence": "Biostratigraphy: Ammonites", "REF(Authors, Year)": "Benyoucef et al., 2017", "Show_on_Ma": "100", "Lithology, structures, paleowind": "Fine- to medium-grained sandstones, reddish/greenish claystones, limestones, dolostones, minor microconglomerates and oxidized sandstones; ripple cross-lamination, hummocky cross-stratification, wave ripples, herringbone cross-stratification, bioturbated sandstones", "Paleoenvironment": "Coastal to marine:  Foreshore?horeface to backshore", "REF (Authors, Year)": "Benyoucef et al., 2017", "Fossil occurrences": "Spinosaurus aegyptiacus, Lepidotes, Mawsonia, Neoceratodus africanus, Onchopristis numidus; fish and turtle remains; ichnofossils including Bergaueria, Helminthopsis, Lockeia, Planolites, Rhabdoglyphus, Spirophycus, Thalassinoides", "REF (Authors, Year)_1": "Benyoucef et al., 2017", "Geochemistry data": "N/A", "REF (Authors, Year)_2": "N/A", "Sediment-based climate inference (hot/cold, humid/semi-arid/desert)": "Arid", "Fossil-based climate inference (hot/cold, humid/semi-arid/desert)": "N/A", "Geochemistry-based climate inference  (hot/cold, humid/semi-arid/desert)": "N/A", "Climate assignment leading evidence": "associated with evaporitic and stromatolitic facies of the Mdaouer Formation", "Climate_Cl": "D", "Weight": "3", "PlateID": "706", "Sediment-based climate inference (hot/cold, humid/S/desert)": null, "Fossil-based climate inference (hot/cold, humid/S/desert)": null, "Geochemistry-based climate inference  (hot/cold, humid/S/desert)": null, "PaleozonaCodigo": null, "layer": "100.00Ma_point", "path": "C:/Users/Leonardo Bachi/OneDrive/Desktop/ITT_OCEANEON/20_SETEMBRO_TABELA_FINAL/PONTOS_RETIFICADOS/100.00Ma.geojson", "winner": "H", "cluster_size": 24}, "geometry": {"type": "Point", "coordinates": [1.095771327166477, 11.65422501123165]}}, {"type": "Feature", "properties": {"ID": "117", "Country": "Algeria", "Basin_Sub_": "Morsott", "Group": "N/A", "Formation": "Fahd?e", "Member": "Unit A", "Well name/ outcrop": "Hameimat North section ", "Latitude": "35.099", "Longitude": "8.413", "Dating evidence": "Biostratigraphy: ammonites", "REF(Authors, Year)": "Mendir et al 2019, Mendir et al. 2021", "Show_on_Ma": "100", "Lithology, structures, paleowind": "Clayey marlstones rich in oysters", "Paleoenvironment": "Marine: low-energy epicontinental carbonate shelf", "REF (Authors, Year)": "Mendir et al., 2021", "Fossil occurrences": "Ammonoid : Mantelliceras mantelli, Sharpeiceras schlueteri, M. saxbii; Bivalves: Cucullaea trigona, C. thevestensis, Costagyra olisiponensis, Exogyra conica, Ceratostreon flabellatum, Gyrostrea delettrei, Curvostrea rouvillei, Neithtea coquandi, Plicatula auressensis, P. ferryi, Pterotrigonia scabra, Maghrebella forgemoli, Sphaera corrugata, Granocardium sp., Arcitica picteti, Tenea delettrei, Glossus aquilinus, Paraesa faba, Meretrix desvauxi", "REF (Authors, Year)_1": "Mendir et al 2019, Mendir et al. 2021", "Geochemistry data": "N/A", "REF (Authors, Year)_2": "N/A", "Sediment-based climate inference (hot/cold, humid/semi-arid/desert)": "semi-arid?", "Fossil-based climate inference (hot/cold, humid/semi-arid/desert)": "N/A", "Geochemistry-based climate inference  (hot/cold, humid/semi-arid/desert)": "N/A", "Climate assignment leading evidence": "epicontinental carbonate shelf (limited siliciclastic input)", "Climate_Cl": "S", "Weight": "2", "PlateID": "714", "Sediment-based climate inference (hot/cold, humid/S/desert)": null, "Fossil-based climate inference (hot/cold, humid/S/desert)": null, "Geochemistry-based climate inference  (hot/cold, humid/S/desert)": null, "PaleozonaCodigo": null, "layer": "100.00Ma_point", "path": "C:/Users/Leonardo Bachi/OneDrive/Desktop/ITT_OCEANEON/20_SETEMBRO_TABELA_FINAL/PONTOS_RETIFICADOS/100.00Ma.geojson", "winner": "H", "cluster_size": 24}, "geometry": {"type": "Point", "coordinates": [1.221547412324407, 11.133528396033892]}}, {"type": "Feature", "properties": {"ID": "118", "Country": "Algeria", "Basin_Sub_": "Morsott", "Group": "N/A", "Formation": "Fahd?e", "Member": "Unit B", "Well name/ outcrop": "Hameimat North section ", "Latitude": "35.099", "Longitude": "8.413", "Dating evidence": "Biostratigraphy: ammonites", "REF(Authors, Year)": "Mendir et al 2019, Mendir et al. 2021", "Show_on_Ma": "100", "Lithology, structures, paleowind": "Marlstones with thin micritic limestone interbeds", "Paleoenvironment": "Marine: low-energy epicontinental carbonate shelf", "REF (Authors, Year)": "Mendir et al 2021", "Fossil occurrences": "Ammonites: Acanthoceras rhotomagense; Bivalve: Cucullaea trigona, Lopha syphax, Costagyra olisiponensis, Ceratostreon flabellatum, Ilymatogrya africana, Rhynchostreon suborbiculatum, Gyrostrea delettrei, Curvostrea rouvillei, Neithtea coquandi, Plicatula auressensis,  Pterotrigonia scabra", "REF (Authors, Year)_1": "Mendir et al 2019, Mendir et al. 2021", "Geochemistry data": "N/A", "REF (Authors, Year)_2": "N/A", "Sediment-based climate inference (hot/cold, humid/semi-arid/desert)": "semi-arid?", "Fossil-based climate inference (hot/cold, humid/semi-arid/desert)": "N/A", "Geochemistry-based climate inference  (hot/cold, humid/semi-arid/desert)": "N/A", "Climate assignment leading evidence": "epicontinental carbonate shelf (limited siliciclastic input)", "Climate_Cl": "S", "Weight": "2", "PlateID": "714", "Sediment-based climate inference (hot/cold, humid/S/desert)": null, "Fossil-based climate inference (hot/cold, humid/S/desert)": null, "Geochemistry-based climate inference  (hot/cold, humid/S/desert)": null, "PaleozonaCodigo": null, "layer": "100.00Ma_point", "path": "C:/Users/Leonardo Bachi/OneDrive/Desktop/ITT_OCEANEON/20_SETEMBRO_TABELA_FINAL/PONTOS_RETIFICADOS/100.00Ma.geojson", "winner": "H", "cluster_size": 24}, "geometry": {"type": "Point", "coordinates": [1.221547412324407, 11.133528396033892]}}, {"type": "Feature", "properties": {"ID": "120", "Country": "Algeria", "Basin_Sub_": "Morsott", "Group": "N/A", "Formation": "Fahd?e", "Member": "Unit C", "Well name/ outcrop": "Hameimat North section ", "Latitude": "35.099", "Longitude": "8.413", "Dating evidence": "Biostratigraphy: ammonites", "REF(Authors, Year)": "Mendir et al 2019, Mendir et al. 2021", "Show_on_Ma": "100", "Lithology, structures, paleowind": "Thick-bedded marlstones, oyster-rich lumachelles, light-grey limestones; upper dark marlstone", "Paleoenvironment": "Marine: Very shallow epicontinental carbonate shelf", "REF (Authors, Year)": "Mendir et al 2021", "Fossil occurrences": "Ammonites: Calycoceras naviculare, Metoicoceras geslinianum; Bivalve: Cucullaea trigona, C. thevestensis, Lopha syphax, Rastellum carinattum, Costagyra olisiponensis, Ceratostreon flabellatum, Ilymatogyra africana, Rhynchostreon suborbiculatum, Gyrostrea delettrei, Curvostrea rouvillei, Plicatula auressensis, P. ferryi, Pterotrigonia scabra, Maghrebella forgemoli, Sphaera corrugata, Radiolites cf. sauvagensi, Granocardium sp., Aenona cenomaneinsis, Arcitica picteti, Tenea delettrei, Glossus aquilinus, Paraesa faba, Meretrix desvauxi", "REF (Authors, Year)_1": "Mendir et al 2019, Mendir et al. 2021", "Geochemistry data": "N/A", "REF (Authors, Year)_2": "N/A", "Sediment-based climate inference (hot/cold, humid/semi-arid/desert)": "semi-arid?", "Fossil-based climate inference (hot/cold, humid/semi-arid/desert)": "N/A", "Geochemistry-based climate inference  (hot/cold, humid/semi-arid/desert)": "N/A", "Climate assignment leading evidence": "epicontinental carbonate shelf (limited siliciclastic input)", "Climate_Cl": "S", "Weight": "2", "PlateID": "714", "Sediment-based climate inference (hot/cold, humid/S/desert)": null, "Fossil-based climate inference (hot/cold, humid/S/desert)": null, "Geochemistry-based climate inference  (hot/cold, humid/S/desert)": null, "PaleozonaCodigo": null, "layer": "100.00Ma_point", "path": "C:/Users/Leonardo Bachi/OneDrive/Desktop/ITT_OCEANEON/20_SETEMBRO_TABELA_FINAL/PONTOS_RETIFICADOS/100.00Ma.geojson", "winner": "H", "cluster_size": 24}, "geometry": {"type": "Point", "coordinates": [1.221547412324407, 11.133528396033892]}}, {"type": "Feature", "properties": {"ID": "2731", "Country": "Tunisia", "Basin_Sub_": "N/A", "Group": "N/A", "Formation": "Bahloul", "Member": "lower Pre-Bahloul", "Well name/ outcrop": "Oued Bahloul ", "Latitude": "35.77", "Longitude": "9.35", "Dating evidence": "Biostratigraphy: Ammonite and Foraminifera", "REF(Authors, Year)": "Aguado etal 2016", "Show_on_Ma": "100", "Lithology, structures, paleowind": "Marl, microconglomeratic, Calcarenite, ", "Paleoenvironment": "Marine: outer shelf to upper slope", "REF (Authors, Year)": "Aguado etal 2016", "Fossil occurrences": "Nannofossil zone: Corollithion kennedyi, Cretarhabdus striatus, Eiffellithus hancockii; Ammonite: M. geslinianum;  Foraminifera: R. cushmani", "REF (Authors, Year)_1": "Aguado etal 2016", "Geochemistry data": "low detrital proxies (K/Al) and high aeolian detrital proxies (Zr/Al)", "REF (Authors, Year)_2": "N/A", "Sediment-based climate inference (hot/cold, humid/semi-arid/desert)": "semi-arid?", "Fossil-based climate inference (hot/cold, humid/semi-arid/desert)": "N/A", "Geochemistry-based climate inference  (hot/cold, humid/semi-arid/desert)": "semi-arid", "Climate assignment leading evidence": "litthology, geochimocal proxies", "Climate_Cl": "S", "Weight": "3", "PlateID": "715", "Sediment-based climate inference (hot/cold, humid/S/desert)": null, "Fossil-based climate inference (hot/cold, humid/S/desert)": null, "Geochemistry-based climate inference  (hot/cold, humid/S/desert)": null, "PaleozonaCodigo": null, "layer": "100.00Ma_point", "path": "C:/Users/Leonardo Bachi/OneDrive/Desktop/ITT_OCEANEON/20_SETEMBRO_TABELA_FINAL/PONTOS_RETIFICADOS/100.00Ma.geojson", "winner": "H", "cluster_size": 24}, "geometry": {"type": "Point", "coordinates": [2.165722551943874, 11.553168880155233]}}, {"type": "Feature", "properties": {"ID": "2940", "Country": "Tunisia", "Basin_Sub_": "N/A", "Group": "N/A", "Formation": "Zebbag", "Member": "Zebbag A", "Well name/ outcrop": "Jebel Meloussi", "Latitude": "34.766", "Longitude": "9.484", "Dating evidence": "N/A", "REF(Authors, Year)": "Jaballah & Negra 2016", "Show_on_Ma": "100", "Lithology, structures, paleowind": "Dolomitized limestone rich in bivalves", "Paleoenvironment": "Marine: carbonate shelf", "REF (Authors, Year)": "N/A", "Fossil occurrences": "pectinids", "REF (Authors, Year)_1": "Jaballah & Negra 2016", "Geochemistry data": "N/A", "REF (Authors, Year)_2": "N/A", "Sediment-based climate inference (hot/cold, humid/semi-arid/desert)": "hot", "Fossil-based climate inference (hot/cold, humid/semi-arid/desert)": "N/A", "Geochemistry-based climate inference  (hot/cold, humid/semi-arid/desert)": "N/A", "Climate assignment leading evidence": "Dolomitized carbonate", "Climate_Cl": "S", "Weight": "1", "PlateID": "715", "Sediment-based climate inference (hot/cold, humid/S/desert)": null, "Fossil-based climate inference (hot/cold, humid/S/desert)": null, "Geochemistry-based climate inference  (hot/cold, humid/S/desert)": null, "PaleozonaCodigo": null, "layer": "100.00Ma_point", "path": "C:/Users/Leonardo Bachi/OneDrive/Desktop/ITT_OCEANEON/20_SETEMBRO_TABELA_FINAL/PONTOS_RETIFICADOS/100.00Ma.geojson", "winner": "H", "cluster_size": 24}, "geometry": {"type": "Point", "coordinates": [1.978679337602463, 10.560048881224445]}}, {"type": "Feature", "properties": {"ID": "110", "Country": "Algeria", "Basin_Sub_": "Aures/Auresian", "Group": "N/A", "Formation": "Arris ", "Member": "N/A", "Well name/ outcrop": "southern Aures Range", "Latitude": "35.19", "Longitude": "6.3", "Dating evidence": "Biostratigraphy: ammonites", "REF(Authors, Year)": "Garah et al. 2023", "Show_on_Ma": "100", "Lithology, structures, paleowind": "marl, limestone", "Paleoenvironment": "Marine: restricted inner carbonate shelf  to distal slope ", "REF (Authors, Year)": "Garah et al. 2023", "Fossil occurrences": "Ammonite moulds: Mantelliceras mantelli, Acanthoceras rhotomagense, Neolobites vibrayeanus, Calycoceras (Newboldiceras)sp., Neolobites vibrayeanus; Bivalves: Granocardium productum, G. desvauxi, Inoceramus sp.; Oyster shell: Amphidonte obliquata; Gastropods: Tylostoma sp., Costagyra olisiponensis, Ceratostreon flabellatum, Amphidonte obliquata; Echinoids: Mecaster batnensis; Ammonites: Mantelliceras sp., Acanthoceras sp., Turrilites costatus; Coral: Aspidiscus cristatus ", "REF (Authors, Year)_1": "Garah et al. 2023", "Geochemistry data": "N/A", "REF (Authors, Year)_2": "N/A", "Sediment-based climate inference (hot/cold, humid/semi-arid/desert)": "hot, humid", "Fossil-based climate inference (hot/cold, humid/semi-arid/desert)": "N/A", "Geochemistry-based climate inference  (hot/cold, humid/semi-arid/desert)": "N/A", "Climate assignment leading evidence": "N/A", "Climate_Cl": "H", "Weight": "1", "PlateID": "714", "Sediment-based climate inference (hot/cold, humid/S/desert)": null, "Fossil-based climate inference (hot/cold, humid/S/desert)": null, "Geochemistry-based climate inference  (hot/cold, humid/S/desert)": null, "PaleozonaCodigo": null, "layer": "100.00Ma_point", "path": "C:/Users/Leonardo Bachi/OneDrive/Desktop/ITT_OCEANEON/20_SETEMBRO_TABELA_FINAL/PONTOS_RETIFICADOS/100.00Ma.geojson", "winner": "S", "cluster_size": 4}, "geometry": {"type": "Point", "coordinates": [-0.431181930392397, 11.741319855874542]}}, {"type": "Feature", "properties": {"ID": "128", "Country": "Algeria", "Basin_Sub_": "Aurès", "Group": "N/A", "Formation": "Megasequence I", "Member": "N/A", "Well name/ outcrop": "Batna", "Latitude": "35.483", "Longitude": "6.163", "Dating evidence": "N/A", "REF(Authors, Year)": "Herkat, 2004", "Show_on_Ma": "100", "Lithology, structures, paleowind": "Bituminous marl?imestone alternations; oolitic limestones; bioclastic limestones; stromatolitic limestones; rudist buildups; gypsum and dissolution breccias in proximal areas", "Paleoenvironment": "Coastal to marine: supratidal/intertidal flats and restricted lagoons to open marine carbonate ramp", "REF (Authors, Year)": "Herkat, 2004", "Fossil occurrences": "Hedbergella, planktonic and benthic foraminifera, rudists, oysters, echinoids, ammonites, gastropods, stromatolites, ostracods, lamellibranchs", "REF (Authors, Year)_1": "Herkat, 2004", "Geochemistry data": "Organic-rich black marls (TOC ~3%)", "REF (Authors, Year)_2": "Herkat ,2004", "Sediment-based climate inference (hot/cold, humid/semi-arid/desert)": "Arid to semi-arid", "Fossil-based climate inference (hot/cold, humid/semi-arid/desert)": "N/A", "Geochemistry-based climate inference  (hot/cold, humid/semi-arid/desert)": "N/A", "Climate assignment leading evidence": "evaporites, restricted lagoons and high carbonate productivity (reduced siliciclastic input)", "Climate_Cl": "D", "Weight": "3", "PlateID": "714", "Sediment-based climate inference (hot/cold, humid/S/desert)": null, "Fossil-based climate inference (hot/cold, humid/S/desert)": null, "Geochemistry-based climate inference  (hot/cold, humid/S/desert)": null, "PaleozonaCodigo": null, "layer": "100.00Ma_point", "path": "C:/Users/Leonardo Bachi/OneDrive/Desktop/ITT_OCEANEON/20_SETEMBRO_TABELA_FINAL/PONTOS_RETIFICADOS/100.00Ma.geojson", "winner": "S", "cluster_size": 4}, "geometry": {"type": "Point", "coordinates": [-0.447094585665867, 12.054524048929924]}}, {"type": "Feature", "properties": {"ID": "209", "Country": "Argentina", "Basin_Sub_": "Austral-Magallanes", "Group": " ", "Formation": "Kachaike", "Member": null, "Well name/ outcrop": "Puesto El Moro Creek", "Latitude": "-49.044", "Longitude": "-72.099", "Dating evidence": "biostratigraphy", "REF(Authors, Year)": "Perez Loinaze et al., 2012", "Show_on_Ma": "100", "Lithology, structures, paleowind": "Shales overlain by sandstones with a coarsening upward stacking pattern.", "Paleoenvironment": "Transitional: Deltaic setting", "REF (Authors, Year)": "Perez Loinaze et al., 2012", "Fossil occurrences": "ammonite, spores, pollen (including angiosperm pollen grains), dinoflagellate cysts, acritarchs, and algae.", "REF (Authors, Year)_1": "Perez Loinaze et al., 2012", "Geochemistry data": null, "REF (Authors, Year)_2": null, "Sediment-based climate inference (hot/cold, humid/semi-arid/desert)": null, "Fossil-based climate inference (hot/cold, humid/semi-arid/desert)": "semi-arid", "Geochemistry-based climate inference  (hot/cold, humid/semi-arid/desert)": null, "Climate assignment leading evidence": "dominance of Classopollis sp., and the decrease in abundance of hygrophilic elements", "Climate_Cl": "S", "Weight": "3", "PlateID": "28800", "Sediment-based climate inference (hot/cold, humid/S/desert)": null, "Fossil-based climate inference (hot/cold, humid/S/desert)": null, "Geochemistry-based climate inference  (hot/cold, humid/S/desert)": null, "PaleozonaCodigo": null, "layer": "100.00Ma_point", "path": "C:/Users/Leonardo Bachi/OneDrive/Desktop/ITT_OCEANEON/20_SETEMBRO_TABELA_FINAL/PONTOS_RETIFICADOS/100.00Ma.geojson", "winner": "H", "cluster_size": 3}, "geometry": {"type": "Point", "coordinates": [-65.09224160813253, -59.594097563382974]}}, {"type": "Feature", "properties": {"ID": "550", "Country": "Brazil", "Basin_Sub_": "Araripe", "Group": "Chapada", "Formation": "Exu", "Member": "N/A", "Well name/ outcrop": "Publication outcrop", "Latitude": "-7.42", "Longitude": "-39.33", "Dating evidence": "Stratigraphic relationships", "REF(Authors, Year)": "Ponte & Appi, 1990", "Show_on_Ma": "100", "Lithology, structures, paleowind": "Fine grained sandstones interbedded with siltstones and occasionally mudstones", "Paleoenvironment": "Channel bars of ephemeral streams and floodplains", "REF (Authors, Year)": "Carvalho et al., 2021b", "Fossil occurrences": "Dinosaur footprints (sauropoda); rhizoliths", "REF (Authors, Year)_1": "Assine et al., 2007; Carvalho et al., 2022; Medeiros, 1990 apud Ponte, 1996", "Geochemistry data": "N/A", "REF (Authors, Year)_2": "N/A", "Sediment-based climate inference (hot/cold, humid/semi-arid/desert)": "Hot, dry?", "Fossil-based climate inference (hot/cold, humid/semi-arid/desert)": "Hot?, dry?", "Geochemistry-based climate inference  (hot/cold, humid/semi-arid/desert)": "N/A", "Climate assignment leading evidence": "Channel bars of ephemeral streams and floodplains; dinosaur footprints (sauropoda)", "Climate_Cl": "S", "Weight": "2", "PlateID": "201", "Sediment-based climate inference (hot/cold, humid/S/desert)": null, "Fossil-based climate inference (hot/cold, humid/S/desert)": null, "Geochemistry-based climate inference  (hot/cold, humid/S/desert)": null, "PaleozonaCodigo": null, "layer": "100.00Ma_point", "path": "C:/Users/Leonardo Bachi/OneDrive/Desktop/ITT_OCEANEON/20_SETEMBRO_TABELA_FINAL/PONTOS_RETIFICADOS/100.00Ma.geojson", "winner": "H", "cluster_size": 4}, "geometry": {"type": "Point", "coordinates": [-20.74065744278631, -20.75702040931059]}}, {"type": "Feature", "properties": {"ID": "812", "Country": "Brazil", "Basin_Sub_": "São Luís-Grajaú", "Group": "Alc?tara", "Formation": "N/A", "Member": "N/A", "Well name/ outcrop": null, "Latitude": "-4", "Longitude": "-45.5", "Dating evidence": "Stratigraphic relationships", "REF(Authors, Year)": "Ara?o et al., 2011", "Show_on_Ma": "100", "Lithology, structures, paleowind": "Sandstones, claystones and carbonate", "Paleoenvironment": "Lagoon", "REF (Authors, Year)": "Ara?o et al., 2011", "Fossil occurrences": "Fossil wood", "REF (Authors, Year)_1": "Ara?o et al., 2011", "Geochemistry data": "N/A", "REF (Authors, Year)_2": "N/A", "Sediment-based climate inference (hot/cold, humid/semi-arid/desert)": "N/A", "Fossil-based climate inference (hot/cold, humid/semi-arid/desert)": "H", "Geochemistry-based climate inference  (hot/cold, humid/semi-arid/desert)": "N/A", "Climate assignment leading evidence": "fossils wood of the Family Araucariaceae dominate. ", "Climate_Cl": "H", "Weight": "3", "PlateID": "201", "Sediment-based climate inference (hot/cold, humid/S/desert)": null, "Fossil-based climate inference (hot/cold, humid/S/desert)": null, "Geochemistry-based climate inference  (hot/cold, humid/S/desert)": null, "PaleozonaCodigo": null, "layer": "100.00Ma_point", "path": "C:/Users/Leonardo Bachi/OneDrive/Desktop/ITT_OCEANEON/20_SETEMBRO_TABELA_FINAL/PONTOS_RETIFICADOS/100.00Ma.geojson", "winner": "S", "cluster_size": 8}, "geometry": {"type": "Point", "coordinates": [-27.192292909841044, -17.26564383590326]}}, {"type": "Feature", "properties": {"ID": "1570", "Country": "Brazil", "Basin_Sub_": "São Luís-Grajaú", "Group": "Alc?tara", "Formation": null, "Member": null, "Well name/ outcrop": null, "Latitude": "-4", "Longitude": "-45.5", "Dating evidence": "Stratigraphic relationships", "REF(Authors, Year)": "Ara?o et al., 2011", "Show_on_Ma": "100", "Lithology, structures, paleowind": "Sandstones, claystones and carbonate", "Paleoenvironment": "Lagoon", "REF (Authors, Year)": "Ara?o et al., 2011", "Fossil occurrences": "Fossil wood", "REF (Authors, Year)_1": "Ara?o et al., 2011", "Geochemistry data": null, "REF (Authors, Year)_2": null, "Sediment-based climate inference (hot/cold, humid/semi-arid/desert)": null, "Fossil-based climate inference (hot/cold, humid/semi-arid/desert)": null, "Geochemistry-based climate inference  (hot/cold, humid/semi-arid/desert)": null, "Climate assignment leading evidence": "fossils wood of the Family Araucariaceae dominate. ", "Climate_Cl": "H", "Weight": "3", "PlateID": "201", "Sediment-based climate inference (hot/cold, humid/S/desert)": null, "Fossil-based climate inference (hot/cold, humid/S/desert)": null, "Geochemistry-based climate inference  (hot/cold, humid/S/desert)": null, "PaleozonaCodigo": null, "layer": "100.00Ma_point", "path": "C:/Users/Leonardo Bachi/OneDrive/Desktop/ITT_OCEANEON/20_SETEMBRO_TABELA_FINAL/PONTOS_RETIFICADOS/100.00Ma.geojson", "winner": "S", "cluster_size": 8}, "geometry": {"type": "Point", "coordinates": [-27.192292909841044, -17.26564383590326]}}, {"type": "Feature", "properties": {"ID": "1730", "Country": "Cameroon", "Basin_Sub_": "Manfe", "Group": "Manfe", "Formation": "Cross River/Ikom-Munaya", "Member": "N/A", "Well name/ outcrop": "Bakwelle (Bkw) ", "Latitude": "5.687778", "Longitude": "9.151667", "Dating evidence": "Palinology", "REF(Authors, Year)": "Bilobe et al 2021", "Show_on_Ma": "100", "Lithology, structures, paleowind": "sandstones interbedded with sandy mudstones", "Paleoenvironment": "Continental: fluvial ", "REF (Authors, Year)": "Bilobe et al 2021", "Fossil occurrences": "Opaque phytoclasts and a low diversity palynomorph assemblage. Classopollis spp. and some Araucariacites spp., some trilete spores, including Cicatricosisporites venustus, and a few single grains of angiosperm pollen indet. Other palynomorphs include Deltoidospora spp., Echinatisporis spp., Callialasporites and Matonisporites spp.", "REF (Authors, Year)_1": "Bilobe et al 2021", "Geochemistry data": "N/A", "REF (Authors, Year)_2": "N/A", "Sediment-based climate inference (hot/cold, humid/semi-arid/desert)": null, "Fossil-based climate inference (hot/cold, humid/semi-arid/desert)": "(warm) semi arid to Arid/Humid to semi-humid", "Geochemistry-based climate inference  (hot/cold, humid/semi-arid/desert)": "N/A", "Climate assignment leading evidence": "palynoflora (low-diversity palynomorph assemblage dominated by Classopollis spp.)", "Climate_Cl": "S", "Weight": "3", "PlateID": "701", "Sediment-based climate inference (hot/cold, humid/S/desert)": null, "Fossil-based climate inference (hot/cold, humid/S/desert)": null, "Geochemistry-based climate inference  (hot/cold, humid/S/desert)": null, "PaleozonaCodigo": null, "layer": "100.00Ma_point", "path": "C:/Users/Leonardo Bachi/OneDrive/Desktop/ITT_OCEANEON/20_SETEMBRO_TABELA_FINAL/PONTOS_RETIFICADOS/100.00Ma.geojson", "winner": "H", "cluster_size": 49}, "geometry": {"type": "Point", "coordinates": [-6.731915707554715, -17.216231274910022]}}, {"type": "Feature", "properties": {"ID": "1738", "Country": "Cameroon", "Basin_Sub_": "Manfe", "Group": "Manfe", "Formation": "Cross River/Ikom-Munaya", "Member": "N/A", "Well name/ outcrop": "Akwen (Akw)", "Latitude": "5.761667", "Longitude": "9.059722", "Dating evidence": "Palinology", "REF(Authors, Year)": "Bilobe et al 2021", "Show_on_Ma": "100", "Lithology, structures, paleowind": "sandstones interbedded with sandy mudstones", "Paleoenvironment": "Continental: fluvial ", "REF (Authors, Year)": "Bilobe et al 2021", "Fossil occurrences": "palynomorphs, including Classopollis spp., Araucariacites spp., Cicatricosisporites venustus, Deltoidospora spp. and trilete spore indet", "REF (Authors, Year)_1": "Bilobe et al 2021", "Geochemistry data": "N/A", "REF (Authors, Year)_2": "N/A", "Sediment-based climate inference (hot/cold, humid/semi-arid/desert)": null, "Fossil-based climate inference (hot/cold, humid/semi-arid/desert)": "(warm) semi arid to Arid/Humid to semi-humid", "Geochemistry-based climate inference  (hot/cold, humid/semi-arid/desert)": "N/A", "Climate assignment leading evidence": "palynoflora (Classopollis spp)", "Climate_Cl": "S", "Weight": "3", "PlateID": "701", "Sediment-based climate inference (hot/cold, humid/S/desert)": null, "Fossil-based climate inference (hot/cold, humid/S/desert)": null, "Geochemistry-based climate inference  (hot/cold, humid/S/desert)": null, "PaleozonaCodigo": null, "layer": "100.00Ma_point", "path": "C:/Users/Leonardo Bachi/OneDrive/Desktop/ITT_OCEANEON/20_SETEMBRO_TABELA_FINAL/PONTOS_RETIFICADOS/100.00Ma.geojson", "winner": "H", "cluster_size": 49}, "geometry": {"type": "Point", "coordinates": [-6.800356293360096, -17.1184901554232]}}, {"type": "Feature", "properties": {"ID": "1746", "Country": "Cameroon", "Basin_Sub_": "Manfe", "Group": "Manfe", "Formation": "Baso", "Member": "N/A", "Well name/ outcrop": "Okoyong (Oky)", "Latitude": "5.723056", "Longitude": "9.341944", "Dating evidence": "Palinology", "REF(Authors, Year)": "Bilobe et al 2021", "Show_on_Ma": "100", "Lithology, structures, paleowind": "cross-stratified pebble sandstones interfingered with thinly bedded clayshale and mudstones", "Paleoenvironment": "Continental: Fluvio-lacustrine ", "REF (Authors, Year)": "Bilobe et al 2021", "Fossil occurrences": "Palynomorphs consist of gymnosperm pollen, mainly Classopollis spp. and some Araucariacites spp., some trilete spores, including Cicatricosisporites venustus, and some angiosperm pollen. The two samples contain Afropollis spp., the topmost sample (Oky2) contains additionally Trisectoris reticulatus, Echinatisporis spp., trilete spore indet, Concavisporites spp., Classopollis spp. (tetrads), Callialasporites spp., Crybelosporites spp., Deltoidospora spp. and Matonisporites spp.", "REF (Authors, Year)_1": "Bilobe et al 2021", "Geochemistry data": "N/A", "REF (Authors, Year)_2": "N/A", "Sediment-based climate inference (hot/cold, humid/semi-arid/desert)": null, "Fossil-based climate inference (hot/cold, humid/semi-arid/desert)": "(warm) semi arid to Arid/Humid to semi-humid", "Geochemistry-based climate inference  (hot/cold, humid/semi-arid/desert)": "N/A", "Climate assignment leading evidence": "palynoflora (Classopollis spp., Callialasporites spp.)", "Climate_Cl": "S", "Weight": "3", "PlateID": "701", "Sediment-based climate inference (hot/cold, humid/S/desert)": null, "Fossil-based climate inference (hot/cold, humid/S/desert)": null, "Geochemistry-based climate inference  (hot/cold, humid/S/desert)": null, "PaleozonaCodigo": null, "layer": "100.00Ma_point", "path": "C:/Users/Leonardo Bachi/OneDrive/Desktop/ITT_OCEANEON/20_SETEMBRO_TABELA_FINAL/PONTOS_RETIFICADOS/100.00Ma.geojson", "winner": "H", "cluster_size": 49}, "geometry": {"type": "Point", "coordinates": [-6.531646172473801, -17.23864088378995]}}, {"type": "Feature", "properties": {"ID": "1758", "Country": "Cameroon", "Basin_Sub_": "Manfe", "Group": "Manfe", "Formation": "Nfaitok", "Member": "N/A", "Well name/ outcrop": "Mbinjong: Mamue River (Mam)", "Latitude": "5.556111", "Longitude": "9.650278", "Dating evidence": "Palinology", "REF(Authors, Year)": "Bilobe et al 2021", "Show_on_Ma": "100", "Lithology, structures, paleowind": "siltstones, fine to coarse-grained sandstones, siltshales with ripple marks", "Paleoenvironment": "Continental: lacustrine to fluvio-deltaic", "REF (Authors, Year)": "Bilobe et al 2021", "Fossil occurrences": "Opaque phytoclasts. sporomorphs, mainly Classopollis spp. Few other palynomorphs include Araucariacites spp., Cicatricosisporites venustus, Deltoidospora spp. and Equisetosporites spp.", "REF (Authors, Year)_1": "Bilobe et al 2021", "Geochemistry data": "N/A", "REF (Authors, Year)_2": "N/A", "Sediment-based climate inference (hot/cold, humid/semi-arid/desert)": "Humid (coaly)", "Fossil-based climate inference (hot/cold, humid/semi-arid/desert)": "(warm) semi arid to Arid/Humid to semi-humid", "Geochemistry-based climate inference  (hot/cold, humid/semi-arid/desert)": "N/A", "Climate assignment leading evidence": "palynoflora (Classopollis spp.)", "Climate_Cl": "S", "Weight": "3", "PlateID": "701", "Sediment-based climate inference (hot/cold, humid/S/desert)": null, "Fossil-based climate inference (hot/cold, humid/S/desert)": null, "Geochemistry-based climate inference  (hot/cold, humid/S/desert)": null, "PaleozonaCodigo": null, "layer": "100.00Ma_point", "path": "C:/Users/Leonardo Bachi/OneDrive/Desktop/ITT_OCEANEON/20_SETEMBRO_TABELA_FINAL/PONTOS_RETIFICADOS/100.00Ma.geojson", "winner": "H", "cluster_size": 49}, "geometry": {"type": "Point", "coordinates": [-6.276000532770293, -17.4886178278767]}}, {"type": "Feature", "properties": {"ID": "1766", "Country": "Cameroon", "Basin_Sub_": "Manfe", "Group": "Manfe", "Formation": "Nfaitok", "Member": "N/A", "Well name/ outcrop": "Nchemba II (Nch)", "Latitude": "5.700611", "Longitude": "9.520278", "Dating evidence": "Palinology", "REF(Authors, Year)": "Bilobe et al 2021", "Show_on_Ma": "100", "Lithology, structures, paleowind": "siliceous and carbonate sandstones, siltstones and shales. ", "Paleoenvironment": "Continental: lacustrine to fluvio-deltaic", "REF (Authors, Year)": "Bilobe et al 2021", "Fossil occurrences": "tridactyl dinosaur footprints. Opaque phytoclasts, a few palynomorphs including Classopollis spp., Callialasporites spp., Cicatricosisporites venustus, Araucariacites australis", "REF (Authors, Year)_1": "Bilobe et al 2021", "Geochemistry data": "N/A", "REF (Authors, Year)_2": "N/A", "Sediment-based climate inference (hot/cold, humid/semi-arid/desert)": "Humid (coaly)", "Fossil-based climate inference (hot/cold, humid/semi-arid/desert)": "(warm) semi arid to Arid/Humid to semi-humid", "Geochemistry-based climate inference  (hot/cold, humid/semi-arid/desert)": "N/A", "Climate assignment leading evidence": "palynoflora (Classopollis spp.)", "Climate_Cl": "S", "Weight": "3", "PlateID": "701", "Sediment-based climate inference (hot/cold, humid/S/desert)": null, "Fossil-based climate inference (hot/cold, humid/S/desert)": null, "Geochemistry-based climate inference  (hot/cold, humid/S/desert)": null, "PaleozonaCodigo": null, "layer": "100.00Ma_point", "path": "C:/Users/Leonardo Bachi/OneDrive/Desktop/ITT_OCEANEON/20_SETEMBRO_TABELA_FINAL/PONTOS_RETIFICADOS/100.00Ma.geojson", "winner": "H", "cluster_size": 49}, "geometry": {"type": "Point", "coordinates": [-6.361026122512022, -17.312450677404893]}}, {"type": "Feature", "properties": {"ID": "1774", "Country": "Cameroon", "Basin_Sub_": "Manfe", "Group": "Manfe", "Formation": "Nfaitok", "Member": "N/A", "Well name/ outcrop": "Nfaitok (NFE)", "Latitude": "5.726667", "Longitude": "9.507778", "Dating evidence": "Palinology", "REF(Authors, Year)": "Bilobe et al 2021", "Show_on_Ma": "100", "Lithology, structures, paleowind": "siliceous and carbonate sandstones, siltstones and shales.", "Paleoenvironment": "Continental: lacustrine to fluvio-deltaic", "REF (Authors, Year)": "Bilobe et al 2021", "Fossil occurrences": "tridactyl dinosaur footprints. Opaque phytoclasts and/or amorphous organic matter (AOM). Classopollis spp., Classopollis spp. (tetrad) a few Araucariacites spp., Cicatricosisporites venustus, and abundant fungal remains", "REF (Authors, Year)_1": "Bilobe et al 2021", "Geochemistry data": "N/A", "REF (Authors, Year)_2": "N/A", "Sediment-based climate inference (hot/cold, humid/semi-arid/desert)": "Humid (coaly)", "Fossil-based climate inference (hot/cold, humid/semi-arid/desert)": "(warm) semi arid to Arid/Humid to semi-humid", "Geochemistry-based climate inference  (hot/cold, humid/semi-arid/desert)": "N/A", "Climate assignment leading evidence": "palynoflora (Classopollis spp., Classopollis spp. tetrad)", "Climate_Cl": "S", "Weight": "3", "PlateID": "701", "Sediment-based climate inference (hot/cold, humid/S/desert)": null, "Fossil-based climate inference (hot/cold, humid/S/desert)": null, "Geochemistry-based climate inference  (hot/cold, humid/S/desert)": null, "PaleozonaCodigo": null, "layer": "100.00Ma_point", "path": "C:/Users/Leonardo Bachi/OneDrive/Desktop/ITT_OCEANEON/20_SETEMBRO_TABELA_FINAL/PONTOS_RETIFICADOS/100.00Ma.geojson", "winner": "H", "cluster_size": 49}, "geometry": {"type": "Point", "coordinates": [-6.365437047385111, -17.28388705719127]}}, {"type": "Feature", "properties": {"ID": "1782", "Country": "Cameroon", "Basin_Sub_": "Manfe", "Group": "Manfe", "Formation": "Nfaitok", "Member": "N/A", "Well name/ outcrop": "Mamfe: John Hault (Jh)", "Latitude": "5.753889", "Longitude": "9.300378", "Dating evidence": "Palinology", "REF(Authors, Year)": "Bilobe et al 2021", "Show_on_Ma": "100", "Lithology, structures, paleowind": "siliceous and carbonate sandstones, limestones, black shales with carbonate nodules, volcanoclastics and coal beds ", "Paleoenvironment": "Continental: lacustrine to fluvio-deltaic", "REF (Authors, Year)": "Bilobe et al 2021", "Fossil occurrences": "low diversity sporomorph assemblage. Most abundant taxa are gymnosperm pollen, especially Classopollis classoides and Classopopllis spp. (tetrad), in some samples, Araucariacites spp., Concavisporites spp., Exesipollenites spp., Callialasporites spp., Equisetosporites spp. and few fungal remains were also recorded. Trilete spores are represented mainly by Deltoidospora spp. and Cicatricosisporites venustus. In two samples (Jh5 and Jh12), a few single specimens of Afropollis spp.are recorded.", "REF (Authors, Year)_1": "Bilobe et al 2021", "Geochemistry data": "N/A", "REF (Authors, Year)_2": "N/A", "Sediment-based climate inference (hot/cold, humid/semi-arid/desert)": "Humid (coaly)", "Fossil-based climate inference (hot/cold, humid/semi-arid/desert)": "(warm) semi arid to Arid/Humid to semi-humid", "Geochemistry-based climate inference  (hot/cold, humid/semi-arid/desert)": "N/A", "Climate assignment leading evidence": "palynoflora (Classopollis spp., Classopollis classoides, Classopollis spp. tetrad)", "Climate_Cl": "S", "Weight": "3", "PlateID": "701", "Sediment-based climate inference (hot/cold, humid/S/desert)": null, "Fossil-based climate inference (hot/cold, humid/S/desert)": null, "Geochemistry-based climate inference  (hot/cold, humid/S/desert)": null, "PaleozonaCodigo": null, "layer": "100.00Ma_point", "path": "C:/Users/Leonardo Bachi/OneDrive/Desktop/ITT_OCEANEON/20_SETEMBRO_TABELA_FINAL/PONTOS_RETIFICADOS/100.00Ma.geojson", "winner": "H", "cluster_size": 49}, "geometry": {"type": "Point", "coordinates": [-6.563459279205889, -17.19695472210712]}}, {"type": "Feature", "properties": {"ID": "1790", "Country": "Cameroon", "Basin_Sub_": "Manfe", "Group": "Manfe", "Formation": "Nfaitok", "Member": "N/A", "Well name/ outcrop": "Mamfe: Below Satom Bridge (Sat)", "Latitude": "5.695833", "Longitude": "9.046111", "Dating evidence": "Palinology", "REF(Authors, Year)": "Bilobe et al 2021", "Show_on_Ma": "100", "Lithology, structures, paleowind": "siliceous and carbonate sandstones, limestones, black shales with carbonate nodules, volcanoclastics and coal beds", "Paleoenvironment": "Continental: lacustrine to fluvio-deltaic", "REF (Authors, Year)": "Bilobe et al 2021", "Fossil occurrences": "Opaque phytoclasts and some amorphous organic matter (AOM). sporomorph assemblage, slightly brighter and well preserved, low diversity with Classopollis spp. Araucariacites spp.,  Cicatricosisporites venustus, Cyathidites spp., Deltoidospora spp. and Exesipollenites spp", "REF (Authors, Year)_1": "Bilobe et al 2021", "Geochemistry data": "N/A", "REF (Authors, Year)_2": "N/A", "Sediment-based climate inference (hot/cold, humid/semi-arid/desert)": "Humid (coaly)", "Fossil-based climate inference (hot/cold, humid/semi-arid/desert)": "(warm) semi arid to Arid/Humid to semi-humid", "Geochemistry-based climate inference  (hot/cold, humid/semi-arid/desert)": "N/A", "Climate assignment leading evidence": "palynoflora (Classopollis spp.)", "Climate_Cl": "S", "Weight": "3", "PlateID": "701", "Sediment-based climate inference (hot/cold, humid/S/desert)": null, "Fossil-based climate inference (hot/cold, humid/S/desert)": null, "Geochemistry-based climate inference  (hot/cold, humid/S/desert)": null, "PaleozonaCodigo": null, "layer": "100.00Ma_point", "path": "C:/Users/Leonardo Bachi/OneDrive/Desktop/ITT_OCEANEON/20_SETEMBRO_TABELA_FINAL/PONTOS_RETIFICADOS/100.00Ma.geojson", "winner": "H", "cluster_size": 49}, "geometry": {"type": "Point", "coordinates": [-6.834387886791307, -17.177312412277175]}}, {"type": "Feature", "properties": {"ID": "1798", "Country": "Cameroon", "Basin_Sub_": "Manfe", "Group": "Manfe", "Formation": "Nfaitok", "Member": "N/A", "Well name/ outcrop": "Besongabang: Bakiep River (Bes)", "Latitude": "5.699444", "Longitude": "9.304722", "Dating evidence": "Palinology", "REF(Authors, Year)": "Bilobe et al 2021", "Show_on_Ma": "100", "Lithology, structures, paleowind": "siliceous and carbonate sandstones, limestones, black shales with carbonate nodules, volcanoclastics and coal beds", "Paleoenvironment": "Continental: lacustrine to fluvio-deltaic", "REF (Authors, Year)": "Bilobe et al 2021", "Fossil occurrences": "dominated by amorphous organic matter (AOM). The most abundant taxa are gymnosperm pollen, especially Classopollis spp. Araucariacites spp., Concavisporites spp., Callialasporites spp., Eucommiidites spp. and Equisetosporites spp. Trilete spores are represented by Deltoidospora spp. and Cicatricosisporites venustus. In one of the samples (Bes5) a few specimens of Afropollis spp.", "REF (Authors, Year)_1": "Bilobe et al 2021", "Geochemistry data": "N/A", "REF (Authors, Year)_2": "N/A", "Sediment-based climate inference (hot/cold, humid/semi-arid/desert)": "Humid (coaly)", "Fossil-based climate inference (hot/cold, humid/semi-arid/desert)": "(warm) semi arid to Arid/Humid to semi-humid", "Geochemistry-based climate inference  (hot/cold, humid/semi-arid/desert)": "N/A", "Climate assignment leading evidence": "palynoflora (Classopollis spp.)", "Climate_Cl": "S", "Weight": "3", "PlateID": "701", "Sediment-based climate inference (hot/cold, humid/S/desert)": null, "Fossil-based climate inference (hot/cold, humid/S/desert)": null, "Geochemistry-based climate inference  (hot/cold, humid/S/desert)": null, "PaleozonaCodigo": null, "layer": "100.00Ma_point", "path": "C:/Users/Leonardo Bachi/OneDrive/Desktop/ITT_OCEANEON/20_SETEMBRO_TABELA_FINAL/PONTOS_RETIFICADOS/100.00Ma.geojson", "winner": "H", "cluster_size": 49}, "geometry": {"type": "Point", "coordinates": [-6.576004453809103, -17.250240345555948]}}, {"type": "Feature", "properties": {"ID": "1805", "Country": "Cameroon", "Basin_Sub_": "Manfe", "Group": "Manfe", "Formation": "Nfaitok", "Member": "N/A", "Well name/ outcrop": "Besongabang: Bakarem River (Bkp)", "Latitude": "5.69", "Longitude": "9.304722", "Dating evidence": "Palinology", "REF(Authors, Year)": "Bilobe et al 2021", "Show_on_Ma": "100", "Lithology, structures, paleowind": "siliceous and carbonate sandstones, limestones, black shales with carbonate nodules, volcanoclastics and coal beds", "Paleoenvironment": "Continental: lacustrine to fluvio-deltaic", "REF (Authors, Year)": "Bilobe et al 2021", "Fossil occurrences": "Palynomorphs consist of gymnosperm pollen, mainly Classopollis spp. and some Araucariacites spp., some trilete spores and some angiosperm pollen. The angiosperm pollen Afropollis jardinus is frequent. Other angiosperm taxa present are Stellatopollis barghoornii, questionable Retimonocolpites spp., and Trisectoris reticulatus. Other palynomorphs include some Callialasporites spp., trilete spore indet, Cicatricosisporites venustus, Concavisporites spp., Deltoidospora spp., Equisetosporites spp., Echinatisporis spp. and Matonisporites spp", "REF (Authors, Year)_1": "Bilobe et al 2021", "Geochemistry data": "N/A", "REF (Authors, Year)_2": "N/A", "Sediment-based climate inference (hot/cold, humid/semi-arid/desert)": "Humid (coaly)", "Fossil-based climate inference (hot/cold, humid/semi-arid/desert)": "(warm) semi arid to Arid/Humid to semi-humid", "Geochemistry-based climate inference  (hot/cold, humid/semi-arid/desert)": "N/A", "Climate assignment leading evidence": "palynoflora (Classopollis spp., Callialasporites spp.)", "Climate_Cl": "S", "Weight": "3", "PlateID": "701", "Sediment-based climate inference (hot/cold, humid/S/desert)": null, "Fossil-based climate inference (hot/cold, humid/S/desert)": null, "Geochemistry-based climate inference  (hot/cold, humid/S/desert)": null, "PaleozonaCodigo": null, "layer": "100.00Ma_point", "path": "C:/Users/Leonardo Bachi/OneDrive/Desktop/ITT_OCEANEON/20_SETEMBRO_TABELA_FINAL/PONTOS_RETIFICADOS/100.00Ma.geojson", "winner": "H", "cluster_size": 49}, "geometry": {"type": "Point", "coordinates": [-6.578931160323471, -17.259261274591232]}}, {"type": "Feature", "properties": {"ID": "1810", "Country": "Cameroon", "Basin_Sub_": "Manfe", "Group": "Manfe", "Formation": "Ngeme", "Member": "N/A", "Well name/ outcrop": "Etoko (Etk)", "Latitude": "5.704722", "Longitude": "9.556389", "Dating evidence": "Palinology", "REF(Authors, Year)": "Bilobe et al 2021", "Show_on_Ma": "100", "Lithology, structures, paleowind": "sandstones and clast-supported conglomerates", "Paleoenvironment": "Continental: fluvial", "REF (Authors, Year)": "Bilobe et al 2021", "Fossil occurrences": "Classopollis spp., rich in AOM, Cicatricosisporites venustus, Cicatricosisporites spp, Araucariacites spp", "REF (Authors, Year)_1": "Bilobe et al 2021", "Geochemistry data": "N/A", "REF (Authors, Year)_2": "N/A", "Sediment-based climate inference (hot/cold, humid/semi-arid/desert)": "Humid (coaly)", "Fossil-based climate inference (hot/cold, humid/semi-arid/desert)": "(warm) semi arid to Arid/Humid to semi-humid", "Geochemistry-based climate inference  (hot/cold, humid/semi-arid/desert)": "N/A", "Climate assignment leading evidence": "palynoflora (Classopollis spp.)", "Climate_Cl": "S", "Weight": "3", "PlateID": "701", "Sediment-based climate inference (hot/cold, humid/S/desert)": null, "Fossil-based climate inference (hot/cold, humid/S/desert)": null, "Geochemistry-based climate inference  (hot/cold, humid/S/desert)": null, "PaleozonaCodigo": null, "layer": "100.00Ma_point", "path": "C:/Users/Leonardo Bachi/OneDrive/Desktop/ITT_OCEANEON/20_SETEMBRO_TABELA_FINAL/PONTOS_RETIFICADOS/100.00Ma.geojson", "winner": "H", "cluster_size": 49}, "geometry": {"type": "Point", "coordinates": [-6.323788357312823, -17.319100430815944]}}, {"type": "Feature", "properties": {"ID": "2161", "Country": "Manfe", "Basin_Sub_": "Mamfe", "Group": "Cross River/Ikom-Munaya", "Formation": "N/A", "Member": null, "Well name/ outcrop": null, "Latitude": "6", "Longitude": "9.151", "Dating evidence": null, "REF(Authors, Year)": null, "Show_on_Ma": "100", "Lithology, structures, paleowind": null, "Paleoenvironment": null, "REF (Authors, Year)": null, "Fossil occurrences": null, "REF (Authors, Year)_1": null, "Geochemistry data": null, "REF (Authors, Year)_2": null, "Sediment-based climate inference (hot/cold, humid/semi-arid/desert)": null, "Fossil-based climate inference (hot/cold, humid/semi-arid/desert)": null, "Geochemistry-based climate inference  (hot/cold, humid/semi-arid/desert)": null, "Climate assignment leading evidence": null, "Climate_Cl": "S", "Weight": "3", "PlateID": "701", "Sediment-based climate inference (hot/cold, humid/S/desert)": null, "Fossil-based climate inference (hot/cold, humid/S/desert)": null, "Geochemistry-based climate inference  (hot/cold, humid/S/desert)": null, "PaleozonaCodigo": null, "layer": "100.00Ma_point", "path": "C:/Users/Leonardo Bachi/OneDrive/Desktop/ITT_OCEANEON/20_SETEMBRO_TABELA_FINAL/PONTOS_RETIFICADOS/100.00Ma.geojson", "winner": "H", "cluster_size": 49}, "geometry": {"type": "Point", "coordinates": [-6.635663462550045, -16.917874841676635]}}, {"type": "Feature", "properties": {"ID": "2163", "Country": "Manfe", "Basin_Sub_": "Mamfe", "Group": "Cross River/Ikom-Munaya", "Formation": "N/A", "Member": null, "Well name/ outcrop": null, "Latitude": "6", "Longitude": "9.059", "Dating evidence": null, "REF(Authors, Year)": null, "Show_on_Ma": "100", "Lithology, structures, paleowind": null, "Paleoenvironment": null, "REF (Authors, Year)": null, "Fossil occurrences": null, "REF (Authors, Year)_1": null, "Geochemistry data": null, "REF (Authors, Year)_2": null, "Sediment-based climate inference (hot/cold, humid/semi-arid/desert)": null, "Fossil-based climate inference (hot/cold, humid/semi-arid/desert)": null, "Geochemistry-based climate inference  (hot/cold, humid/semi-arid/desert)": null, "Climate assignment leading evidence": null, "Climate_Cl": "S", "Weight": "3", "PlateID": "701", "Sediment-based climate inference (hot/cold, humid/S/desert)": null, "Fossil-based climate inference (hot/cold, humid/S/desert)": null, "Geochemistry-based climate inference  (hot/cold, humid/S/desert)": null, "PaleozonaCodigo": null, "layer": "100.00Ma_point", "path": "C:/Users/Leonardo Bachi/OneDrive/Desktop/ITT_OCEANEON/20_SETEMBRO_TABELA_FINAL/PONTOS_RETIFICADOS/100.00Ma.geojson", "winner": "H", "cluster_size": 49}, "geometry": {"type": "Point", "coordinates": [-6.72698231212101, -16.890718663295857]}}, {"type": "Feature", "properties": {"ID": "2165", "Country": "Manfe", "Basin_Sub_": "Mamfe", "Group": "Baso", "Formation": "N/A", "Member": null, "Well name/ outcrop": null, "Latitude": "6", "Longitude": "9.341", "Dating evidence": null, "REF(Authors, Year)": null, "Show_on_Ma": "100", "Lithology, structures, paleowind": null, "Paleoenvironment": null, "REF (Authors, Year)": null, "Fossil occurrences": null, "REF (Authors, Year)_1": null, "Geochemistry data": null, "REF (Authors, Year)_2": null, "Sediment-based climate inference (hot/cold, humid/semi-arid/desert)": null, "Fossil-based climate inference (hot/cold, humid/semi-arid/desert)": null, "Geochemistry-based climate inference  (hot/cold, humid/semi-arid/desert)": null, "Climate assignment leading evidence": null, "Climate_Cl": "S", "Weight": "3", "PlateID": "701", "Sediment-based climate inference (hot/cold, humid/S/desert)": null, "Fossil-based climate inference (hot/cold, humid/S/desert)": null, "Geochemistry-based climate inference  (hot/cold, humid/S/desert)": null, "PaleozonaCodigo": null, "layer": "100.00Ma_point", "path": "C:/Users/Leonardo Bachi/OneDrive/Desktop/ITT_OCEANEON/20_SETEMBRO_TABELA_FINAL/PONTOS_RETIFICADOS/100.00Ma.geojson", "winner": "H", "cluster_size": 49}, "geometry": {"type": "Point", "coordinates": [-6.446971865414283, -16.97378343476403]}}, {"type": "Feature", "properties": {"ID": "2167", "Country": "Manfe", "Basin_Sub_": "Mamfe", "Group": "Nfaitok", "Formation": "N/A", "Member": null, "Well name/ outcrop": null, "Latitude": "6", "Longitude": "9.65", "Dating evidence": null, "REF(Authors, Year)": null, "Show_on_Ma": "100", "Lithology, structures, paleowind": null, "Paleoenvironment": null, "REF (Authors, Year)": null, "Fossil occurrences": null, "REF (Authors, Year)_1": null, "Geochemistry data": null, "REF (Authors, Year)_2": null, "Sediment-based climate inference (hot/cold, humid/semi-arid/desert)": null, "Fossil-based climate inference (hot/cold, humid/semi-arid/desert)": null, "Geochemistry-based climate inference  (hot/cold, humid/semi-arid/desert)": null, "Climate assignment leading evidence": null, "Climate_Cl": "S", "Weight": "3", "PlateID": "701", "Sediment-based climate inference (hot/cold, humid/S/desert)": null, "Fossil-based climate inference (hot/cold, humid/S/desert)": null, "Geochemistry-based climate inference  (hot/cold, humid/S/desert)": null, "PaleozonaCodigo": null, "layer": "100.00Ma_point", "path": "C:/Users/Leonardo Bachi/OneDrive/Desktop/ITT_OCEANEON/20_SETEMBRO_TABELA_FINAL/PONTOS_RETIFICADOS/100.00Ma.geojson", "winner": "H", "cluster_size": 49}, "geometry": {"type": "Point", "coordinates": [-6.139816980920139, -17.064203665564076]}}, {"type": "Feature", "properties": {"ID": "2169", "Country": "Manfe", "Basin_Sub_": "Mamfe", "Group": "Nfaitok", "Formation": "N/A", "Member": null, "Well name/ outcrop": null, "Latitude": "6", "Longitude": "9.52", "Dating evidence": null, "REF(Authors, Year)": null, "Show_on_Ma": "100", "Lithology, structures, paleowind": null, "Paleoenvironment": null, "REF (Authors, Year)": null, "Fossil occurrences": null, "REF (Authors, Year)_1": null, "Geochemistry data": null, "REF (Authors, Year)_2": null, "Sediment-based climate inference (hot/cold, humid/semi-arid/desert)": null, "Fossil-based climate inference (hot/cold, humid/semi-arid/desert)": null, "Geochemistry-based climate inference  (hot/cold, humid/semi-arid/desert)": null, "Climate assignment leading evidence": null, "Climate_Cl": "S", "Weight": "3", "PlateID": "701", "Sediment-based climate inference (hot/cold, humid/S/desert)": null, "Fossil-based climate inference (hot/cold, humid/S/desert)": null, "Geochemistry-based climate inference  (hot/cold, humid/S/desert)": null, "PaleozonaCodigo": null, "layer": "100.00Ma_point", "path": "C:/Users/Leonardo Bachi/OneDrive/Desktop/ITT_OCEANEON/20_SETEMBRO_TABELA_FINAL/PONTOS_RETIFICADOS/100.00Ma.geojson", "winner": "H", "cluster_size": 49}, "geometry": {"type": "Point", "coordinates": [-6.26908337383863, -17.026239134856777]}}, {"type": "Feature", "properties": {"ID": "2171", "Country": "Manfe", "Basin_Sub_": "Mamfe", "Group": "Nfaitok", "Formation": "N/A", "Member": null, "Well name/ outcrop": null, "Latitude": "6", "Longitude": "9.507", "Dating evidence": null, "REF(Authors, Year)": null, "Show_on_Ma": "100", "Lithology, structures, paleowind": null, "Paleoenvironment": null, "REF (Authors, Year)": null, "Fossil occurrences": null, "REF (Authors, Year)_1": null, "Geochemistry data": null, "REF (Authors, Year)_2": null, "Sediment-based climate inference (hot/cold, humid/semi-arid/desert)": null, "Fossil-based climate inference (hot/cold, humid/semi-arid/desert)": null, "Geochemistry-based climate inference  (hot/cold, humid/semi-arid/desert)": null, "Climate assignment leading evidence": null, "Climate_Cl": "S", "Weight": "3", "PlateID": "701", "Sediment-based climate inference (hot/cold, humid/S/desert)": null, "Fossil-based climate inference (hot/cold, humid/S/desert)": null, "Geochemistry-based climate inference  (hot/cold, humid/S/desert)": null, "PaleozonaCodigo": null, "layer": "100.00Ma_point", "path": "C:/Users/Leonardo Bachi/OneDrive/Desktop/ITT_OCEANEON/20_SETEMBRO_TABELA_FINAL/PONTOS_RETIFICADOS/100.00Ma.geojson", "winner": "H", "cluster_size": 49}, "geometry": {"type": "Point", "coordinates": [-6.282006606166548, -17.02243657709465]}}, {"type": "Feature", "properties": {"ID": "2173", "Country": "Manfe", "Basin_Sub_": "Mamfe", "Group": "Nfaitok", "Formation": "N/A", "Member": null, "Well name/ outcrop": null, "Latitude": "6", "Longitude": "9.3", "Dating evidence": null, "REF(Authors, Year)": null, "Show_on_Ma": "100", "Lithology, structures, paleowind": null, "Paleoenvironment": null, "REF (Authors, Year)": null, "Fossil occurrences": null, "REF (Authors, Year)_1": null, "Geochemistry data": null, "REF (Authors, Year)_2": null, "Sediment-based climate inference (hot/cold, humid/semi-arid/desert)": null, "Fossil-based climate inference (hot/cold, humid/semi-arid/desert)": null, "Geochemistry-based climate inference  (hot/cold, humid/semi-arid/desert)": null, "Climate assignment leading evidence": null, "Climate_Cl": "S", "Weight": "3", "PlateID": "701", "Sediment-based climate inference (hot/cold, humid/S/desert)": null, "Fossil-based climate inference (hot/cold, humid/S/desert)": null, "Geochemistry-based climate inference  (hot/cold, humid/S/desert)": null, "PaleozonaCodigo": null, "layer": "100.00Ma_point", "path": "C:/Users/Leonardo Bachi/OneDrive/Desktop/ITT_OCEANEON/20_SETEMBRO_TABELA_FINAL/PONTOS_RETIFICADOS/100.00Ma.geojson", "winner": "H", "cluster_size": 49}, "geometry": {"type": "Point", "coordinates": [-6.487700733175999, -16.961738908723945]}}, {"type": "Feature", "properties": {"ID": "2175", "Country": "Manfe", "Basin_Sub_": "Mamfe", "Group": "Nfaitok", "Formation": "N/A", "Member": null, "Well name/ outcrop": null, "Latitude": "6", "Longitude": "9.046", "Dating evidence": null, "REF(Authors, Year)": null, "Show_on_Ma": "100", "Lithology, structures, paleowind": null, "Paleoenvironment": null, "REF (Authors, Year)": null, "Fossil occurrences": null, "REF (Authors, Year)_1": null, "Geochemistry data": null, "REF (Authors, Year)_2": null, "Sediment-based climate inference (hot/cold, humid/semi-arid/desert)": null, "Fossil-based climate inference (hot/cold, humid/semi-arid/desert)": null, "Geochemistry-based climate inference  (hot/cold, humid/semi-arid/desert)": null, "Climate assignment leading evidence": null, "Climate_Cl": "S", "Weight": "3", "PlateID": "701", "Sediment-based climate inference (hot/cold, humid/S/desert)": null, "Fossil-based climate inference (hot/cold, humid/S/desert)": null, "Geochemistry-based climate inference  (hot/cold, humid/S/desert)": null, "PaleozonaCodigo": null, "layer": "100.00Ma_point", "path": "C:/Users/Leonardo Bachi/OneDrive/Desktop/ITT_OCEANEON/20_SETEMBRO_TABELA_FINAL/PONTOS_RETIFICADOS/100.00Ma.geojson", "winner": "H", "cluster_size": 49}, "geometry": {"type": "Point", "coordinates": [-6.739883557028164, -16.886876931110027]}}, {"type": "Feature", "properties": {"ID": "2177", "Country": "Manfe", "Basin_Sub_": "Mamfe", "Group": "Nfaitok", "Formation": "N/A", "Member": null, "Well name/ outcrop": null, "Latitude": "6", "Longitude": "9.304", "Dating evidence": null, "REF(Authors, Year)": null, "Show_on_Ma": "100", "Lithology, structures, paleowind": null, "Paleoenvironment": null, "REF (Authors, Year)": null, "Fossil occurrences": null, "REF (Authors, Year)_1": null, "Geochemistry data": null, "REF (Authors, Year)_2": null, "Sediment-based climate inference (hot/cold, humid/semi-arid/desert)": null, "Fossil-based climate inference (hot/cold, humid/semi-arid/desert)": null, "Geochemistry-based climate inference  (hot/cold, humid/semi-arid/desert)": null, "Climate assignment leading evidence": null, "Climate_Cl": "S", "Weight": "3", "PlateID": "701", "Sediment-based climate inference (hot/cold, humid/S/desert)": null, "Fossil-based climate inference (hot/cold, humid/S/desert)": null, "Geochemistry-based climate inference  (hot/cold, humid/S/desert)": null, "PaleozonaCodigo": null, "layer": "100.00Ma_point", "path": "C:/Users/Leonardo Bachi/OneDrive/Desktop/ITT_OCEANEON/20_SETEMBRO_TABELA_FINAL/PONTOS_RETIFICADOS/100.00Ma.geojson", "winner": "H", "cluster_size": 49}, "geometry": {"type": "Point", "coordinates": [-6.483727456571312, -16.962914468417797]}}, {"type": "Feature", "properties": {"ID": "2179", "Country": "Manfe", "Basin_Sub_": "Mamfe", "Group": "Nfaitok", "Formation": "N/A", "Member": null, "Well name/ outcrop": null, "Latitude": "6", "Longitude": "9.304", "Dating evidence": null, "REF(Authors, Year)": null, "Show_on_Ma": "100", "Lithology, structures, paleowind": null, "Paleoenvironment": null, "REF (Authors, Year)": null, "Fossil occurrences": null, "REF (Authors, Year)_1": null, "Geochemistry data": null, "REF (Authors, Year)_2": null, "Sediment-based climate inference (hot/cold, humid/semi-arid/desert)": null, "Fossil-based climate inference (hot/cold, humid/semi-arid/desert)": null, "Geochemistry-based climate inference  (hot/cold, humid/semi-arid/desert)": null, "Climate assignment leading evidence": null, "Climate_Cl": "S", "Weight": "3", "PlateID": "701", "Sediment-based climate inference (hot/cold, humid/S/desert)": null, "Fossil-based climate inference (hot/cold, humid/S/desert)": null, "Geochemistry-based climate inference  (hot/cold, humid/S/desert)": null, "PaleozonaCodigo": null, "layer": "100.00Ma_point", "path": "C:/Users/Leonardo Bachi/OneDrive/Desktop/ITT_OCEANEON/20_SETEMBRO_TABELA_FINAL/PONTOS_RETIFICADOS/100.00Ma.geojson", "winner": "H", "cluster_size": 49}, "geometry": {"type": "Point", "coordinates": [-6.483727456571312, -16.962914468417797]}}, {"type": "Feature", "properties": {"ID": "2181", "Country": "Manfe", "Basin_Sub_": "Mamfe", "Group": "Ngeme", "Formation": "N/A", "Member": null, "Well name/ outcrop": null, "Latitude": "6", "Longitude": "9.556", "Dating evidence": null, "REF(Authors, Year)": null, "Show_on_Ma": "100", "Lithology, structures, paleowind": null, "Paleoenvironment": null, "REF (Authors, Year)": null, "Fossil occurrences": null, "REF (Authors, Year)_1": null, "Geochemistry data": null, "REF (Authors, Year)_2": null, "Sediment-based climate inference (hot/cold, humid/semi-arid/desert)": null, "Fossil-based climate inference (hot/cold, humid/semi-arid/desert)": null, "Geochemistry-based climate inference  (hot/cold, humid/semi-arid/desert)": null, "Climate assignment leading evidence": null, "Climate_Cl": "S", "Weight": "3", "PlateID": "701", "Sediment-based climate inference (hot/cold, humid/S/desert)": null, "Fossil-based climate inference (hot/cold, humid/S/desert)": null, "Geochemistry-based climate inference  (hot/cold, humid/S/desert)": null, "PaleozonaCodigo": null, "layer": "100.00Ma_point", "path": "C:/Users/Leonardo Bachi/OneDrive/Desktop/ITT_OCEANEON/20_SETEMBRO_TABELA_FINAL/PONTOS_RETIFICADOS/100.00Ma.geojson", "winner": "H", "cluster_size": 49}, "geometry": {"type": "Point", "coordinates": [-6.233292728007134, -17.03676350518942]}}, {"type": "Feature", "properties": {"ID": "1969", "Country": "Egypt", "Basin_Sub_": "Upper Egypt", "Group": " ", "Formation": "Bahariya", "Member": null, "Well name/ outcrop": null, "Latitude": "28", "Longitude": "28.94840278", "Dating evidence": null, "REF(Authors, Year)": null, "Show_on_Ma": "100", "Lithology, structures, paleowind": null, "Paleoenvironment": null, "REF (Authors, Year)": null, "Fossil occurrences": null, "REF (Authors, Year)_1": null, "Geochemistry data": null, "REF (Authors, Year)_2": null, "Sediment-based climate inference (hot/cold, humid/semi-arid/desert)": null, "Fossil-based climate inference (hot/cold, humid/semi-arid/desert)": null, "Geochemistry-based climate inference  (hot/cold, humid/semi-arid/desert)": null, "Climate assignment leading evidence": null, "Climate_Cl": "S", "Weight": "2", "PlateID": "715", "Sediment-based climate inference (hot/cold, humid/S/desert)": null, "Fossil-based climate inference (hot/cold, humid/S/desert)": null, "Geochemistry-based climate inference  (hot/cold, humid/S/desert)": null, "PaleozonaCodigo": null, "layer": "100.00Ma_point", "path": "C:/Users/Leonardo Bachi/OneDrive/Desktop/ITT_OCEANEON/20_SETEMBRO_TABELA_FINAL/PONTOS_RETIFICADOS/100.00Ma.geojson", "winner": "H", "cluster_size": 13}, "geometry": {"type": "Point", "coordinates": [16.83646537414005, 0.442522466781351]}}, {"type": "Feature", "properties": {"ID": "1970", "Country": "Egypt", "Basin_Sub_": "Upper Egypt", "Group": " ", "Formation": "Bahariya", "Member": null, "Well name/ outcrop": null, "Latitude": "28", "Longitude": "29.11593889", "Dating evidence": null, "REF(Authors, Year)": null, "Show_on_Ma": "100", "Lithology, structures, paleowind": null, "Paleoenvironment": null, "REF (Authors, Year)": null, "Fossil occurrences": null, "REF (Authors, Year)_1": null, "Geochemistry data": null, "REF (Authors, Year)_2": null, "Sediment-based climate inference (hot/cold, humid/semi-arid/desert)": null, "Fossil-based climate inference (hot/cold, humid/semi-arid/desert)": null, "Geochemistry-based climate inference  (hot/cold, humid/semi-arid/desert)": null, "Climate assignment leading evidence": null, "Climate_Cl": "S", "Weight": "2", "PlateID": "715", "Sediment-based climate inference (hot/cold, humid/S/desert)": null, "Fossil-based climate inference (hot/cold, humid/S/desert)": null, "Geochemistry-based climate inference  (hot/cold, humid/S/desert)": null, "PaleozonaCodigo": null, "layer": "100.00Ma_point", "path": "C:/Users/Leonardo Bachi/OneDrive/Desktop/ITT_OCEANEON/20_SETEMBRO_TABELA_FINAL/PONTOS_RETIFICADOS/100.00Ma.geojson", "winner": "H", "cluster_size": 13}, "geometry": {"type": "Point", "coordinates": [16.98302342750216, 0.422424155085361]}}, {"type": "Feature", "properties": {"ID": "1991", "Country": "Equador", "Basin_Sub_": "Oriente", "Group": "N/A", "Formation": "Napo", "Member": null, "Well name/ outcrop": null, "Latitude": "0", "Longitude": "-77.16", "Dating evidence": null, "REF(Authors, Year)": null, "Show_on_Ma": "100", "Lithology, structures, paleowind": null, "Paleoenvironment": null, "REF (Authors, Year)": null, "Fossil occurrences": null, "REF (Authors, Year)_1": null, "Geochemistry data": null, "REF (Authors, Year)_2": null, "Sediment-based climate inference (hot/cold, humid/semi-arid/desert)": null, "Fossil-based climate inference (hot/cold, humid/semi-arid/desert)": null, "Geochemistry-based climate inference  (hot/cold, humid/semi-arid/desert)": null, "Climate assignment leading evidence": null, "Climate_Cl": "S", "Weight": "1", "PlateID": "201", "Sediment-based climate inference (hot/cold, humid/S/desert)": null, "Fossil-based climate inference (hot/cold, humid/S/desert)": null, "Geochemistry-based climate inference  (hot/cold, humid/S/desert)": null, "PaleozonaCodigo": null, "layer": "100.00Ma_point", "path": "C:/Users/Leonardo Bachi/OneDrive/Desktop/ITT_OCEANEON/20_SETEMBRO_TABELA_FINAL/PONTOS_RETIFICADOS/100.00Ma.geojson", "winner": "H", "cluster_size": 3}, "geometry": {"type": "Point", "coordinates": [-59.34991960126363, -10.545649580791855]}}, {"type": "Feature", "properties": {"ID": "2603", "Country": "Senegal", "Basin_Sub_": "Senegal basin", "Group": "N/A", "Formation": "N/A", "Member": "N/A", "Well name/ outcrop": "DSDP 367", "Latitude": "12.15", "Longitude": "-18.278", "Dating evidence": "N/A", "REF(Authors, Year)": "Chamley et al., 1988", "Show_on_Ma": "100", "Lithology, structures, paleowind": "Claystones and mudstones, with decreasing carbonate and increasing quartz/clay; locally black-shale facies at Site 367", "Paleoenvironment": "Marine: open-marine shelf to deep-marine basin", "REF (Authors, Year)": "Chamley et al., 1988", "Fossil occurrences": "Marine microfossils; black-shale facies at Site 367 contain organic matter", "REF (Authors, Year)_1": "Chamley et al., 1988", "Geochemistry data": "Smectite, illite, kaolinite and chlorite", "REF (Authors, Year)_2": "Chamley et al., 1988", "Sediment-based climate inference (hot/cold, humid/semi-arid/desert)": "N/A", "Fossil-based climate inference (hot/cold, humid/semi-arid/desert)": "N/A", "Geochemistry-based climate inference  (hot/cold, humid/semi-arid/desert)": "semi-arid to seasonally humid", "Climate assignment leading evidence": "smectite abundance", "Climate_Cl": "S", "Weight": "3", "PlateID": "714", "Sediment-based climate inference (hot/cold, humid/S/desert)": null, "Fossil-based climate inference (hot/cold, humid/S/desert)": null, "Geochemistry-based climate inference  (hot/cold, humid/S/desert)": null, "PaleozonaCodigo": null, "layer": "100.00Ma_point", "path": "C:/Users/Leonardo Bachi/OneDrive/Desktop/ITT_OCEANEON/20_SETEMBRO_TABELA_FINAL/PONTOS_RETIFICADOS/100.00Ma.geojson", "winner": "H", "cluster_size": 5}, "geometry": {"type": "Point", "coordinates": [-29.90164536345554, -1.22581906542349]}}, {"type": "Feature", "properties": {"ID": "2607", "Country": "Senegal", "Basin_Sub_": "Senegal basin", "Group": "N/A", "Formation": "N/A", "Member": "N/A", "Well name/ outcrop": "DSDP 367", "Latitude": "12.15", "Longitude": "-18.278", "Dating evidence": "N/A", "REF(Authors, Year)": "Chamley et al., 1988", "Show_on_Ma": "100", "Lithology, structures, paleowind": "Predominantly claystones and mudstones, with black shale at Site 367; progressive replacement of carbonate by terrigenous clay", "Paleoenvironment": "Marine: open-marine shelf to deep-marine basin", "REF (Authors, Year)": "Chamley et al., 1988", "Fossil occurrences": "Marine microfossils; black-shale facies contain organic matter", "REF (Authors, Year)_1": "Chamley et al., 1988", "Geochemistry data": "Al?e smectites, illite, kaolinite and mixed-layer clays; smectite chemistry determined by microprobe.", "REF (Authors, Year)_2": "Chamley et al., 1988", "Sediment-based climate inference (hot/cold, humid/semi-arid/desert)": "N/A", "Fossil-based climate inference (hot/cold, humid/semi-arid/desert)": "N/A", "Geochemistry-based climate inference  (hot/cold, humid/semi-arid/desert)": "semi-arid to seasonally humid", "Climate assignment leading evidence": "smectite abundance", "Climate_Cl": "S", "Weight": "3", "PlateID": "714", "Sediment-based climate inference (hot/cold, humid/S/desert)": null, "Fossil-based climate inference (hot/cold, humid/S/desert)": null, "Geochemistry-based climate inference  (hot/cold, humid/S/desert)": null, "PaleozonaCodigo": null, "layer": "100.00Ma_point", "path": "C:/Users/Leonardo Bachi/OneDrive/Desktop/ITT_OCEANEON/20_SETEMBRO_TABELA_FINAL/PONTOS_RETIFICADOS/100.00Ma.geojson", "winner": "H", "cluster_size": 5}, "geometry": {"type": "Point", "coordinates": [-29.90164536345554, -1.22581906542349]}}, {"type": "Feature", "properties": {"ID": "3115", "Country": "Venezuela", "Basin_Sub_": "Maracaibo", "Group": " ", "Formation": "La Luna", "Member": null, "Well name/ outcrop": null, "Latitude": "10", "Longitude": "-70.006", "Dating evidence": null, "REF(Authors, Year)": null, "Show_on_Ma": "100", "Lithology, structures, paleowind": null, "Paleoenvironment": null, "REF (Authors, Year)": null, "Fossil occurrences": null, "REF (Authors, Year)_1": null, "Geochemistry data": null, "REF (Authors, Year)_2": null, "Sediment-based climate inference (hot/cold, humid/semi-arid/desert)": null, "Fossil-based climate inference (hot/cold, humid/semi-arid/desert)": null, "Geochemistry-based climate inference  (hot/cold, humid/semi-arid/desert)": null, "Climate assignment leading evidence": null, "Climate_Cl": "S", "Weight": "1", "PlateID": "2030", "Sediment-based climate inference (hot/cold, humid/S/desert)": null, "Fossil-based climate inference (hot/cold, humid/S/desert)": null, "Geochemistry-based climate inference  (hot/cold, humid/S/desert)": null, "PaleozonaCodigo": null, "layer": "100.00Ma_point", "path": "C:/Users/Leonardo Bachi/OneDrive/Desktop/ITT_OCEANEON/20_SETEMBRO_TABELA_FINAL/PONTOS_RETIFICADOS/100.00Ma.geojson", "winner": "H", "cluster_size": 3}, "geometry": {"type": "Point", "coordinates": [-52.868134672972715, -2.764077859123468]}}]}