{"type": "FeatureCollection", "features": [{"type": "Feature", "properties": {"Climate_Cl": "H", "votes": 1, "cluster_size": 2, "tie": true, "status": "tie", "member_ids": "3,142"}, "geometry": {"type": "Point", "coordinates": [-5.037814744597782, 11.267909389837396]}}, {"type": "Feature", "properties": {"Climate_Cl": "S", "votes": 1, "cluster_size": 2, "tie": true, "status": "tie", "member_ids": "3,142"}, "geometry": {"type": "Point", "coordinates": [-5.037814744597782, 11.267909389837396]}}, {"type": "Feature", "properties": {"Climate_Cl": "H", "votes": 1, "cluster_size": 1, "tie": false, "status": "majority", "member_ids": "6"}, "geometry": {"type": "Point", "coordinates": [-3.483596567619659, 11.504775515686724]}}, {"type": "Feature", "properties": {"Climate_Cl": "H", "votes": 14, "cluster_size": 24, "tie": false, "status": "majority", "member_ids": "53,55,57,59,61,117,118,120,2722,2725,2728,2731,2733,2735,2737,2739,2742,2745,2747,2749,2823,2825,2841,2940"}, "geometry": {"type": "Point", "coordinates": [1.7670737530948208, 11.440192585111687]}}, {"type": "Feature", "properties": {"Climate_Cl": "S", "votes": 1, "cluster_size": 2, "tie": true, "status": "tie", "member_ids": "91,93"}, "geometry": {"type": "Point", "coordinates": [-7.106054343298697, 5.633265916504764]}}, {"type": "Feature", "properties": {"Climate_Cl": "D", "votes": 1, "cluster_size": 2, "tie": true, "status": "tie", "member_ids": "91,93"}, "geometry": {"type": "Point", "coordinates": [-7.106054343298697, 5.633265916504764]}}, {"type": "Feature", "properties": {"Climate_Cl": "S", "votes": 2, "cluster_size": 4, "tie": false, "status": "majority", "member_ids": "107,108,110,128"}, "geometry": {"type": "Point", "coordinates": [-0.4351600942107645, 11.819620904138388]}}, {"type": "Feature", "properties": {"Climate_Cl": "S", "votes": 9, "cluster_size": 9, "tie": false, "status": "majority", "member_ids": "130,131,132,133,134,135,136,137,148"}, "geometry": {"type": "Point", "coordinates": [-8.495641756331194, 10.867774601485259]}}, {"type": "Feature", "properties": {"Climate_Cl": "S", "votes": 2, "cluster_size": 2, "tie": false, "status": "majority", "member_ids": "183,185"}, "geometry": {"type": "Point", "coordinates": [-7.086387262793851, -32.297753320303286]}}, {"type": "Feature", "properties": {"Climate_Cl": "H", "votes": 2, "cluster_size": 3, "tie": false, "status": "majority", "member_ids": "209,214,221"}, "geometry": {"type": "Point", "coordinates": [-64.77552307321498, -60.000670245429795]}}, {"type": "Feature", "properties": {"Climate_Cl": "H", "votes": 1, "cluster_size": 1, "tie": false, "status": "majority", "member_ids": "251"}, "geometry": {"type": "Point", "coordinates": [-57.87641172630819, -55.386926279007014]}}, {"type": "Feature", "properties": {"Climate_Cl": "H", "votes": 1, "cluster_size": 1, "tie": false, "status": "majority", "member_ids": "264"}, "geometry": {"type": "Point", "coordinates": [-60.38483014839098, -56.33050808065232]}}, {"type": "Feature", "properties": {"Climate_Cl": "S", "votes": 1, "cluster_size": 1, "tie": false, "status": "majority", "member_ids": "296"}, "geometry": {"type": "Point", "coordinates": [-58.36339577092437, -50.3371128564683]}}, {"type": "Feature", "properties": {"Climate_Cl": "D", "votes": 1, "cluster_size": 1, "tie": false, "status": "majority", "member_ids": "334"}, "geometry": {"type": "Point", "coordinates": [-58.390575053901756, -48.99335555173985]}}, {"type": "Feature", "properties": {"Climate_Cl": "D", "votes": 1, "cluster_size": 1, "tie": false, "status": "majority", "member_ids": "349"}, "geometry": {"type": "Point", "coordinates": [-48.432783787531626, -54.356861501769785]}}, {"type": "Feature", "properties": {"Climate_Cl": "S", "votes": 1, "cluster_size": 1, "tie": false, "status": "majority", "member_ids": "382"}, "geometry": {"type": "Point", "coordinates": [-51.700474606209625, -37.53396896334128]}}, {"type": "Feature", "properties": {"Climate_Cl": "S", "votes": 1, "cluster_size": 1, "tie": false, "status": "majority", "member_ids": "405"}, "geometry": {"type": "Point", "coordinates": [-53.725375927539176, -44.09627543865642]}}, {"type": "Feature", "properties": {"Climate_Cl": "S", "votes": 1, "cluster_size": 1, "tie": false, "status": "majority", "member_ids": "418"}, "geometry": {"type": "Point", "coordinates": [-50.17731190546605, -31.837524414912384]}}, {"type": "Feature", "properties": {"Climate_Cl": "H", "votes": 2, "cluster_size": 2, "tie": false, "status": "majority", "member_ids": "435,449"}, "geometry": {"type": "Point", "coordinates": [-56.7852983731503, -17.963252439743616]}}, {"type": "Feature", "properties": {"Climate_Cl": "H", "votes": 1, "cluster_size": 1, "tie": false, "status": "majority", "member_ids": "484"}, "geometry": {"type": "Point", "coordinates": [-41.72718138450022, -9.499520022815984]}}, {"type": "Feature", "properties": {"Climate_Cl": "H", "votes": 3, "cluster_size": 4, "tie": false, "status": "majority", "member_ids": "488,544,547,550"}, "geometry": {"type": "Point", "coordinates": [-21.119715124396777, -20.609610144125373]}}, {"type": "Feature", "properties": {"Climate_Cl": "S", "votes": 3, "cluster_size": 3, "tie": false, "status": "majority", "member_ids": "586,594,602"}, "geometry": {"type": "Point", "coordinates": [-20.41098690035872, -13.836346503345263]}}, {"type": "Feature", "properties": {"Climate_Cl": "S", "votes": 5, "cluster_size": 5, "tie": false, "status": "majority", "member_ids": "625,1543,1544,1545,1563"}, "geometry": {"type": "Point", "coordinates": [-24.55166458835659, -15.31402683362237]}}, {"type": "Feature", "properties": {"Climate_Cl": "S", "votes": 2, "cluster_size": 2, "tie": false, "status": "majority", "member_ids": "642,647"}, "geometry": {"type": "Point", "coordinates": [-19.824504734565316, -27.164287360748382]}}, {"type": "Feature", "properties": {"Climate_Cl": "S", "votes": 3, "cluster_size": 3, "tie": false, "status": "majority", "member_ids": "690,693,695"}, "geometry": {"type": "Point", "coordinates": [-21.766044850922572, -36.21216674986838]}}, {"type": "Feature", "properties": {"Climate_Cl": "H", "votes": 1, "cluster_size": 1, "tie": false, "status": "majority", "member_ids": "720"}, "geometry": {"type": "Point", "coordinates": [-20.19634595561935, -16.165699146996964]}}, {"type": "Feature", "properties": {"Climate_Cl": "S", "votes": 2, "cluster_size": 2, "tie": false, "status": "majority", "member_ids": "737,742"}, "geometry": {"type": "Point", "coordinates": [-19.805194319426697, -30.334242172989086]}}, {"type": "Feature", "properties": {"Climate_Cl": "S", "votes": 1, "cluster_size": 1, "tie": false, "status": "majority", "member_ids": "757"}, "geometry": {"type": "Point", "coordinates": [-20.83302705399648, -33.22313514848256]}}, {"type": "Feature", "properties": {"Climate_Cl": "H", "votes": 1, "cluster_size": 1, "tie": false, "status": "majority", "member_ids": "777"}, "geometry": {"type": "Point", "coordinates": [-30.060805873171514, -10.17801304930729]}}, {"type": "Feature", "properties": {"Climate_Cl": "H", "votes": 1, "cluster_size": 1, "tie": false, "status": "majority", "member_ids": "794"}, "geometry": {"type": "Point", "coordinates": [-31.713785804602416, -8.559616469836138]}}, {"type": "Feature", "properties": {"Climate_Cl": "S", "votes": 6, "cluster_size": 8, "tie": false, "status": "majority", "member_ids": "809,812,814,818,1569,1570,1571,1572"}, "geometry": {"type": "Point", "coordinates": [-27.192292909841044, -17.26564383590326]}}, {"type": "Feature", "properties": {"Climate_Cl": "S", "votes": 2, "cluster_size": 2, "tie": false, "status": "majority", "member_ids": "836,852"}, "geometry": {"type": "Point", "coordinates": [-18.789617411087775, -25.92709868845067]}}, {"type": "Feature", "properties": {"Climate_Cl": "S", "votes": 2, "cluster_size": 2, "tie": false, "status": "majority", "member_ids": "904,909"}, "geometry": {"type": "Point", "coordinates": [-18.714534574791127, -28.826902339251024]}}, {"type": "Feature", "properties": {"Climate_Cl": "H", "votes": 2, "cluster_size": 2, "tie": false, "status": "majority", "member_ids": "919,925"}, "geometry": {"type": "Point", "coordinates": [-31.79890665069868, -15.11504355659939]}}, {"type": "Feature", "properties": {"Climate_Cl": "S", "votes": 3, "cluster_size": 3, "tie": false, "status": "majority", "member_ids": "935,945,950"}, "geometry": {"type": "Point", "coordinates": [-20.91231769035173, -31.337197234279085]}}, {"type": "Feature", "properties": {"Climate_Cl": "S", "votes": 3, "cluster_size": 3, "tie": false, "status": "majority", "member_ids": "982,984,986"}, "geometry": {"type": "Point", "coordinates": [-26.577817781743487, -13.278366009088295]}}, {"type": "Feature", "properties": {"Climate_Cl": "S", "votes": 1, "cluster_size": 1, "tie": false, "status": "majority", "member_ids": "1073"}, "geometry": {"type": "Point", "coordinates": [-25.664271646557903, -19.29736193079221]}}, {"type": "Feature", "properties": {"Climate_Cl": "H", "votes": 2, "cluster_size": 2, "tie": false, "status": "majority", "member_ids": "1098,1121"}, "geometry": {"type": "Point", "coordinates": [-33.41438922194996, -44.6624342933252]}}, {"type": "Feature", "properties": {"Climate_Cl": "H", "votes": 1, "cluster_size": 1, "tie": false, "status": "majority", "member_ids": "1117"}, "geometry": {"type": "Point", "coordinates": [-30.440636414643976, -41.782315771776695]}}, {"type": "Feature", "properties": {"Climate_Cl": "S", "votes": 1, "cluster_size": 1, "tie": false, "status": "majority", "member_ids": "1129"}, "geometry": {"type": "Point", "coordinates": [-21.492591896066102, -42.33698511925612]}}, {"type": "Feature", "properties": {"Climate_Cl": "S", "votes": 3, "cluster_size": 3, "tie": false, "status": "majority", "member_ids": "1167,1216,1219"}, "geometry": {"type": "Point", "coordinates": [-15.847538691472442, -21.740228835678863]}}, {"type": "Feature", "properties": {"Climate_Cl": "S", "votes": 1, "cluster_size": 1, "tie": false, "status": "majority", "member_ids": "1252"}, "geometry": {"type": "Point", "coordinates": [-17.661451600152844, -18.295667976953006]}}, {"type": "Feature", "properties": {"Climate_Cl": "S", "votes": 1, "cluster_size": 1, "tie": false, "status": "majority", "member_ids": "1261"}, "geometry": {"type": "Point", "coordinates": [-17.28221845904955, -16.309167009255845]}}, {"type": "Feature", "properties": {"Climate_Cl": "D", "votes": 6, "cluster_size": 6, "tie": false, "status": "majority", "member_ids": "1406,1407,1408,1409,1410,1411"}, "geometry": {"type": "Point", "coordinates": [-28.4117065772224, -31.240359234881794]}}, {"type": "Feature", "properties": {"Climate_Cl": "S", "votes": 1, "cluster_size": 1, "tie": false, "status": "majority", "member_ids": "1522"}, "geometry": {"type": "Point", "coordinates": [-26.98605696806296, -38.77694622362724]}}, {"type": "Feature", "properties": {"Climate_Cl": "S", "votes": 1, "cluster_size": 1, "tie": false, "status": "majority", "member_ids": "1531"}, "geometry": {"type": "Point", "coordinates": [-24.67845143022851, -37.73079114442055]}}, {"type": "Feature", "properties": {"Climate_Cl": "H", "votes": 1, "cluster_size": 2, "tie": true, "status": "tie", "member_ids": "1593,1594"}, "geometry": {"type": "Point", "coordinates": [-16.60941610540745, -24.299700432626153]}}, {"type": "Feature", "properties": {"Climate_Cl": "S", "votes": 1, "cluster_size": 2, "tie": true, "status": "tie", "member_ids": "1593,1594"}, "geometry": {"type": "Point", "coordinates": [-16.60941610540745, -24.299700432626153]}}, {"type": "Feature", "properties": {"Climate_Cl": "H", "votes": 2, "cluster_size": 2, "tie": false, "status": "majority", "member_ids": "1657,1658"}, "geometry": {"type": "Point", "coordinates": [-47.776235909599784, -16.987232627897885]}}, {"type": "Feature", "properties": {"Climate_Cl": "H", "votes": 1, "cluster_size": 1, "tie": false, "status": "majority", "member_ids": "1659"}, "geometry": {"type": "Point", "coordinates": [-44.66396807178979, -17.281063868559396]}}, {"type": "Feature", "properties": {"Climate_Cl": "H", "votes": 1, "cluster_size": 1, "tie": false, "status": "majority", "member_ids": "1711"}, "geometry": {"type": "Point", "coordinates": [-6.681044231378896, -18.48230520986954]}}, {"type": "Feature", "properties": {"Climate_Cl": "H", "votes": 27, "cluster_size": 49, "tie": false, "status": "majority", "member_ids": "1717,1719,1730,1734,1738,1742,1746,1750,1754,1758,1762,1766,1770,1774,1778,1782,1786,1790,1794,1798,1802,1805,1807,1810,1814,1816,1833,2161,2162,2163,2164,2165,2166,2167,2168,2169,2170,2171,2172,2173,2174,2175,2176,2177,2178,2179,2180,2181,2182"}, "geometry": {"type": "Point", "coordinates": [-6.505015615041664, -17.12806179500657]}}, {"type": "Feature", "properties": {"Climate_Cl": "S", "votes": 2, "cluster_size": 2, "tie": false, "status": "majority", "member_ids": "1920,1921"}, "geometry": {"type": "Point", "coordinates": [-57.05467508669571, -40.15851367459869]}}, {"type": "Feature", "properties": {"Climate_Cl": "H", "votes": 2, "cluster_size": 2, "tie": false, "status": "majority", "member_ids": "1939,1957"}, "geometry": {"type": "Point", "coordinates": [3.972655388153267, -25.7826998325673]}}, {"type": "Feature", "properties": {"Climate_Cl": "H", "votes": 2, "cluster_size": 2, "tie": false, "status": "majority", "member_ids": "1940,1958"}, "geometry": {"type": "Point", "coordinates": [0.741539301926537, -25.085473485447142]}}, {"type": "Feature", "properties": {"Climate_Cl": "H", "votes": 2, "cluster_size": 2, "tie": false, "status": "majority", "member_ids": "1941,1959"}, "geometry": {"type": "Point", "coordinates": [2.111919892752033, -28.476705627369004]}}, {"type": "Feature", "properties": {"Climate_Cl": "H", "votes": 1, "cluster_size": 1, "tie": false, "status": "majority", "member_ids": "1960"}, "geometry": {"type": "Point", "coordinates": [3.218629269606176, -28.706870792577124]}}, {"type": "Feature", "properties": {"Climate_Cl": "H", "votes": 11, "cluster_size": 13, "tie": false, "status": "majority", "member_ids": "1969,1970,1971,1972,1973,1974,1975,1976,1977,1978,1979,1980,1981"}, "geometry": {"type": "Point", "coordinates": [16.740197197671733, 0.45592300345435943]}}, {"type": "Feature", "properties": {"Climate_Cl": "S", "votes": 1, "cluster_size": 1, "tie": false, "status": "majority", "member_ids": "1984"}, "geometry": {"type": "Point", "coordinates": [16.747762393685587, 2.474296334474887]}}, {"type": "Feature", "properties": {"Climate_Cl": "H", "votes": 2, "cluster_size": 3, "tie": false, "status": "majority", "member_ids": "1990,1991,1992"}, "geometry": {"type": "Point", "coordinates": [-59.445548298212394, -10.532037210783919]}}, {"type": "Feature", "properties": {"Climate_Cl": "S", "votes": 1, "cluster_size": 1, "tie": false, "status": "majority", "member_ids": "2027"}, "geometry": {"type": "Point", "coordinates": [-7.41497399343682, -20.91599243208935]}}, {"type": "Feature", "properties": {"Climate_Cl": "S", "votes": 2, "cluster_size": 2, "tie": false, "status": "majority", "member_ids": "2065,2068"}, "geometry": {"type": "Point", "coordinates": [-13.253591202104737, -15.81728415158346]}}, {"type": "Feature", "properties": {"Climate_Cl": "D", "votes": 1, "cluster_size": 1, "tie": false, "status": "majority", "member_ids": "2086"}, "geometry": {"type": "Point", "coordinates": [-19.3283553719494, -13.561839300797077]}}, {"type": "Feature", "properties": {"Climate_Cl": "H", "votes": 1, "cluster_size": 1, "tie": false, "status": "majority", "member_ids": "2091"}, "geometry": {"type": "Point", "coordinates": [7.118298569928628, 3.507016688911277]}}, {"type": "Feature", "properties": {"Climate_Cl": "S", "votes": 1, "cluster_size": 1, "tie": false, "status": "majority", "member_ids": "2216"}, "geometry": {"type": "Point", "coordinates": [-17.385747830078138, 11.119583381355584]}}, {"type": "Feature", "properties": {"Climate_Cl": "H", "votes": 1, "cluster_size": 2, "tie": true, "status": "tie", "member_ids": "2227,2228"}, "geometry": {"type": "Point", "coordinates": [-11.192695150943523, 11.720461900314328]}}, {"type": "Feature", "properties": {"Climate_Cl": "D", "votes": 1, "cluster_size": 2, "tie": true, "status": "tie", "member_ids": "2227,2228"}, "geometry": {"type": "Point", "coordinates": [-11.192695150943523, 11.720461900314328]}}, {"type": "Feature", "properties": {"Climate_Cl": "S", "votes": 1, "cluster_size": 1, "tie": false, "status": "majority", "member_ids": "2239"}, "geometry": {"type": "Point", "coordinates": [-10.229669628474891, -37.203226313078105]}}, {"type": "Feature", "properties": {"Climate_Cl": "S", "votes": 1, "cluster_size": 1, "tie": false, "status": "majority", "member_ids": "2265"}, "geometry": {"type": "Point", "coordinates": [-5.484456923629256, -5.850097674412028]}}, {"type": "Feature", "properties": {"Climate_Cl": "S", "votes": 1, "cluster_size": 1, "tie": false, "status": "majority", "member_ids": "2324"}, "geometry": {"type": "Point", "coordinates": [-3.185280105722158, -14.02404051645864]}}, {"type": "Feature", "properties": {"Climate_Cl": "S", "votes": 1, "cluster_size": 1, "tie": false, "status": "majority", "member_ids": "2356"}, "geometry": {"type": "Point", "coordinates": [-7.913738885211563, -16.549805435191715]}}, {"type": "Feature", "properties": {"Climate_Cl": "S", "votes": 1, "cluster_size": 1, "tie": false, "status": "majority", "member_ids": "2393"}, "geometry": {"type": "Point", "coordinates": [-61.59473765082081, -17.299304707547076]}}, {"type": "Feature", "properties": {"Climate_Cl": "S", "votes": 1, "cluster_size": 1, "tie": false, "status": "majority", "member_ids": "2407"}, "geometry": {"type": "Point", "coordinates": [-56.159234214302494, -27.12776405275617]}}, {"type": "Feature", "properties": {"Climate_Cl": "S", "votes": 1, "cluster_size": 1, "tie": false, "status": "majority", "member_ids": "2419"}, "geometry": {"type": "Point", "coordinates": [-60.20446649173809, -20.531935855863125]}}, {"type": "Feature", "properties": {"Climate_Cl": "S", "votes": 1, "cluster_size": 1, "tie": false, "status": "majority", "member_ids": "2434"}, "geometry": {"type": "Point", "coordinates": [-60.72736676325844, -21.469727851010834]}}, {"type": "Feature", "properties": {"Climate_Cl": "H", "votes": 3, "cluster_size": 3, "tie": false, "status": "majority", "member_ids": "2454,2468,2479"}, "geometry": {"type": "Point", "coordinates": [-58.125021408205725, -17.785867803035554]}}, {"type": "Feature", "properties": {"Climate_Cl": "H", "votes": 1, "cluster_size": 1, "tie": false, "status": "majority", "member_ids": "2461"}, "geometry": {"type": "Point", "coordinates": [-59.484558079479015, -16.589285934184897]}}, {"type": "Feature", "properties": {"Climate_Cl": "S", "votes": 1, "cluster_size": 1, "tie": false, "status": "majority", "member_ids": "2491"}, "geometry": {"type": "Point", "coordinates": [-57.77772587537425, -18.8422221044555]}}, {"type": "Feature", "properties": {"Climate_Cl": "S", "votes": 1, "cluster_size": 1, "tie": false, "status": "majority", "member_ids": "2505"}, "geometry": {"type": "Point", "coordinates": [-7.612921032395948, -27.99169420341816]}}, {"type": "Feature", "properties": {"Climate_Cl": "H", "votes": 3, "cluster_size": 6, "tie": true, "status": "tie", "member_ids": "2522,2524,2583,2585,2621,2628"}, "geometry": {"type": "Point", "coordinates": [-27.565551404733046, 0.5477682475392803]}}, {"type": "Feature", "properties": {"Climate_Cl": "S", "votes": 3, "cluster_size": 6, "tie": true, "status": "tie", "member_ids": "2522,2524,2583,2585,2621,2628"}, "geometry": {"type": "Point", "coordinates": [-27.565551404733046, 0.5477682475392803]}}, {"type": "Feature", "properties": {"Climate_Cl": "H", "votes": 3, "cluster_size": 5, "tie": false, "status": "majority", "member_ids": "2539,2541,2603,2604,2607"}, "geometry": {"type": "Point", "coordinates": [-29.901645363455536, -1.22581906542349]}}, {"type": "Feature", "properties": {"Climate_Cl": "H", "votes": 2, "cluster_size": 2, "tie": false, "status": "majority", "member_ids": "2556,2558"}, "geometry": {"type": "Point", "coordinates": [-26.50860949248516, 1.66520794267635]}}, {"type": "Feature", "properties": {"Climate_Cl": "H", "votes": 1, "cluster_size": 2, "tie": true, "status": "tie", "member_ids": "2567,2568"}, "geometry": {"type": "Point", "coordinates": [-26.64193384406484, -1.808849971777437]}}, {"type": "Feature", "properties": {"Climate_Cl": "S", "votes": 1, "cluster_size": 2, "tie": true, "status": "tie", "member_ids": "2567,2568"}, "geometry": {"type": "Point", "coordinates": [-26.64193384406484, -1.808849971777437]}}, {"type": "Feature", "properties": {"Climate_Cl": "S", "votes": 8, "cluster_size": 8, "tie": false, "status": "majority", "member_ids": "2904,2910,2913,2916,2922,2927,2932,2938"}, "geometry": {"type": "Point", "coordinates": [2.068836722134413, 8.70095725825825]}}, {"type": "Feature", "properties": {"Climate_Cl": "S", "votes": 2, "cluster_size": 2, "tie": false, "status": "majority", "member_ids": "2942,2946"}, "geometry": {"type": "Point", "coordinates": [1.211258924851021, 9.821307816782909]}}, {"type": "Feature", "properties": {"Climate_Cl": "H", "votes": 1, "cluster_size": 1, "tie": false, "status": "majority", "member_ids": "2985"}, "geometry": {"type": "Point", "coordinates": [-39.7128641923033, -47.771607134547196]}}, {"type": "Feature", "properties": {"Climate_Cl": "S", "votes": 1, "cluster_size": 1, "tie": false, "status": "majority", "member_ids": "3017"}, "geometry": {"type": "Point", "coordinates": [-51.121482961397746, -3.142253358359445]}}, {"type": "Feature", "properties": {"Climate_Cl": "H", "votes": 1, "cluster_size": 1, "tie": false, "status": "majority", "member_ids": "3018"}, "geometry": {"type": "Point", "coordinates": [-51.771218822093324, -3.993848711783684]}}, {"type": "Feature", "properties": {"Climate_Cl": "H", "votes": 2, "cluster_size": 2, "tie": false, "status": "majority", "member_ids": "3055,3056"}, "geometry": {"type": "Point", "coordinates": [-44.44222473415431, -2.5547976141860915]}}, {"type": "Feature", "properties": {"Climate_Cl": "H", "votes": 3, "cluster_size": 3, "tie": false, "status": "majority", "member_ids": "3092,3093,3094"}, "geometry": {"type": "Point", "coordinates": [-55.22672041916221, -4.421684902335583]}}, {"type": "Feature", "properties": {"Climate_Cl": "S", "votes": 1, "cluster_size": 1, "tie": false, "status": "majority", "member_ids": "3095"}, "geometry": {"type": "Point", "coordinates": [-53.8082590283647, -3.803397189694155]}}, {"type": "Feature", "properties": {"Climate_Cl": "S", "votes": 1, "cluster_size": 1, "tie": false, "status": "majority", "member_ids": "3113"}, "geometry": {"type": "Point", "coordinates": [-54.88886192462712, -2.842651606037873]}}, {"type": "Feature", "properties": {"Climate_Cl": "H", "votes": 2, "cluster_size": 3, "tie": false, "status": "majority", "member_ids": "3114,3115,3168"}, "geometry": {"type": "Point", "coordinates": [-52.86813467297272, -2.764077859123468]}}, {"type": "Feature", "properties": {"Climate_Cl": "H", "votes": 1, "cluster_size": 1, "tie": false, "status": "majority", "member_ids": "3172"}, "geometry": {"type": "Point", "coordinates": [-46.4702705684936, -4.062504639649152]}}]}