{"type": "FeatureCollection", "features": [{"type": "Feature", "properties": {"Climate_Cl": "H", "votes": 1, "cluster_size": 1, "tie": false, "status": "majority", "member_ids": "2"}, "geometry": {"type": "Point", "coordinates": [-4.267928165966618, 10.377111168842728]}}, {"type": "Feature", "properties": {"Climate_Cl": "H", "votes": 1, "cluster_size": 1, "tie": false, "status": "majority", "member_ids": "5"}, "geometry": {"type": "Point", "coordinates": [-2.828002193128508, 10.848865426229642]}}, {"type": "Feature", "properties": {"Climate_Cl": "S", "votes": 6, "cluster_size": 6, "tie": false, "status": "majority", "member_ids": "9,12,15,18,21,22"}, "geometry": {"type": "Point", "coordinates": [-3.6037629495843304, 12.562450152504963]}}, {"type": "Feature", "properties": {"Climate_Cl": "H", "votes": 3, "cluster_size": 5, "tie": false, "status": "majority", "member_ids": "83,86,89,90,92"}, "geometry": {"type": "Point", "coordinates": [-6.19280577347575, 4.885966540635254]}}, {"type": "Feature", "properties": {"Climate_Cl": "S", "votes": 2, "cluster_size": 3, "tie": false, "status": "majority", "member_ids": "105,106,127"}, "geometry": {"type": "Point", "coordinates": [0.21710272713273568, 11.116102636065579]}}, {"type": "Feature", "properties": {"Climate_Cl": "H", "votes": 3, "cluster_size": 3, "tie": false, "status": "majority", "member_ids": "155,164,173"}, "geometry": {"type": "Point", "coordinates": [-5.733429224499662, 10.603865551575888]}}, {"type": "Feature", "properties": {"Climate_Cl": "S", "votes": 2, "cluster_size": 2, "tie": false, "status": "majority", "member_ids": "184,186"}, "geometry": {"type": "Point", "coordinates": [-7.760803006117831, -32.83604579387896]}}, {"type": "Feature", "properties": {"Climate_Cl": "S", "votes": 2, "cluster_size": 2, "tie": false, "status": "majority", "member_ids": "208,231"}, "geometry": {"type": "Point", "coordinates": [-62.66227712245825, -60.23755101351031]}}, {"type": "Feature", "properties": {"Climate_Cl": "H", "votes": 1, "cluster_size": 1, "tie": false, "status": "majority", "member_ids": "220"}, "geometry": {"type": "Point", "coordinates": [-61.581251756316114, -59.8706512972517]}}, {"type": "Feature", "properties": {"Climate_Cl": "S", "votes": 2, "cluster_size": 2, "tie": false, "status": "majority", "member_ids": "239,240"}, "geometry": {"type": "Point", "coordinates": [-55.21792201221032, -55.677004884404624]}}, {"type": "Feature", "properties": {"Climate_Cl": "H", "votes": 1, "cluster_size": 1, "tie": false, "status": "majority", "member_ids": "259"}, "geometry": {"type": "Point", "coordinates": [-58.195645660333064, -60.00302279963016]}}, {"type": "Feature", "properties": {"Climate_Cl": "S", "votes": 1, "cluster_size": 1, "tie": false, "status": "majority", "member_ids": "270"}, "geometry": {"type": "Point", "coordinates": [-57.81570595923185, -57.08993605157207]}}, {"type": "Feature", "properties": {"Climate_Cl": "D", "votes": 1, "cluster_size": 1, "tie": false, "status": "majority", "member_ids": "333"}, "geometry": {"type": "Point", "coordinates": [-56.187583667293474, -49.55151569576063]}}, {"type": "Feature", "properties": {"Climate_Cl": "D", "votes": 1, "cluster_size": 1, "tie": false, "status": "majority", "member_ids": "348"}, "geometry": {"type": "Point", "coordinates": [-45.95181707902466, -54.79584167011148]}}, {"type": "Feature", "properties": {"Climate_Cl": "S", "votes": 2, "cluster_size": 2, "tie": false, "status": "majority", "member_ids": "380,381"}, "geometry": {"type": "Point", "coordinates": [-49.694770800476, -38.01605406172569]}}, {"type": "Feature", "properties": {"Climate_Cl": "S", "votes": 1, "cluster_size": 1, "tie": false, "status": "majority", "member_ids": "404"}, "geometry": {"type": "Point", "coordinates": [-51.59635909909904, -44.601734211870145]}}, {"type": "Feature", "properties": {"Climate_Cl": "S", "votes": 1, "cluster_size": 1, "tie": false, "status": "majority", "member_ids": "417"}, "geometry": {"type": "Point", "coordinates": [-48.26645246845247, -32.30166623476917]}}, {"type": "Feature", "properties": {"Climate_Cl": "H", "votes": 3, "cluster_size": 3, "tie": false, "status": "majority", "member_ids": "434,447,448"}, "geometry": {"type": "Point", "coordinates": [-55.10268796068524, -18.506446947806005]}}, {"type": "Feature", "properties": {"Climate_Cl": "H", "votes": 2, "cluster_size": 2, "tie": false, "status": "majority", "member_ids": "482,483"}, "geometry": {"type": "Point", "coordinates": [-40.12657195487332, -9.857433774112755]}}, {"type": "Feature", "properties": {"Climate_Cl": "H", "votes": 7, "cluster_size": 15, "tie": false, "status": "majority", "member_ids": "487,500,501,503,505,507,509,511,513,515,517,519,545,546,549"}, "geometry": {"type": "Point", "coordinates": [-20.000719975869778, -20.84174483647205]}}, {"type": "Feature", "properties": {"Climate_Cl": "S", "votes": 2, "cluster_size": 3, "tie": false, "status": "majority", "member_ids": "591,601,2085"}, "geometry": {"type": "Point", "coordinates": [-18.95131732560472, -13.847222558220544]}}, {"type": "Feature", "properties": {"Climate_Cl": "S", "votes": 5, "cluster_size": 5, "tie": false, "status": "majority", "member_ids": "619,622,624,1559,1562"}, "geometry": {"type": "Point", "coordinates": [-22.851754827090456, -15.430163622106274]}}, {"type": "Feature", "properties": {"Climate_Cl": "S", "votes": 2, "cluster_size": 3, "tie": false, "status": "majority", "member_ids": "641,646,649"}, "geometry": {"type": "Point", "coordinates": [-17.921985403212084, -27.20980722710748]}}, {"type": "Feature", "properties": {"Climate_Cl": "S", "votes": 2, "cluster_size": 4, "tie": true, "status": "tie", "member_ids": "692,694,702,705"}, "geometry": {"type": "Point", "coordinates": [-20.043350706773822, -36.208533583783115]}}, {"type": "Feature", "properties": {"Climate_Cl": "D", "votes": 2, "cluster_size": 4, "tie": true, "status": "tie", "member_ids": "692,694,702,705"}, "geometry": {"type": "Point", "coordinates": [-20.043350706773822, -36.208533583783115]}}, {"type": "Feature", "properties": {"Climate_Cl": "H", "votes": 1, "cluster_size": 2, "tie": true, "status": "tie", "member_ids": "719,723"}, "geometry": {"type": "Point", "coordinates": [-18.481685501725018, -16.218052867835308]}}, {"type": "Feature", "properties": {"Climate_Cl": "S", "votes": 1, "cluster_size": 2, "tie": true, "status": "tie", "member_ids": "719,723"}, "geometry": {"type": "Point", "coordinates": [-18.481685501725018, -16.218052867835308]}}, {"type": "Feature", "properties": {"Climate_Cl": "S", "votes": 2, "cluster_size": 2, "tie": false, "status": "majority", "member_ids": "736,741"}, "geometry": {"type": "Point", "coordinates": [-17.842079237541885, -30.379034062707863]}}, {"type": "Feature", "properties": {"Climate_Cl": "S", "votes": 1, "cluster_size": 1, "tie": false, "status": "majority", "member_ids": "760"}, "geometry": {"type": "Point", "coordinates": [-18.81162616689129, -33.28257719268217]}}, {"type": "Feature", "properties": {"Climate_Cl": "S", "votes": 2, "cluster_size": 2, "tie": false, "status": "majority", "member_ids": "763,766"}, "geometry": {"type": "Point", "coordinates": [-17.19909017955359, -33.366800411541476]}}, {"type": "Feature", "properties": {"Climate_Cl": "H", "votes": 2, "cluster_size": 2, "tie": false, "status": "majority", "member_ids": "776,787"}, "geometry": {"type": "Point", "coordinates": [-28.441726651903423, -10.374264040958074]}}, {"type": "Feature", "properties": {"Climate_Cl": "H", "votes": 1, "cluster_size": 1, "tie": false, "status": "majority", "member_ids": "803"}, "geometry": {"type": "Point", "coordinates": [-30.119231778740218, -8.779582044970258]}}, {"type": "Feature", "properties": {"Climate_Cl": "S", "votes": 4, "cluster_size": 7, "tie": false, "status": "majority", "member_ids": "811,813,817,822,1566,1567,1568"}, "geometry": {"type": "Point", "coordinates": [-25.46315610102285, -17.419872346376586]}}, {"type": "Feature", "properties": {"Climate_Cl": "S", "votes": 2, "cluster_size": 2, "tie": false, "status": "majority", "member_ids": "835,851"}, "geometry": {"type": "Point", "coordinates": [-16.909612613832643, -25.95758841127216]}}, {"type": "Feature", "properties": {"Climate_Cl": "S", "votes": 2, "cluster_size": 2, "tie": false, "status": "majority", "member_ids": "903,908"}, "geometry": {"type": "Point", "coordinates": [-16.78045635777694, -28.855892922412696]}}, {"type": "Feature", "properties": {"Climate_Cl": "H", "votes": 2, "cluster_size": 3, "tie": false, "status": "majority", "member_ids": "923,924,930"}, "geometry": {"type": "Point", "coordinates": [-30.10709917145253, -15.335527116586258]}}, {"type": "Feature", "properties": {"Climate_Cl": "S", "votes": 2, "cluster_size": 2, "tie": false, "status": "majority", "member_ids": "943,948"}, "geometry": {"type": "Point", "coordinates": [-18.9296812399433, -31.39808573384845]}}, {"type": "Feature", "properties": {"Climate_Cl": "H", "votes": 1, "cluster_size": 1, "tie": false, "status": "majority", "member_ids": "989"}, "geometry": {"type": "Point", "coordinates": [-24.910365932979555, -13.424153670636496]}}, {"type": "Feature", "properties": {"Climate_Cl": "D", "votes": 1, "cluster_size": 1, "tie": false, "status": "majority", "member_ids": "1009"}, "geometry": {"type": "Point", "coordinates": [-35.386902685146524, -36.16500905372946]}}, {"type": "Feature", "properties": {"Climate_Cl": "D", "votes": 2, "cluster_size": 2, "tie": false, "status": "majority", "member_ids": "1013,1017"}, "geometry": {"type": "Point", "coordinates": [-34.375413553058884, -36.98792791466789]}}, {"type": "Feature", "properties": {"Climate_Cl": "S", "votes": 1, "cluster_size": 1, "tie": false, "status": "majority", "member_ids": "1072"}, "geometry": {"type": "Point", "coordinates": [-23.901367378154305, -19.429215029125288]}}, {"type": "Feature", "properties": {"Climate_Cl": "S", "votes": 1, "cluster_size": 1, "tie": false, "status": "majority", "member_ids": "1128"}, "geometry": {"type": "Point", "coordinates": [-19.256293480052403, -42.40451956284674]}}, {"type": "Feature", "properties": {"Climate_Cl": "S", "votes": 2, "cluster_size": 2, "tie": false, "status": "majority", "member_ids": "1244,1251"}, "geometry": {"type": "Point", "coordinates": [-15.912335994566455, -18.310544913160435]}}, {"type": "Feature", "properties": {"Climate_Cl": "S", "votes": 2, "cluster_size": 2, "tie": false, "status": "majority", "member_ids": "1257,1260"}, "geometry": {"type": "Point", "coordinates": [-15.565154347701803, -16.318706265479996]}}, {"type": "Feature", "properties": {"Climate_Cl": "D", "votes": 11, "cluster_size": 21, "tie": false, "status": "majority", "member_ids": "1395,1396,1397,1398,1399,1400,1401,1402,1403,1404,1405,1484,1485,1488,1489,1490,1491,1492,1493,1494,1495"}, "geometry": {"type": "Point", "coordinates": [-26.341248649354263, -31.411605504455956]}}, {"type": "Feature", "properties": {"Climate_Cl": "S", "votes": 2, "cluster_size": 2, "tie": false, "status": "majority", "member_ids": "1486,1487"}, "geometry": {"type": "Point", "coordinates": [-26.468857256495845, -32.41028857906632]}}, {"type": "Feature", "properties": {"Climate_Cl": "S", "votes": 2, "cluster_size": 2, "tie": false, "status": "majority", "member_ids": "1521,1527"}, "geometry": {"type": "Point", "coordinates": [-24.847738175547324, -38.92523697188215]}}, {"type": "Feature", "properties": {"Climate_Cl": "S", "votes": 1, "cluster_size": 1, "tie": false, "status": "majority", "member_ids": "1530"}, "geometry": {"type": "Point", "coordinates": [-22.561024025804002, -37.84573614634587]}}, {"type": "Feature", "properties": {"Climate_Cl": "S", "votes": 1, "cluster_size": 1, "tie": false, "status": "majority", "member_ids": "1557"}, "geometry": {"type": "Point", "coordinates": [-25.871367199063958, -15.65576650521067]}}, {"type": "Feature", "properties": {"Climate_Cl": "H", "votes": 4, "cluster_size": 4, "tie": false, "status": "majority", "member_ids": "1651,1652,1653,1654"}, "geometry": {"type": "Point", "coordinates": [-46.0824785279906, -17.422893986183823]}}, {"type": "Feature", "properties": {"Climate_Cl": "H", "votes": 2, "cluster_size": 2, "tie": false, "status": "majority", "member_ids": "1655,1656"}, "geometry": {"type": "Point", "coordinates": [-42.95930406631831, -17.67688651560563]}}, {"type": "Feature", "properties": {"Climate_Cl": "H", "votes": 1, "cluster_size": 1, "tie": false, "status": "majority", "member_ids": "1710"}, "geometry": {"type": "Point", "coordinates": [-6.874610371289973, -19.03859031399191]}}, {"type": "Feature", "properties": {"Climate_Cl": "H", "votes": 6, "cluster_size": 6, "tie": false, "status": "majority", "member_ids": "1722,1820,1823,1826,1829,1832"}, "geometry": {"type": "Point", "coordinates": [-6.754453166237916, -17.773865322946076]}}, {"type": "Feature", "properties": {"Climate_Cl": "S", "votes": 2, "cluster_size": 2, "tie": false, "status": "majority", "member_ids": "1918,1919"}, "geometry": {"type": "Point", "coordinates": [-55.03664235326185, -40.702854382293694]}}, {"type": "Feature", "properties": {"Climate_Cl": "H", "votes": 2, "cluster_size": 3, "tie": false, "status": "majority", "member_ids": "1936,1953,1967"}, "geometry": {"type": "Point", "coordinates": [3.5994602952476256, -26.62191220339975]}}, {"type": "Feature", "properties": {"Climate_Cl": "H", "votes": 2, "cluster_size": 2, "tie": false, "status": "majority", "member_ids": "1937,1954"}, "geometry": {"type": "Point", "coordinates": [0.370276980294888, -25.840768956339076]}}, {"type": "Feature", "properties": {"Climate_Cl": "H", "votes": 2, "cluster_size": 2, "tie": false, "status": "majority", "member_ids": "1938,1955"}, "geometry": {"type": "Point", "coordinates": [1.636861771537835, -29.266564351137905]}}, {"type": "Feature", "properties": {"Climate_Cl": "H", "votes": 1, "cluster_size": 1, "tie": false, "status": "majority", "member_ids": "1956"}, "geometry": {"type": "Point", "coordinates": [2.743897094348384, -29.52541935137967]}}, {"type": "Feature", "properties": {"Climate_Cl": "H", "votes": 2, "cluster_size": 3, "tie": false, "status": "majority", "member_ids": "1987,1988,1989"}, "geometry": {"type": "Point", "coordinates": [-57.857011998631656, -11.10501656445331]}}, {"type": "Feature", "properties": {"Climate_Cl": "H", "votes": 1, "cluster_size": 2, "tie": true, "status": "tie", "member_ids": "2019,2026"}, "geometry": {"type": "Point", "coordinates": [-7.848224300840696, -21.583961022886456]}}, {"type": "Feature", "properties": {"Climate_Cl": "S", "votes": 1, "cluster_size": 2, "tie": true, "status": "tie", "member_ids": "2019,2026"}, "geometry": {"type": "Point", "coordinates": [-7.848224300840696, -21.583961022886456]}}, {"type": "Feature", "properties": {"Climate_Cl": "S", "votes": 1, "cluster_size": 1, "tie": false, "status": "majority", "member_ids": "2040"}, "geometry": {"type": "Point", "coordinates": [-10.558404913880432, -26.847613743958533]}}, {"type": "Feature", "properties": {"Climate_Cl": "S", "votes": 1, "cluster_size": 1, "tie": false, "status": "majority", "member_ids": "2067"}, "geometry": {"type": "Point", "coordinates": [-13.378055068959462, -16.188377685466044]}}, {"type": "Feature", "properties": {"Climate_Cl": "S", "votes": 2, "cluster_size": 2, "tie": false, "status": "majority", "member_ids": "2210,2212"}, "geometry": {"type": "Point", "coordinates": [-14.106152722425287, 11.700394741446061]}}, {"type": "Feature", "properties": {"Climate_Cl": "S", "votes": 1, "cluster_size": 1, "tie": false, "status": "majority", "member_ids": "2215"}, "geometry": {"type": "Point", "coordinates": [-16.71373713613038, 10.856578934216946]}}, {"type": "Feature", "properties": {"Climate_Cl": "D", "votes": 1, "cluster_size": 1, "tie": false, "status": "majority", "member_ids": "2226"}, "geometry": {"type": "Point", "coordinates": [-12.182060476392065, 12.061457768321855]}}, {"type": "Feature", "properties": {"Climate_Cl": "H", "votes": 1, "cluster_size": 1, "tie": false, "status": "majority", "member_ids": "2243"}, "geometry": {"type": "Point", "coordinates": [-11.128143306458332, -37.64975208172318]}}, {"type": "Feature", "properties": {"Climate_Cl": "S", "votes": 1, "cluster_size": 1, "tie": false, "status": "majority", "member_ids": "2269"}, "geometry": {"type": "Point", "coordinates": [-5.306636349776412, -6.444682907621121]}}, {"type": "Feature", "properties": {"Climate_Cl": "H", "votes": 12, "cluster_size": 14, "tie": false, "status": "majority", "member_ids": "2278,2282,2286,2290,2294,2298,2302,2306,2310,2314,2318,2322,2323,2329"}, "geometry": {"type": "Point", "coordinates": [-2.9799619402235815, -14.0430630778515]}}, {"type": "Feature", "properties": {"Climate_Cl": "S", "votes": 1, "cluster_size": 1, "tie": false, "status": "majority", "member_ids": "2360"}, "geometry": {"type": "Point", "coordinates": [-8.05088579746357, -17.072445533732708]}}, {"type": "Feature", "properties": {"Climate_Cl": "S", "votes": 2, "cluster_size": 3, "tie": false, "status": "majority", "member_ids": "2392,2394,2397"}, "geometry": {"type": "Point", "coordinates": [-59.935241073458506, -17.89465648174566]}}, {"type": "Feature", "properties": {"Climate_Cl": "S", "votes": 1, "cluster_size": 1, "tie": false, "status": "majority", "member_ids": "2406"}, "geometry": {"type": "Point", "coordinates": [-54.35177918711, -27.66318873796257]}}, {"type": "Feature", "properties": {"Climate_Cl": "S", "votes": 2, "cluster_size": 2, "tie": false, "status": "majority", "member_ids": "2418,2423"}, "geometry": {"type": "Point", "coordinates": [-58.501852453939826, -21.112433989093958]}}, {"type": "Feature", "properties": {"Climate_Cl": "S", "votes": 2, "cluster_size": 2, "tie": false, "status": "majority", "member_ids": "2431,2433"}, "geometry": {"type": "Point", "coordinates": [-59.01532292959823, -22.055719406100113]}}, {"type": "Feature", "properties": {"Climate_Cl": "H", "votes": 3, "cluster_size": 3, "tie": false, "status": "majority", "member_ids": "2453,2467,2478"}, "geometry": {"type": "Point", "coordinates": [-56.44873432036559, -18.34399321684751]}}, {"type": "Feature", "properties": {"Climate_Cl": "S", "votes": 1, "cluster_size": 1, "tie": false, "status": "majority", "member_ids": "2490"}, "geometry": {"type": "Point", "coordinates": [-56.08732841340843, -19.396437216525815]}}, {"type": "Feature", "properties": {"Climate_Cl": "S", "votes": 1, "cluster_size": 1, "tie": false, "status": "majority", "member_ids": "2509"}, "geometry": {"type": "Point", "coordinates": [-8.127409178342079, -28.517486974512636]}}, {"type": "Feature", "properties": {"Climate_Cl": "H", "votes": 2, "cluster_size": 3, "tie": false, "status": "majority", "member_ids": "2521,2589,2619"}, "geometry": {"type": "Point", "coordinates": [-27.209169040941415, 0.5533384066352349]}}, {"type": "Feature", "properties": {"Climate_Cl": "H", "votes": 1, "cluster_size": 2, "tie": true, "status": "tie", "member_ids": "2538,2602"}, "geometry": {"type": "Point", "coordinates": [-29.588006612746597, -1.115759252488525]}}, {"type": "Feature", "properties": {"Climate_Cl": "S", "votes": 1, "cluster_size": 2, "tie": true, "status": "tie", "member_ids": "2538,2602"}, "geometry": {"type": "Point", "coordinates": [-29.588006612746597, -1.115759252488525]}}, {"type": "Feature", "properties": {"Climate_Cl": "H", "votes": 1, "cluster_size": 1, "tie": false, "status": "majority", "member_ids": "2555"}, "geometry": {"type": "Point", "coordinates": [-26.111297595167414, 1.674095109156057]}}, {"type": "Feature", "properties": {"Climate_Cl": "D", "votes": 8, "cluster_size": 15, "tie": false, "status": "majority", "member_ids": "2663,2667,2669,2672,2675,2679,2682,2901,2902,2907,2919,2920,2925,2930,2935"}, "geometry": {"type": "Point", "coordinates": [2.626272108175236, 7.753820098288032]}}, {"type": "Feature", "properties": {"Climate_Cl": "S", "votes": 4, "cluster_size": 4, "tie": false, "status": "majority", "member_ids": "2756,2945,2948,2949"}, "geometry": {"type": "Point", "coordinates": [1.892723700418479, 9.08945929640413]}}, {"type": "Feature", "properties": {"Climate_Cl": "S", "votes": 1, "cluster_size": 1, "tie": false, "status": "majority", "member_ids": "2984"}, "geometry": {"type": "Point", "coordinates": [-37.381879366408235, -48.09757397651067]}}, {"type": "Feature", "properties": {"Climate_Cl": "S", "votes": 2, "cluster_size": 3, "tie": false, "status": "majority", "member_ids": "2995,2998,3001"}, "geometry": {"type": "Point", "coordinates": [-38.98373169614194, -47.01518635015709]}}, {"type": "Feature", "properties": {"Climate_Cl": "H", "votes": 1, "cluster_size": 1, "tie": false, "status": "majority", "member_ids": "3006"}, "geometry": {"type": "Point", "coordinates": [-49.60991480167723, -3.620325294108355]}}, {"type": "Feature", "properties": {"Climate_Cl": "H", "votes": 2, "cluster_size": 2, "tie": false, "status": "majority", "member_ids": "3007,3016"}, "geometry": {"type": "Point", "coordinates": [-50.24965562576798, -4.479690990204448]}}, {"type": "Feature", "properties": {"Climate_Cl": "H", "votes": 5, "cluster_size": 5, "tie": false, "status": "majority", "member_ids": "3039,3047,3048,3053,3054"}, "geometry": {"type": "Point", "coordinates": [-42.87770575017339, -2.9611949787358167]}}, {"type": "Feature", "properties": {"Climate_Cl": "H", "votes": 2, "cluster_size": 3, "tie": false, "status": "majority", "member_ids": "3078,3089,3090"}, "geometry": {"type": "Point", "coordinates": [-53.86280426295118, -4.621650121547357]}}, {"type": "Feature", "properties": {"Climate_Cl": "H", "votes": 1, "cluster_size": 1, "tie": false, "status": "majority", "member_ids": "3079"}, "geometry": {"type": "Point", "coordinates": [-53.37987426104753, -5.617567646869412]}}, {"type": "Feature", "properties": {"Climate_Cl": "S", "votes": 2, "cluster_size": 3, "tie": false, "status": "majority", "member_ids": "3088,3156,3157"}, "geometry": {"type": "Point", "coordinates": [-53.38945497013534, -3.2147651192217843]}}, {"type": "Feature", "properties": {"Climate_Cl": "S", "votes": 2, "cluster_size": 2, "tie": false, "status": "majority", "member_ids": "3091,3166"}, "geometry": {"type": "Point", "coordinates": [-52.2901055932213, -4.313400748926061]}}, {"type": "Feature", "properties": {"Climate_Cl": "H", "votes": 1, "cluster_size": 1, "tie": false, "status": "majority", "member_ids": "3167"}, "geometry": {"type": "Point", "coordinates": [-51.361814706217984, -3.263088373031632]}}, {"type": "Feature", "properties": {"Climate_Cl": "S", "votes": 1, "cluster_size": 1, "tie": false, "status": "majority", "member_ids": "3171"}, "geometry": {"type": "Point", "coordinates": [-44.94514021854608, -4.482702003312633]}}]}