{"type": "FeatureCollection", "features": [{"type": "Feature", "properties": {"ID": "507", "Country": "Brazil", "Basin_Sub_": "Araripe", "Group": "Chapada", "Formation": "Araripina ", "Member": "N/A", "Well name/ outcrop": "Alagoinha Columnar Section", "Latitude": "-7.38", "Longitude": "-40.74", "Dating evidence": "Biostratigraphy: palynomorphs", "REF(Authors, Year)": "Lima, 1978b, 1978d", "Show_on_Ma": "105", "Lithology, structures, paleowind": "Red mudstone/siltstone, rhythmite, and heterolithic facies, sandstones at the base with intraformational conglomerates; fluidization and soft sediment deformation structures", "Paleoenvironment": "Intercalated terminal splays and floodplain deposits and infrequent incursions of fluvial sediments ", "REF (Authors, Year)": "Warren et al., 2021", "Fossil occurrences": "N/A", "REF (Authors, Year)_1": "Warren et al., 2021", "Geochemistry data": "N/A", "REF (Authors, Year)_2": "N/A", "Sediment-based climate inference (hot/cold, humid/semi-arid/desert)": "Humid", "Fossil-based climate inference (hot/cold, humid/semi-arid/desert)": "N/A", "Geochemistry-based climate inference  (hot/cold, humid/semi-arid/desert)": "N/A", "Climate assignment leading evidence": "Small fluvial channels, lateral and terminal splays, floodplains, soft sediment deformation", "Climate_Cl": "S", "Weight": "1", "PlateID": "201", "Sediment-based climate inference (hot/cold, humid/S/desert)": null, "Fossil-based climate inference (hot/cold, humid/S/desert)": null, "Geochemistry-based climate inference  (hot/cold, humid/S/desert)": null, "PaleozonaCodigo": null, "layer": "105.00Ma_point", "path": "C:/Users/Leonardo Bachi/OneDrive/Desktop/ITT_OCEANEON/20_SETEMBRO_TABELA_FINAL/PONTOS_RETIFICADOS/105.00Ma.geojson", "winner": "H", "cluster_size": 9}, "geometry": {"type": "Point", "coordinates": [-20.44745417387304, -20.79647002333933]}}, {"type": "Feature", "properties": {"ID": "509", "Country": "Brazil", "Basin_Sub_": "Araripe", "Group": "Chapada", "Formation": "Araripina ", "Member": "N/A", "Well name/ outcrop": "Serra Redonda Columnar Section", "Latitude": "-7.44", "Longitude": "-40.79", "Dating evidence": "Biostratigraphy: palynomorphs", "REF(Authors, Year)": "Lima, 1978b, 1978d", "Show_on_Ma": "105", "Lithology, structures, paleowind": "Overall fining upwards pattern, channel-fill deposits of fine to medium sandstone (locally with intra-formational mud chips and conglomerates at the base) and sheet sandstones, sometimes amalgamated and with fluidization and soft sediment deformation structures, grading laterally from massive, to rippled or convoluted, to laterally continuous heterolithic layers, (siltstones and mudstones). Paleocurrents towards SSE.", "Paleoenvironment": "Ribbon channels, lateral and terminal splays, floodplain deposits (proximal and distal), with paleosols at the top.", "REF (Authors, Year)": "Warren et al., 2021", "Fossil occurrences": "Rhizohaloes, meniscate or simple horizontal at the top; burrows Taenidium isp., Scoyenia isp., and possibly Skolithos isp.", "REF (Authors, Year)_1": "Warren et al., 2021", "Geochemistry data": "N/A", "REF (Authors, Year)_2": "N/A", "Sediment-based climate inference (hot/cold, humid/semi-arid/desert)": "Humid", "Fossil-based climate inference (hot/cold, humid/semi-arid/desert)": "Humid, hot (tropical)", "Geochemistry-based climate inference  (hot/cold, humid/semi-arid/desert)": "N/A", "Climate assignment leading evidence": "Fluvial meandering and braided, soft sediment deformation, torrential seasonal character", "Climate_Cl": "S", "Weight": "1", "PlateID": "201", "Sediment-based climate inference (hot/cold, humid/S/desert)": null, "Fossil-based climate inference (hot/cold, humid/S/desert)": null, "Geochemistry-based climate inference  (hot/cold, humid/S/desert)": null, "PaleozonaCodigo": null, "layer": "105.00Ma_point", "path": "C:/Users/Leonardo Bachi/OneDrive/Desktop/ITT_OCEANEON/20_SETEMBRO_TABELA_FINAL/PONTOS_RETIFICADOS/105.00Ma.geojson", "winner": "H", "cluster_size": 9}, "geometry": {"type": "Point", "coordinates": [-20.499800006116654, -20.857006859708346]}}, {"type": "Feature", "properties": {"ID": "513", "Country": "Brazil", "Basin_Sub_": "Araripe", "Group": "Chapada", "Formation": "Araripina ", "Member": "N/A", "Well name/ outcrop": "Caboclos section (Andrade, 2019)", "Latitude": "-7.33", "Longitude": "-40.61", "Dating evidence": "Biostratigraphy: palynomorphs", "REF(Authors, Year)": "Lima, 1978b, 1978d", "Show_on_Ma": "105", "Lithology, structures, paleowind": "Conglomerates, through bedded and massive sandstones wih mud and clay intraclasts, massive and laminated siltstones and claystones, liquefaction and load structures; paleocurrents towards SE (116?", "Paleoenvironment": "Alluvial plains, distributary fluvial (ribbon, meandering), ephemeral lakes, playa lakes, and splays", "REF (Authors, Year)": "Andrade, 2019", "Fossil occurrences": "Palynomorphs: angiosperm pollens, tricolpates, reticulates, polyplicates, rimulates; Ichnofossils: skolithos, taenidium", "REF (Authors, Year)_1": "Lima, 1978a,b; Fernandes et al, 1998", "Geochemistry data": "N/A", "REF (Authors, Year)_2": "N/A", "Sediment-based climate inference (hot/cold, humid/semi-arid/desert)": "Hot, dry", "Fossil-based climate inference (hot/cold, humid/semi-arid/desert)": "Hot, dry", "Geochemistry-based climate inference  (hot/cold, humid/semi-arid/desert)": "N/A", "Climate assignment leading evidence": "Small fluvial channels, lateral and terminal splays, floodplains, soft sediment deformation, palynomorphs, ichnofossils", "Climate_Cl": "D", "Weight": "4", "PlateID": "201", "Sediment-based climate inference (hot/cold, humid/S/desert)": null, "Fossil-based climate inference (hot/cold, humid/S/desert)": null, "Geochemistry-based climate inference  (hot/cold, humid/S/desert)": null, "PaleozonaCodigo": null, "layer": "105.00Ma_point", "path": "C:/Users/Leonardo Bachi/OneDrive/Desktop/ITT_OCEANEON/20_SETEMBRO_TABELA_FINAL/PONTOS_RETIFICADOS/105.00Ma.geojson", "winner": "H", "cluster_size": 9}, "geometry": {"type": "Point", "coordinates": [-20.31017398734509, -20.745018256688947]}}, {"type": "Feature", "properties": {"ID": "515", "Country": "Brazil", "Basin_Sub_": "Araripe", "Group": "Chapada", "Formation": "Araripina ", "Member": "N/A", "Well name/ outcrop": "Riacho Bom Jardim section (Andrade, 2019)", "Latitude": "-7.7", "Longitude": "-40.63", "Dating evidence": "Biostratigraphy: palynomorphs", "REF(Authors, Year)": "Lima, 1978b, 1978d", "Show_on_Ma": "105", "Lithology, structures, paleowind": "Massive, through and climbing rippled sandstones, some mud and clay intraclasts, laminated siltstones and claystones, lenticular heterolithics; truncation surfaces, some liquefaction structures. Paleocurrents towards E (84?", "Paleoenvironment": "Alluvial plains, distributary fluvial (ribbon, meandering), ephemeral lakes, playa lakes, and splays", "REF (Authors, Year)": "Andrade, 2019", "Fossil occurrences": "Palynomorphs: angiosperm pollens, tricolpates, reticulates, polyplicates, rimulates; Ichnofossils: skolithos, taenidium", "REF (Authors, Year)_1": "Lima, 1978a,b; Fernandes et al, 1998", "Geochemistry data": "N/A", "REF (Authors, Year)_2": "N/A", "Sediment-based climate inference (hot/cold, humid/semi-arid/desert)": "Hot, dry", "Fossil-based climate inference (hot/cold, humid/semi-arid/desert)": "Hot, dry", "Geochemistry-based climate inference  (hot/cold, humid/semi-arid/desert)": "N/A", "Climate assignment leading evidence": "Small fluvial channels, lateral and terminal splays, floodplains, soft sediment deformation, palynomorphs, ichnofossils", "Climate_Cl": "D", "Weight": "4", "PlateID": "201", "Sediment-based climate inference (hot/cold, humid/S/desert)": null, "Fossil-based climate inference (hot/cold, humid/S/desert)": null, "Geochemistry-based climate inference  (hot/cold, humid/S/desert)": null, "PaleozonaCodigo": null, "layer": "105.00Ma_point", "path": "C:/Users/Leonardo Bachi/OneDrive/Desktop/ITT_OCEANEON/20_SETEMBRO_TABELA_FINAL/PONTOS_RETIFICADOS/105.00Ma.geojson", "winner": "H", "cluster_size": 9}, "geometry": {"type": "Point", "coordinates": [-20.326832000147757, -21.115222361963372]}}, {"type": "Feature", "properties": {"ID": "517", "Country": "Brazil", "Basin_Sub_": "Araripe", "Group": "Chapada", "Formation": "Araripina ", "Member": "N/A", "Well name/ outcrop": "Road section BR-116 (Piaui)", "Latitude": "-7.4", "Longitude": "-40.71", "Dating evidence": "Biostratigraphy: palynomorphs", "REF(Authors, Year)": "Lima, 1978b, 1978d", "Show_on_Ma": "105", "Lithology, structures, paleowind": "Sandstones and siltstones, with cross bedding, load structures and convolute bedding; trace fossils (Skolithos, Taenidium)", "Paleoenvironment": "Alluvial fan plains (mid to distal), anoxic lacustrine/floodplains", "REF (Authors, Year)": "Assine et al., 2007; Fernandes et al., 1998", "Fossil occurrences": "Palynomorphs: angiosperm pollens, tricolpates, reticulates, polyplicates, rimulates; Ichnofossils: skolithos, taenidium", "REF (Authors, Year)_1": "Lima, 1978a,b; Fernandes et al, 1998", "Geochemistry data": "N/A", "REF (Authors, Year)_2": "N/A", "Sediment-based climate inference (hot/cold, humid/semi-arid/desert)": "Hot, dry", "Fossil-based climate inference (hot/cold, humid/semi-arid/desert)": "Hot, dry", "Geochemistry-based climate inference  (hot/cold, humid/semi-arid/desert)": "N/A", "Climate assignment leading evidence": "Palynomorph assemblage", "Climate_Cl": "D", "Weight": "5", "PlateID": "201", "Sediment-based climate inference (hot/cold, humid/S/desert)": null, "Fossil-based climate inference (hot/cold, humid/S/desert)": null, "Geochemistry-based climate inference  (hot/cold, humid/S/desert)": null, "PaleozonaCodigo": null, "layer": "105.00Ma_point", "path": "C:/Users/Leonardo Bachi/OneDrive/Desktop/ITT_OCEANEON/20_SETEMBRO_TABELA_FINAL/PONTOS_RETIFICADOS/105.00Ma.geojson", "winner": "H", "cluster_size": 9}, "geometry": {"type": "Point", "coordinates": [-20.41539294969208, -20.81613943100054]}}, {"type": "Feature", "properties": {"ID": "649", "Country": "Brazil", "Basin_Sub_": "Camamu/Almada", "Group": "Camamu", "Formation": "Algod?s", "Member": "N/A", "Well name/ outcrop": "N/A", "Latitude": "-13.83", "Longitude": "-38.5", "Dating evidence": "Echinoid; Elobiceras bahiensis", "REF(Authors, Year)": "Manso & Souza-Lima, 2007", "Show_on_Ma": "105", "Lithology, structures, paleowind": "Marine carbonates", "Paleoenvironment": "Shallow carbonate shelf", "REF (Authors, Year)": "Manso, 2007; 2014", "Fossil occurrences": "Echinoderms", "REF (Authors, Year)_1": "Manso, 2014", "Geochemistry data": "N/A", "REF (Authors, Year)_2": "N/A", "Sediment-based climate inference (hot/cold, humid/semi-arid/desert)": "N/A", "Fossil-based climate inference (hot/cold, humid/semi-arid/desert)": "Dry?", "Geochemistry-based climate inference  (hot/cold, humid/semi-arid/desert)": "N/A", "Climate assignment leading evidence": "Carbonates and Echinoderms: Coenholectypus neocomiensis", "Climate_Cl": "D", "Weight": "4", "PlateID": "201", "Sediment-based climate inference (hot/cold, humid/S/desert)": null, "Fossil-based climate inference (hot/cold, humid/S/desert)": null, "Geochemistry-based climate inference  (hot/cold, humid/S/desert)": null, "PaleozonaCodigo": null, "layer": "105.00Ma_point", "path": "C:/Users/Leonardo Bachi/OneDrive/Desktop/ITT_OCEANEON/20_SETEMBRO_TABELA_FINAL/PONTOS_RETIFICADOS/105.00Ma.geojson", "winner": "S", "cluster_size": 3}, "geometry": {"type": "Point", "coordinates": [-17.921985403212084, -27.209807227107483]}}, {"type": "Feature", "properties": {"ID": "811", "Country": "Brazil", "Basin_Sub_": "São Luís-Grajaú", "Group": "Alc?tara", "Formation": "N/A", "Member": "N/A", "Well name/ outcrop": null, "Latitude": "-4", "Longitude": "-45.5", "Dating evidence": "Stratigraphic relationships", "REF(Authors, Year)": "Ara?o et al., 2011", "Show_on_Ma": "105", "Lithology, structures, paleowind": "Sandstones, claystones and carbonate", "Paleoenvironment": "Lagoon", "REF (Authors, Year)": "Ara?o et al., 2011", "Fossil occurrences": "Fossil wood", "REF (Authors, Year)_1": "Ara?o et al., 2011", "Geochemistry data": "N/A", "REF (Authors, Year)_2": "N/A", "Sediment-based climate inference (hot/cold, humid/semi-arid/desert)": "N/A", "Fossil-based climate inference (hot/cold, humid/semi-arid/desert)": "H", "Geochemistry-based climate inference  (hot/cold, humid/semi-arid/desert)": "N/A", "Climate assignment leading evidence": "fossils wood of the Family Araucariaceae dominate. ", "Climate_Cl": "H", "Weight": "3", "PlateID": "201", "Sediment-based climate inference (hot/cold, humid/S/desert)": null, "Fossil-based climate inference (hot/cold, humid/S/desert)": null, "Geochemistry-based climate inference  (hot/cold, humid/S/desert)": null, "PaleozonaCodigo": null, "layer": "105.00Ma_point", "path": "C:/Users/Leonardo Bachi/OneDrive/Desktop/ITT_OCEANEON/20_SETEMBRO_TABELA_FINAL/PONTOS_RETIFICADOS/105.00Ma.geojson", "winner": "S", "cluster_size": 7}, "geometry": {"type": "Point", "coordinates": [-25.463156101022847, -17.419872346376586]}}, {"type": "Feature", "properties": {"ID": "822", "Country": "Brazil", "Basin_Sub_": "Grajaú", "Group": "Itapecuru", "Formation": "N/A", "Member": "N/A", "Well name/ outcrop": null, "Latitude": "-4", "Longitude": "-45.5", "Dating evidence": "Biostratigraphy: palynomorphs -  Elaterosporites jardinei (P-320) local biozone", "REF(Authors, Year)": "Santos & Carvalho, 2009", "Show_on_Ma": "105", "Lithology, structures, paleowind": "Sandstones with through and planar cross stratification, interbedded siltstones and shales ", "Paleoenvironment": "Lacustrine and transitional coastal", "REF (Authors, Year)": "Santos & Carvalho, 2009", "Fossil occurrences": "Fish, crocodiles, turtles, mollusks, dinosaurs; palynomorphs: Classopollis, Afropollis jardinus, Equisetosporites, Gnetaceapollenites and Steevesipolenites ", "REF (Authors, Year)_1": "Santos & Carvalho, 2009", "Geochemistry data": "N/A", "REF (Authors, Year)_2": "N/A", "Sediment-based climate inference (hot/cold, humid/semi-arid/desert)": "N/A", "Fossil-based climate inference (hot/cold, humid/semi-arid/desert)": "Hot, humid", "Geochemistry-based climate inference  (hot/cold, humid/semi-arid/desert)": "N/A", "Climate assignment leading evidence": "Marine invertebrates", "Climate_Cl": "H", "Weight": "5", "PlateID": "201", "Sediment-based climate inference (hot/cold, humid/S/desert)": null, "Fossil-based climate inference (hot/cold, humid/S/desert)": null, "Geochemistry-based climate inference  (hot/cold, humid/S/desert)": null, "PaleozonaCodigo": null, "layer": "105.00Ma_point", "path": "C:/Users/Leonardo Bachi/OneDrive/Desktop/ITT_OCEANEON/20_SETEMBRO_TABELA_FINAL/PONTOS_RETIFICADOS/105.00Ma.geojson", "winner": "S", "cluster_size": 7}, "geometry": {"type": "Point", "coordinates": [-25.463156101022847, -17.419872346376586]}}, {"type": "Feature", "properties": {"ID": "1566", "Country": "Brazil", "Basin_Sub_": "São Luís-Grajaú", "Group": "Alc?tara", "Formation": null, "Member": null, "Well name/ outcrop": null, "Latitude": "-4", "Longitude": "-45.5", "Dating evidence": "Stratigraphic relationships", "REF(Authors, Year)": "Ara?o et al., 2011", "Show_on_Ma": "105", "Lithology, structures, paleowind": "Sandstones, claystones and carbonate", "Paleoenvironment": "Lagoon", "REF (Authors, Year)": "Ara?o et al., 2011", "Fossil occurrences": "Fossil wood", "REF (Authors, Year)_1": "Ara?o et al., 2011", "Geochemistry data": null, "REF (Authors, Year)_2": null, "Sediment-based climate inference (hot/cold, humid/semi-arid/desert)": null, "Fossil-based climate inference (hot/cold, humid/semi-arid/desert)": null, "Geochemistry-based climate inference  (hot/cold, humid/semi-arid/desert)": null, "Climate assignment leading evidence": "fossils wood of the Family Araucariaceae dominate. ", "Climate_Cl": "H", "Weight": "3", "PlateID": "201", "Sediment-based climate inference (hot/cold, humid/S/desert)": null, "Fossil-based climate inference (hot/cold, humid/S/desert)": null, "Geochemistry-based climate inference  (hot/cold, humid/S/desert)": null, "PaleozonaCodigo": null, "layer": "105.00Ma_point", "path": "C:/Users/Leonardo Bachi/OneDrive/Desktop/ITT_OCEANEON/20_SETEMBRO_TABELA_FINAL/PONTOS_RETIFICADOS/105.00Ma.geojson", "winner": "S", "cluster_size": 7}, "geometry": {"type": "Point", "coordinates": [-25.463156101022847, -17.419872346376586]}}, {"type": "Feature", "properties": {"ID": "930", "Country": "Brazil", "Basin_Sub_": "Marajó", "Group": "Jacarezinho", "Formation": "Rift I, II", "Member": null, "Well name/ outcrop": null, "Latitude": "-2", "Longitude": "-50", "Dating evidence": "Stratigraphic relationships", "REF(Authors, Year)": "Soares Jr. et al., 2008", "Show_on_Ma": "105", "Lithology, structures, paleowind": "Conglomerates, sandstones", "Paleoenvironment": "Alluvial fans", "REF (Authors, Year)": "Matsuda and Zal?, 2007", "Fossil occurrences": null, "REF (Authors, Year)_1": null, "Geochemistry data": null, "REF (Authors, Year)_2": null, "Sediment-based climate inference (hot/cold, humid/semi-arid/desert)": "Semi-arid", "Fossil-based climate inference (hot/cold, humid/semi-arid/desert)": null, "Geochemistry-based climate inference  (hot/cold, humid/semi-arid/desert)": null, "Climate assignment leading evidence": "Alluvial fans", "Climate_Cl": "S", "Weight": "1", "PlateID": "201", "Sediment-based climate inference (hot/cold, humid/S/desert)": null, "Fossil-based climate inference (hot/cold, humid/S/desert)": null, "Geochemistry-based climate inference  (hot/cold, humid/S/desert)": null, "PaleozonaCodigo": null, "layer": "105.00Ma_point", "path": "C:/Users/Leonardo Bachi/OneDrive/Desktop/ITT_OCEANEON/20_SETEMBRO_TABELA_FINAL/PONTOS_RETIFICADOS/105.00Ma.geojson", "winner": "H", "cluster_size": 3}, "geometry": {"type": "Point", "coordinates": [-30.10709917145253, -15.33552711658626]}}, {"type": "Feature", "properties": {"ID": "1484", "Country": "Brazil", "Basin_Sub_": "Sanfranciscana", "Group": "Areado", "Formation": "Quiricó", "Member": null, "Well name/ outcrop": null, "Latitude": "-18", "Longitude": "-46.1", "Dating evidence": null, "REF(Authors, Year)": null, "Show_on_Ma": "105", "Lithology, structures, paleowind": null, "Paleoenvironment": null, "REF (Authors, Year)": null, "Fossil occurrences": null, "REF (Authors, Year)_1": null, "Geochemistry data": null, "REF (Authors, Year)_2": null, "Sediment-based climate inference (hot/cold, humid/semi-arid/desert)": null, "Fossil-based climate inference (hot/cold, humid/semi-arid/desert)": null, "Geochemistry-based climate inference  (hot/cold, humid/semi-arid/desert)": null, "Climate assignment leading evidence": null, "Climate_Cl": "S", "Weight": "6", "PlateID": "201", "Sediment-based climate inference (hot/cold, humid/S/desert)": null, "Fossil-based climate inference (hot/cold, humid/S/desert)": null, "Geochemistry-based climate inference  (hot/cold, humid/S/desert)": null, "PaleozonaCodigo": null, "layer": "105.00Ma_point", "path": "C:/Users/Leonardo Bachi/OneDrive/Desktop/ITT_OCEANEON/20_SETEMBRO_TABELA_FINAL/PONTOS_RETIFICADOS/105.00Ma.geojson", "winner": "D", "cluster_size": 21}, "geometry": {"type": "Point", "coordinates": [-26.285009083009676, -31.412350838222405]}}, {"type": "Feature", "properties": {"ID": "1485", "Country": "Brazil", "Basin_Sub_": "Sanfranciscana", "Group": "Areado", "Formation": "Quiricó", "Member": null, "Well name/ outcrop": null, "Latitude": "-18", "Longitude": "-46.1", "Dating evidence": null, "REF(Authors, Year)": null, "Show_on_Ma": "105", "Lithology, structures, paleowind": null, "Paleoenvironment": null, "REF (Authors, Year)": null, "Fossil occurrences": null, "REF (Authors, Year)_1": null, "Geochemistry data": null, "REF (Authors, Year)_2": null, "Sediment-based climate inference (hot/cold, humid/semi-arid/desert)": null, "Fossil-based climate inference (hot/cold, humid/semi-arid/desert)": null, "Geochemistry-based climate inference  (hot/cold, humid/semi-arid/desert)": null, "Climate assignment leading evidence": null, "Climate_Cl": "S", "Weight": "6", "PlateID": "201", "Sediment-based climate inference (hot/cold, humid/S/desert)": null, "Fossil-based climate inference (hot/cold, humid/S/desert)": null, "Geochemistry-based climate inference  (hot/cold, humid/S/desert)": null, "PaleozonaCodigo": null, "layer": "105.00Ma_point", "path": "C:/Users/Leonardo Bachi/OneDrive/Desktop/ITT_OCEANEON/20_SETEMBRO_TABELA_FINAL/PONTOS_RETIFICADOS/105.00Ma.geojson", "winner": "D", "cluster_size": 21}, "geometry": {"type": "Point", "coordinates": [-26.285009083009676, -31.412350838222405]}}, {"type": "Feature", "properties": {"ID": "1488", "Country": "Brazil", "Basin_Sub_": "Sanfranciscana", "Group": "Areado", "Formation": "Quiricó", "Member": null, "Well name/ outcrop": null, "Latitude": "-18", "Longitude": "-45.92", "Dating evidence": null, "REF(Authors, Year)": null, "Show_on_Ma": "105", "Lithology, structures, paleowind": null, "Paleoenvironment": null, "REF (Authors, Year)": null, "Fossil occurrences": null, "REF (Authors, Year)_1": null, "Geochemistry data": null, "REF (Authors, Year)_2": null, "Sediment-based climate inference (hot/cold, humid/semi-arid/desert)": null, "Fossil-based climate inference (hot/cold, humid/semi-arid/desert)": null, "Geochemistry-based climate inference  (hot/cold, humid/semi-arid/desert)": null, "Climate assignment leading evidence": null, "Climate_Cl": "S", "Weight": "3", "PlateID": "201", "Sediment-based climate inference (hot/cold, humid/S/desert)": null, "Fossil-based climate inference (hot/cold, humid/S/desert)": null, "Geochemistry-based climate inference  (hot/cold, humid/S/desert)": null, "PaleozonaCodigo": null, "layer": "105.00Ma_point", "path": "C:/Users/Leonardo Bachi/OneDrive/Desktop/ITT_OCEANEON/20_SETEMBRO_TABELA_FINAL/PONTOS_RETIFICADOS/105.00Ma.geojson", "winner": "D", "cluster_size": 21}, "geometry": {"type": "Point", "coordinates": [-26.084434787339806, -31.41457089386704]}}, {"type": "Feature", "properties": {"ID": "1489", "Country": "Brazil", "Basin_Sub_": "Sanfranciscana", "Group": "Areado", "Formation": "Quiricó", "Member": null, "Well name/ outcrop": null, "Latitude": "-18", "Longitude": "-45.92", "Dating evidence": null, "REF(Authors, Year)": null, "Show_on_Ma": "105", "Lithology, structures, paleowind": null, "Paleoenvironment": null, "REF (Authors, Year)": null, "Fossil occurrences": null, "REF (Authors, Year)_1": null, "Geochemistry data": null, "REF (Authors, Year)_2": null, "Sediment-based climate inference (hot/cold, humid/semi-arid/desert)": null, "Fossil-based climate inference (hot/cold, humid/semi-arid/desert)": null, "Geochemistry-based climate inference  (hot/cold, humid/semi-arid/desert)": null, "Climate assignment leading evidence": null, "Climate_Cl": "S", "Weight": "3", "PlateID": "201", "Sediment-based climate inference (hot/cold, humid/S/desert)": null, "Fossil-based climate inference (hot/cold, humid/S/desert)": null, "Geochemistry-based climate inference  (hot/cold, humid/S/desert)": null, "PaleozonaCodigo": null, "layer": "105.00Ma_point", "path": "C:/Users/Leonardo Bachi/OneDrive/Desktop/ITT_OCEANEON/20_SETEMBRO_TABELA_FINAL/PONTOS_RETIFICADOS/105.00Ma.geojson", "winner": "D", "cluster_size": 21}, "geometry": {"type": "Point", "coordinates": [-26.084434787339806, -31.41457089386704]}}, {"type": "Feature", "properties": {"ID": "1490", "Country": "Brazil", "Basin_Sub_": "Sanfranciscana", "Group": "Areado", "Formation": "Quiricó", "Member": null, "Well name/ outcrop": null, "Latitude": "-18", "Longitude": "-46", "Dating evidence": null, "REF(Authors, Year)": null, "Show_on_Ma": "105", "Lithology, structures, paleowind": null, "Paleoenvironment": null, "REF (Authors, Year)": null, "Fossil occurrences": null, "REF (Authors, Year)_1": null, "Geochemistry data": null, "REF (Authors, Year)_2": null, "Sediment-based climate inference (hot/cold, humid/semi-arid/desert)": null, "Fossil-based climate inference (hot/cold, humid/semi-arid/desert)": null, "Geochemistry-based climate inference  (hot/cold, humid/semi-arid/desert)": null, "Climate assignment leading evidence": null, "Climate_Cl": "S", "Weight": "3", "PlateID": "201", "Sediment-based climate inference (hot/cold, humid/S/desert)": null, "Fossil-based climate inference (hot/cold, humid/S/desert)": null, "Geochemistry-based climate inference  (hot/cold, humid/S/desert)": null, "PaleozonaCodigo": null, "layer": "105.00Ma_point", "path": "C:/Users/Leonardo Bachi/OneDrive/Desktop/ITT_OCEANEON/20_SETEMBRO_TABELA_FINAL/PONTOS_RETIFICADOS/105.00Ma.geojson", "winner": "D", "cluster_size": 21}, "geometry": {"type": "Point", "coordinates": [-26.17357977787126, -31.413602245447557]}}, {"type": "Feature", "properties": {"ID": "1491", "Country": "Brazil", "Basin_Sub_": "Sanfranciscana", "Group": "Areado", "Formation": "Quiricó", "Member": null, "Well name/ outcrop": null, "Latitude": "-18", "Longitude": "-46", "Dating evidence": null, "REF(Authors, Year)": null, "Show_on_Ma": "105", "Lithology, structures, paleowind": null, "Paleoenvironment": null, "REF (Authors, Year)": null, "Fossil occurrences": null, "REF (Authors, Year)_1": null, "Geochemistry data": null, "REF (Authors, Year)_2": null, "Sediment-based climate inference (hot/cold, humid/semi-arid/desert)": null, "Fossil-based climate inference (hot/cold, humid/semi-arid/desert)": null, "Geochemistry-based climate inference  (hot/cold, humid/semi-arid/desert)": null, "Climate assignment leading evidence": null, "Climate_Cl": "S", "Weight": "3", "PlateID": "201", "Sediment-based climate inference (hot/cold, humid/S/desert)": null, "Fossil-based climate inference (hot/cold, humid/S/desert)": null, "Geochemistry-based climate inference  (hot/cold, humid/S/desert)": null, "PaleozonaCodigo": null, "layer": "105.00Ma_point", "path": "C:/Users/Leonardo Bachi/OneDrive/Desktop/ITT_OCEANEON/20_SETEMBRO_TABELA_FINAL/PONTOS_RETIFICADOS/105.00Ma.geojson", "winner": "D", "cluster_size": 21}, "geometry": {"type": "Point", "coordinates": [-26.17357977787126, -31.413602245447557]}}, {"type": "Feature", "properties": {"ID": "1492", "Country": "Brazil", "Basin_Sub_": "Sanfranciscana", "Group": "Areado", "Formation": "Quiricó", "Member": null, "Well name/ outcrop": null, "Latitude": "-18", "Longitude": "-46.4", "Dating evidence": null, "REF(Authors, Year)": null, "Show_on_Ma": "105", "Lithology, structures, paleowind": null, "Paleoenvironment": null, "REF (Authors, Year)": null, "Fossil occurrences": null, "REF (Authors, Year)_1": null, "Geochemistry data": null, "REF (Authors, Year)_2": null, "Sediment-based climate inference (hot/cold, humid/semi-arid/desert)": null, "Fossil-based climate inference (hot/cold, humid/semi-arid/desert)": null, "Geochemistry-based climate inference  (hot/cold, humid/semi-arid/desert)": null, "Climate assignment leading evidence": null, "Climate_Cl": "S", "Weight": "3", "PlateID": "201", "Sediment-based climate inference (hot/cold, humid/S/desert)": null, "Fossil-based climate inference (hot/cold, humid/S/desert)": null, "Geochemistry-based climate inference  (hot/cold, humid/S/desert)": null, "PaleozonaCodigo": null, "layer": "105.00Ma_point", "path": "C:/Users/Leonardo Bachi/OneDrive/Desktop/ITT_OCEANEON/20_SETEMBRO_TABELA_FINAL/PONTOS_RETIFICADOS/105.00Ma.geojson", "winner": "D", "cluster_size": 21}, "geometry": {"type": "Point", "coordinates": [-26.61928335866972, -31.408326026858482]}}, {"type": "Feature", "properties": {"ID": "1493", "Country": "Brazil", "Basin_Sub_": "Sanfranciscana", "Group": "Areado", "Formation": "Quiricó", "Member": null, "Well name/ outcrop": null, "Latitude": "-18", "Longitude": "-46.4", "Dating evidence": null, "REF(Authors, Year)": null, "Show_on_Ma": "105", "Lithology, structures, paleowind": null, "Paleoenvironment": null, "REF (Authors, Year)": null, "Fossil occurrences": null, "REF (Authors, Year)_1": null, "Geochemistry data": null, "REF (Authors, Year)_2": null, "Sediment-based climate inference (hot/cold, humid/semi-arid/desert)": null, "Fossil-based climate inference (hot/cold, humid/semi-arid/desert)": null, "Geochemistry-based climate inference  (hot/cold, humid/semi-arid/desert)": null, "Climate assignment leading evidence": null, "Climate_Cl": "S", "Weight": "3", "PlateID": "201", "Sediment-based climate inference (hot/cold, humid/S/desert)": null, "Fossil-based climate inference (hot/cold, humid/S/desert)": null, "Geochemistry-based climate inference  (hot/cold, humid/S/desert)": null, "PaleozonaCodigo": null, "layer": "105.00Ma_point", "path": "C:/Users/Leonardo Bachi/OneDrive/Desktop/ITT_OCEANEON/20_SETEMBRO_TABELA_FINAL/PONTOS_RETIFICADOS/105.00Ma.geojson", "winner": "D", "cluster_size": 21}, "geometry": {"type": "Point", "coordinates": [-26.61928335866972, -31.408326026858482]}}, {"type": "Feature", "properties": {"ID": "1494", "Country": "Brazil", "Basin_Sub_": "Sanfranciscana", "Group": "Areado", "Formation": "Quiricó", "Member": null, "Well name/ outcrop": null, "Latitude": "-18", "Longitude": "-46.02", "Dating evidence": null, "REF(Authors, Year)": null, "Show_on_Ma": "105", "Lithology, structures, paleowind": null, "Paleoenvironment": null, "REF (Authors, Year)": null, "Fossil occurrences": null, "REF (Authors, Year)_1": null, "Geochemistry data": null, "REF (Authors, Year)_2": null, "Sediment-based climate inference (hot/cold, humid/semi-arid/desert)": null, "Fossil-based climate inference (hot/cold, humid/semi-arid/desert)": null, "Geochemistry-based climate inference  (hot/cold, humid/semi-arid/desert)": null, "Climate assignment leading evidence": null, "Climate_Cl": "S", "Weight": "3", "PlateID": "201", "Sediment-based climate inference (hot/cold, humid/S/desert)": null, "Fossil-based climate inference (hot/cold, humid/S/desert)": null, "Geochemistry-based climate inference  (hot/cold, humid/S/desert)": null, "PaleozonaCodigo": null, "layer": "105.00Ma_point", "path": "C:/Users/Leonardo Bachi/OneDrive/Desktop/ITT_OCEANEON/20_SETEMBRO_TABELA_FINAL/PONTOS_RETIFICADOS/105.00Ma.geojson", "winner": "D", "cluster_size": 21}, "geometry": {"type": "Point", "coordinates": [-26.195865812815697, -31.41335557245054]}}, {"type": "Feature", "properties": {"ID": "1495", "Country": "Brazil", "Basin_Sub_": "Sanfranciscana", "Group": "Areado", "Formation": "Quiricó", "Member": null, "Well name/ outcrop": null, "Latitude": "-18", "Longitude": "-46.02", "Dating evidence": null, "REF(Authors, Year)": null, "Show_on_Ma": "105", "Lithology, structures, paleowind": null, "Paleoenvironment": null, "REF (Authors, Year)": null, "Fossil occurrences": null, "REF (Authors, Year)_1": null, "Geochemistry data": null, "REF (Authors, Year)_2": null, "Sediment-based climate inference (hot/cold, humid/semi-arid/desert)": null, "Fossil-based climate inference (hot/cold, humid/semi-arid/desert)": null, "Geochemistry-based climate inference  (hot/cold, humid/semi-arid/desert)": null, "Climate assignment leading evidence": null, "Climate_Cl": "S", "Weight": "3", "PlateID": "201", "Sediment-based climate inference (hot/cold, humid/S/desert)": null, "Fossil-based climate inference (hot/cold, humid/S/desert)": null, "Geochemistry-based climate inference  (hot/cold, humid/S/desert)": null, "PaleozonaCodigo": null, "layer": "105.00Ma_point", "path": "C:/Users/Leonardo Bachi/OneDrive/Desktop/ITT_OCEANEON/20_SETEMBRO_TABELA_FINAL/PONTOS_RETIFICADOS/105.00Ma.geojson", "winner": "D", "cluster_size": 21}, "geometry": {"type": "Point", "coordinates": [-26.195865812815697, -31.41335557245054]}}, {"type": "Feature", "properties": {"ID": "1967", "Country": "Democratic Republic of Congo", "Basin_Sub_": "Congo", "Group": "Loia", "Formation": " ", "Member": null, "Well name/ outcrop": null, "Latitude": "0", "Longitude": "21", "Dating evidence": null, "REF(Authors, Year)": null, "Show_on_Ma": "105", "Lithology, structures, paleowind": null, "Paleoenvironment": null, "REF (Authors, Year)": null, "Fossil occurrences": null, "REF (Authors, Year)_1": null, "Geochemistry data": null, "REF (Authors, Year)_2": null, "Sediment-based climate inference (hot/cold, humid/semi-arid/desert)": null, "Fossil-based climate inference (hot/cold, humid/semi-arid/desert)": null, "Geochemistry-based climate inference  (hot/cold, humid/semi-arid/desert)": null, "Climate assignment leading evidence": null, "Climate_Cl": "S", "Weight": "2", "PlateID": "701", "Sediment-based climate inference (hot/cold, humid/S/desert)": null, "Fossil-based climate inference (hot/cold, humid/S/desert)": null, "Geochemistry-based climate inference  (hot/cold, humid/S/desert)": null, "PaleozonaCodigo": null, "layer": "105.00Ma_point", "path": "C:/Users/Leonardo Bachi/OneDrive/Desktop/ITT_OCEANEON/20_SETEMBRO_TABELA_FINAL/PONTOS_RETIFICADOS/105.00Ma.geojson", "winner": "H", "cluster_size": 3}, "geometry": {"type": "Point", "coordinates": [3.599460295247625, -26.62191220339975]}}, {"type": "Feature", "properties": {"ID": "2394", "Country": "Peru", "Basin_Sub_": "Andean", "Group": "N/A", "Formation": "Pariatambo", "Member": null, "Well name/ outcrop": null, "Latitude": "-7", "Longitude": "-78.326", "Dating evidence": null, "REF(Authors, Year)": null, "Show_on_Ma": "105", "Lithology, structures, paleowind": null, "Paleoenvironment": null, "REF (Authors, Year)": null, "Fossil occurrences": null, "REF (Authors, Year)_1": null, "Geochemistry data": null, "REF (Authors, Year)_2": null, "Sediment-based climate inference (hot/cold, humid/semi-arid/desert)": null, "Fossil-based climate inference (hot/cold, humid/semi-arid/desert)": null, "Geochemistry-based climate inference  (hot/cold, humid/semi-arid/desert)": null, "Climate assignment leading evidence": null, "Climate_Cl": "H", "Weight": "1", "PlateID": "201", "Sediment-based climate inference (hot/cold, humid/S/desert)": null, "Fossil-based climate inference (hot/cold, humid/S/desert)": null, "Geochemistry-based climate inference  (hot/cold, humid/S/desert)": null, "PaleozonaCodigo": null, "layer": "105.00Ma_point", "path": "C:/Users/Leonardo Bachi/OneDrive/Desktop/ITT_OCEANEON/20_SETEMBRO_TABELA_FINAL/PONTOS_RETIFICADOS/105.00Ma.geojson", "winner": "S", "cluster_size": 3}, "geometry": {"type": "Point", "coordinates": [-59.9352410734585, -17.89465648174566]}}, {"type": "Feature", "properties": {"ID": "2667", "Country": "Tunisia", "Basin_Sub_": "Tataouine", "Group": "N/A", "Formation": "A? El Guettar", "Member": "Oum ed Diab", "Well name/ outcrop": "Oum ed Diab", "Latitude": "32.678", "Longitude": "10.195", "Dating evidence": "N/A", "REF(Authors, Year)": "Fanti etal. 2012", "Show_on_Ma": "105", "Lithology, structures, paleowind": "Vertebrate remains poorly washed and hardly reworked, mixed with centimeter size clay chips, quartz?renite rounded clasts, and ironstone pebbles.", "Paleoenvironment": "Marine: shallow inner shelf", "REF (Authors, Year)": "N/A", "Fossil occurrences": "Fishes: Leptostyrax macrorhiza, Mawsonia sp., Neoceratodus sp., Ceratodus sp.; Crocodyliforms:  Araripesuchus sp., Sarcosuchus sp.;  Dinosaurs: Carcharodontosaurus sp., Spinosaurus teeth, Abelisaurid, rebbachisaurid sauropod; Shark teeth: Caturus sp., Onchopristis dunklei, Hybodus sp.", "REF (Authors, Year)_1": "Fanti etal. 2012", "Geochemistry data": "N/A", "REF (Authors, Year)_2": "N/A", "Sediment-based climate inference (hot/cold, humid/semi-arid/desert)": "Hot", "Fossil-based climate inference (hot/cold, humid/semi-arid/desert)": "Hot, humid", "Geochemistry-based climate inference  (hot/cold, humid/semi-arid/desert)": "N/A", "Climate assignment leading evidence": "Crocodyliforms", "Climate_Cl": "H", "Weight": "3", "PlateID": "715", "Sediment-based climate inference (hot/cold, humid/S/desert)": null, "Fossil-based climate inference (hot/cold, humid/S/desert)": null, "Geochemistry-based climate inference  (hot/cold, humid/S/desert)": null, "PaleozonaCodigo": null, "layer": "105.00Ma_point", "path": "C:/Users/Leonardo Bachi/OneDrive/Desktop/ITT_OCEANEON/20_SETEMBRO_TABELA_FINAL/PONTOS_RETIFICADOS/105.00Ma.geojson", "winner": "D", "cluster_size": 14}, "geometry": {"type": "Point", "coordinates": [2.511756182964301, 7.590893844374254]}}, {"type": "Feature", "properties": {"ID": "2669", "Country": "Tunisia", "Basin_Sub_": "Tataouine", "Group": "N/A", "Formation": "A? El Guettar", "Member": "Oum ed Diab", "Well name/ outcrop": "Al Asfer", "Latitude": "32.678", "Longitude": "10.413", "Dating evidence": "N/A", "REF(Authors, Year)": "Fanti etal. 2012", "Show_on_Ma": "105", "Lithology, structures, paleowind": "Vertebrate remains poorly washed and hardly reworked, mixed with centimeter size clay chips, quartz?renite rounded clasts, and ironstone pebbles.", "Paleoenvironment": "Marine: shallow inner shelf", "REF (Authors, Year)": "N/A", "Fossil occurrences": "Fishes: Leptostyrax macrorhiza, Mawsonia sp., Neoceratodus sp., Ceratodus sp.; Crocodyliforms:  Araripesuchus sp., Sarcosuchus sp.;  Dinosaurs: Carcharodontosaurus sp., Spinosaurus teeth, Abelisaurid, rebbachisaurid sauropod; Shark teeth: Caturus sp., Onchopristis dunklei, Hybodus sp.", "REF (Authors, Year)_1": "Fanti etal. 2012", "Geochemistry data": "N/A", "REF (Authors, Year)_2": "N/A", "Sediment-based climate inference (hot/cold, humid/semi-arid/desert)": "Hot", "Fossil-based climate inference (hot/cold, humid/semi-arid/desert)": "Hot, humid", "Geochemistry-based climate inference  (hot/cold, humid/semi-arid/desert)": "N/A", "Climate assignment leading evidence": "Crocodyliforms", "Climate_Cl": "H", "Weight": "3", "PlateID": "715", "Sediment-based climate inference (hot/cold, humid/S/desert)": null, "Fossil-based climate inference (hot/cold, humid/S/desert)": null, "Geochemistry-based climate inference  (hot/cold, humid/S/desert)": null, "PaleozonaCodigo": null, "layer": "105.00Ma_point", "path": "C:/Users/Leonardo Bachi/OneDrive/Desktop/ITT_OCEANEON/20_SETEMBRO_TABELA_FINAL/PONTOS_RETIFICADOS/105.00Ma.geojson", "winner": "D", "cluster_size": 14}, "geometry": {"type": "Point", "coordinates": [2.688106777383112, 7.535131438364106]}}, {"type": "Feature", "properties": {"ID": "2672", "Country": "Tunisia", "Basin_Sub_": "Tataouine", "Group": "N/A", "Formation": "A? El Guettar", "Member": "Oum ed Diab", "Well name/ outcrop": "Jar Jar", "Latitude": "32.737", "Longitude": "10.296", "Dating evidence": "N/A", "REF(Authors, Year)": "Fanti etal. 2012", "Show_on_Ma": "105", "Lithology, structures, paleowind": "Vertebrate remains poorly washed and hardly reworked, mixed with centimeter size clay chips, quartz?renite rounded clasts, and ironstone pebbles.", "Paleoenvironment": "Marine: shallow inner shelf", "REF (Authors, Year)": "N/A", "Fossil occurrences": "Fishes: Leptostyrax macrorhiza, Mawsonia sp., Neoceratodus sp., Ceratodus sp.; Crocodyliforms:  Araripesuchus sp., Sarcosuchus sp.;  Dinosaurs: Carcharodontosaurus sp., Spinosaurus teeth, Abelisaurid, rebbachisaurid sauropod; Shark teeth: Caturus sp., Onchopristis dunklei, Hybodus sp.", "REF (Authors, Year)_1": "Fanti etal. 2012", "Geochemistry data": "N/A", "REF (Authors, Year)_2": "N/A", "Sediment-based climate inference (hot/cold, humid/semi-arid/desert)": "Hot", "Fossil-based climate inference (hot/cold, humid/semi-arid/desert)": "Hot, humid", "Geochemistry-based climate inference  (hot/cold, humid/semi-arid/desert)": "N/A", "Climate assignment leading evidence": "Crocodyliforms", "Climate_Cl": "H", "Weight": "3", "PlateID": "715", "Sediment-based climate inference (hot/cold, humid/S/desert)": null, "Fossil-based climate inference (hot/cold, humid/S/desert)": null, "Geochemistry-based climate inference  (hot/cold, humid/S/desert)": null, "PaleozonaCodigo": null, "layer": "105.00Ma_point", "path": "C:/Users/Leonardo Bachi/OneDrive/Desktop/ITT_OCEANEON/20_SETEMBRO_TABELA_FINAL/PONTOS_RETIFICADOS/105.00Ma.geojson", "winner": "D", "cluster_size": 14}, "geometry": {"type": "Point", "coordinates": [2.611544017725005, 7.621231358922402]}}, {"type": "Feature", "properties": {"ID": "2675", "Country": "Tunisia", "Basin_Sub_": "Tataouine", "Group": "N/A", "Formation": "A? El Guettar", "Member": "Oum ed Diab", "Well name/ outcrop": "Jebel Haddada", "Latitude": "32.953", "Longitude": "10.29", "Dating evidence": "N/A", "REF(Authors, Year)": "Fanti etal. 2012", "Show_on_Ma": "105", "Lithology, structures, paleowind": "Vertebrate remains poorly washed and hardly reworked, mixed with centimeter size clay chips, quartz?renite rounded clasts, and ironstone pebbles.", "Paleoenvironment": "Marine: shallow inner shelf", "REF (Authors, Year)": "N/A", "Fossil occurrences": "Fishes: Leptostyrax macrorhiza, Mawsonia sp., Neoceratodus sp., Ceratodus sp.; Crocodyliforms:  Araripesuchus sp., Sarcosuchus sp.;  Dinosaurs: Carcharodontosaurus sp., Spinosaurus teeth, Abelisaurid, rebbachisaurid sauropod; Shark teeth: Caturus sp., Onchopristis dunklei, Hybodus sp.", "REF (Authors, Year)_1": "Fanti etal. 2012", "Geochemistry data": "N/A", "REF (Authors, Year)_2": "N/A", "Sediment-based climate inference (hot/cold, humid/semi-arid/desert)": "Hot", "Fossil-based climate inference (hot/cold, humid/semi-arid/desert)": "Hot, humid", "Geochemistry-based climate inference  (hot/cold, humid/semi-arid/desert)": "N/A", "Climate assignment leading evidence": "Crocodyliforms", "Climate_Cl": "H", "Weight": "3", "PlateID": "715", "Sediment-based climate inference (hot/cold, humid/S/desert)": null, "Fossil-based climate inference (hot/cold, humid/S/desert)": null, "Geochemistry-based climate inference  (hot/cold, humid/S/desert)": null, "PaleozonaCodigo": null, "layer": "105.00Ma_point", "path": "C:/Users/Leonardo Bachi/OneDrive/Desktop/ITT_OCEANEON/20_SETEMBRO_TABELA_FINAL/PONTOS_RETIFICADOS/105.00Ma.geojson", "winner": "D", "cluster_size": 14}, "geometry": {"type": "Point", "coordinates": [2.672981670094286, 7.828535550115161]}}, {"type": "Feature", "properties": {"ID": "2679", "Country": "Tunisia", "Basin_Sub_": "Tataouine", "Group": "N/A", "Formation": "A? El Guettar", "Member": "Chenini", "Well name/ outcrop": "Ghomrassen region", "Latitude": "33.087", "Longitude": "10.265", "Dating evidence": "Biostratigraphy: Vertebrates", "REF(Authors, Year)": "  Dridi 2022", "Show_on_Ma": "105", "Lithology, structures, paleowind": "cross-bedded ?uvial sandstones, locally interbedded with high-angle, aeolian deposits and thin layers of typical arid paleo-soil.", "Paleoenvironment": "Continental: fluvial and aeolina", "REF (Authors, Year)": "  Dridi 2022", "Fossil occurrences": "Theropoda? Carcharodontosauridae, Theropoda: Spinosauridae, Crocodylomorpha indet; ?Araripesuchus sp., Testudies: Pleurodira indet., Chondrichthyes: Leptostyrax sp., Scapanorhynchus sp., Onchopristis dunklei, Tribodus tuniniensis, Cretodus semiplicatus, Osteichthyes: Lepidotes sp., Mawsonia sp., ? Lavocatodus humei, Sarcopterygii indet. ", "REF (Authors, Year)_1": "  Dridi 2022", "Geochemistry data": "N/A", "REF (Authors, Year)_2": "N/A", "Sediment-based climate inference (hot/cold, humid/semi-arid/desert)": "semi-arid", "Fossil-based climate inference (hot/cold, humid/semi-arid/desert)": "semi-arid", "Geochemistry-based climate inference  (hot/cold, humid/semi-arid/desert)": "N/A", "Climate assignment leading evidence": "Aeolian deposits and desiccation marks on the surface of many coprolites", "Climate_Cl": "S", "Weight": "6", "PlateID": "7701", "Sediment-based climate inference (hot/cold, humid/S/desert)": null, "Fossil-based climate inference (hot/cold, humid/S/desert)": null, "Geochemistry-based climate inference  (hot/cold, humid/S/desert)": null, "PaleozonaCodigo": null, "layer": "105.00Ma_point", "path": "C:/Users/Leonardo Bachi/OneDrive/Desktop/ITT_OCEANEON/20_SETEMBRO_TABELA_FINAL/PONTOS_RETIFICADOS/105.00Ma.geojson", "winner": "D", "cluster_size": 14}, "geometry": {"type": "Point", "coordinates": [2.693991586651254, 7.962559124492699]}}, {"type": "Feature", "properties": {"ID": "2682", "Country": "Tunisia", "Basin_Sub_": "Tataouine", "Group": "N/A", "Formation": "A? El Guettar", "Member": "Oum ed Diab", "Well name/ outcrop": "Oued El Khil", "Latitude": "33.184", "Longitude": "10.26", "Dating evidence": "N/A", "REF(Authors, Year)": "Fanti etal. 2012", "Show_on_Ma": "105", "Lithology, structures, paleowind": "Vertebrate remains poorly washed and hardly reworked, mixed with centimeter size clay chips, quartz?renite rounded clasts, and ironstone pebbles.", "Paleoenvironment": "Marine: shallow inner shelf", "REF (Authors, Year)": "N/A", "Fossil occurrences": "Fishes: Leptostyrax macrorhiza, Mawsonia sp., Neoceratodus sp., Ceratodus sp.; Crocodyliforms:  Araripesuchus sp., Sarcosuchus sp.;  Dinosaurs: Carcharodontosaurus sp., Spinosaurus teeth, Abelisaurid, rebbachisaurid sauropod; Shark teeth: Caturus sp., Onchopristis dunklei, Hybodus sp.", "REF (Authors, Year)_1": "Fanti etal. 2012", "Geochemistry data": "N/A", "REF (Authors, Year)_2": "N/A", "Sediment-based climate inference (hot/cold, humid/semi-arid/desert)": "Hot", "Fossil-based climate inference (hot/cold, humid/semi-arid/desert)": "Hot, humid", "Geochemistry-based climate inference  (hot/cold, humid/semi-arid/desert)": "N/A", "Climate assignment leading evidence": "Crocodyliforms", "Climate_Cl": "H", "Weight": "3", "PlateID": "7701", "Sediment-based climate inference (hot/cold, humid/S/desert)": null, "Fossil-based climate inference (hot/cold, humid/S/desert)": null, "Geochemistry-based climate inference  (hot/cold, humid/S/desert)": null, "PaleozonaCodigo": null, "layer": "105.00Ma_point", "path": "C:/Users/Leonardo Bachi/OneDrive/Desktop/ITT_OCEANEON/20_SETEMBRO_TABELA_FINAL/PONTOS_RETIFICADOS/105.00Ma.geojson", "winner": "D", "cluster_size": 14}, "geometry": {"type": "Point", "coordinates": [2.719792415167377, 8.056227536146205]}}]}