{"type": "FeatureCollection", "features": [{"type": "Feature", "properties": {"ID": "508", "Country": "Brazil", "Basin_Sub_": "Araripe", "Group": "Chapada", "Formation": "Araripina ", "Member": "N/A", "Well name/ outcrop": "Alagoinha Columnar Section", "Latitude": "-7.38", "Longitude": "-40.74", "Dating evidence": "Biostratigraphy: palynomorphs", "REF(Authors, Year)": "Lima, 1978b, 1978d", "Show_on_Ma": "110", "Lithology, structures, paleowind": "Red mudstone/siltstone, rhythmite, and heterolithic facies, sandstones at the base with intraformational conglomerates; fluidization and soft sediment deformation structures", "Paleoenvironment": "Intercalated terminal splays and floodplain deposits and infrequent incursions of fluvial sediments ", "REF (Authors, Year)": "Warren et al., 2021", "Fossil occurrences": "N/A", "REF (Authors, Year)_1": "Warren et al., 2021", "Geochemistry data": "N/A", "REF (Authors, Year)_2": "N/A", "Sediment-based climate inference (hot/cold, humid/semi-arid/desert)": "Humid", "Fossil-based climate inference (hot/cold, humid/semi-arid/desert)": "N/A", "Geochemistry-based climate inference  (hot/cold, humid/semi-arid/desert)": "N/A", "Climate assignment leading evidence": "Small fluvial channels, lateral and terminal splays, floodplains, soft sediment deformation", "Climate_Cl": "S", "Weight": "1", "PlateID": "201", "Sediment-based climate inference (hot/cold, humid/S/desert)": null, "Fossil-based climate inference (hot/cold, humid/S/desert)": null, "Geochemistry-based climate inference  (hot/cold, humid/S/desert)": null, "PaleozonaCodigo": null, "layer": "110.00Ma_point", "path": "C:/Users/Leonardo Bachi/OneDrive/Desktop/ITT_OCEANEON/20_SETEMBRO_TABELA_FINAL/PONTOS_RETIFICADOS/110.00Ma.geojson", "winner": "H", "cluster_size": 9}, "geometry": {"type": "Point", "coordinates": [-18.6380482273832, -20.895431633265343]}}, {"type": "Feature", "properties": {"ID": "510", "Country": "Brazil", "Basin_Sub_": "Araripe", "Group": "Chapada", "Formation": "Araripina ", "Member": "N/A", "Well name/ outcrop": "Serra Redonda Columnar Section", "Latitude": "-7.44", "Longitude": "-40.79", "Dating evidence": "Biostratigraphy: palynomorphs", "REF(Authors, Year)": "Lima, 1978b, 1978d", "Show_on_Ma": "110", "Lithology, structures, paleowind": "Overall fining upwards pattern, channel-fill deposits of fine to medium sandstone (locally with intra-formational mud chips and conglomerates at the base) and sheet sandstones, sometimes amalgamated and with fluidization and soft sediment deformation structures, grading laterally from massive, to rippled or convoluted, to laterally continuous heterolithic layers, (siltstones and mudstones). Paleocurrents towards SSE.", "Paleoenvironment": "Ribbon channels, lateral and terminal splays, floodplain deposits (proximal and distal), with paleosols at the top.", "REF (Authors, Year)": "Warren et al., 2021", "Fossil occurrences": "Rhizohaloes, meniscate or simple horizontal at the top; burrows Taenidium isp., Scoyenia isp., and possibly Skolithos isp.", "REF (Authors, Year)_1": "Warren et al., 2021", "Geochemistry data": "N/A", "REF (Authors, Year)_2": "N/A", "Sediment-based climate inference (hot/cold, humid/semi-arid/desert)": "Humid", "Fossil-based climate inference (hot/cold, humid/semi-arid/desert)": "Humid, hot (tropical)", "Geochemistry-based climate inference  (hot/cold, humid/semi-arid/desert)": "N/A", "Climate assignment leading evidence": "Fluvial meandering and braided, soft sediment deformation, torrential seasonal character", "Climate_Cl": "S", "Weight": "1", "PlateID": "201", "Sediment-based climate inference (hot/cold, humid/S/desert)": null, "Fossil-based climate inference (hot/cold, humid/S/desert)": null, "Geochemistry-based climate inference  (hot/cold, humid/S/desert)": null, "PaleozonaCodigo": null, "layer": "110.00Ma_point", "path": "C:/Users/Leonardo Bachi/OneDrive/Desktop/ITT_OCEANEON/20_SETEMBRO_TABELA_FINAL/PONTOS_RETIFICADOS/110.00Ma.geojson", "winner": "H", "cluster_size": 9}, "geometry": {"type": "Point", "coordinates": [-18.689386468577435, -20.95674245351661]}}, {"type": "Feature", "properties": {"ID": "514", "Country": "Brazil", "Basin_Sub_": "Araripe", "Group": "Chapada", "Formation": "Araripina ", "Member": "N/A", "Well name/ outcrop": "Caboclos section (Andrade, 2019)", "Latitude": "-7.33", "Longitude": "-40.61", "Dating evidence": "Biostratigraphy: palynomorphs", "REF(Authors, Year)": "Lima, 1978b, 1978d", "Show_on_Ma": "110", "Lithology, structures, paleowind": "Conglomerates, through bedded and massive sandstones wih mud and clay intraclasts, massive and laminated siltstones and claystones, liquefaction and load structures; paleocurrents towards SE (116?", "Paleoenvironment": "Alluvial plains, distributary fluvial (ribbon, meandering), ephemeral lakes, playa lakes, and splays", "REF (Authors, Year)": "Andrade, 2019", "Fossil occurrences": "Palynomorphs: angiosperm pollens, tricolpates, reticulates, polyplicates, rimulates; Ichnofossils: skolithos, taenidium", "REF (Authors, Year)_1": "Lima, 1978a,b; Fernandes et al, 1998", "Geochemistry data": "N/A", "REF (Authors, Year)_2": "N/A", "Sediment-based climate inference (hot/cold, humid/semi-arid/desert)": "Hot, dry", "Fossil-based climate inference (hot/cold, humid/semi-arid/desert)": "Hot, dry", "Geochemistry-based climate inference  (hot/cold, humid/semi-arid/desert)": "N/A", "Climate assignment leading evidence": "Small fluvial channels, lateral and terminal splays, floodplains, soft sediment deformation, palynomorphs, ichnofossils", "Climate_Cl": "D", "Weight": "4", "PlateID": "201", "Sediment-based climate inference (hot/cold, humid/S/desert)": null, "Fossil-based climate inference (hot/cold, humid/S/desert)": null, "Geochemistry-based climate inference  (hot/cold, humid/S/desert)": null, "PaleozonaCodigo": null, "layer": "110.00Ma_point", "path": "C:/Users/Leonardo Bachi/OneDrive/Desktop/ITT_OCEANEON/20_SETEMBRO_TABELA_FINAL/PONTOS_RETIFICADOS/110.00Ma.geojson", "winner": "H", "cluster_size": 9}, "geometry": {"type": "Point", "coordinates": [-18.50157593198953, -20.841935968068622]}}, {"type": "Feature", "properties": {"ID": "516", "Country": "Brazil", "Basin_Sub_": "Araripe", "Group": "Chapada", "Formation": "Araripina ", "Member": "N/A", "Well name/ outcrop": "Riacho Bom Jardim section (Andrade, 2019)", "Latitude": "-7.7", "Longitude": "-40.63", "Dating evidence": "Biostratigraphy: palynomorphs", "REF(Authors, Year)": "Lima, 1978b, 1978d", "Show_on_Ma": "110", "Lithology, structures, paleowind": "Massive, through and climbing rippled sandstones, some mud and clay intraclasts, laminated siltstones and claystones, lenticular heterolithics; truncation surfaces, some liquefaction structures. Paleocurrents towards E (84?", "Paleoenvironment": "Alluvial plains, distributary fluvial (ribbon, meandering), ephemeral lakes, playa lakes, and splays", "REF (Authors, Year)": "Andrade, 2019", "Fossil occurrences": "Palynomorphs: angiosperm pollens, tricolpates, reticulates, polyplicates, rimulates; Ichnofossils: skolithos, taenidium", "REF (Authors, Year)_1": "Lima, 1978a,b; Fernandes et al, 1998", "Geochemistry data": "N/A", "REF (Authors, Year)_2": "N/A", "Sediment-based climate inference (hot/cold, humid/semi-arid/desert)": "Hot, dry", "Fossil-based climate inference (hot/cold, humid/semi-arid/desert)": "Hot, dry", "Geochemistry-based climate inference  (hot/cold, humid/semi-arid/desert)": "N/A", "Climate assignment leading evidence": "Small fluvial channels, lateral and terminal splays, floodplains, soft sediment deformation, palynomorphs, ichnofossils", "Climate_Cl": "D", "Weight": "4", "PlateID": "201", "Sediment-based climate inference (hot/cold, humid/S/desert)": null, "Fossil-based climate inference (hot/cold, humid/S/desert)": null, "Geochemistry-based climate inference  (hot/cold, humid/S/desert)": null, "PaleozonaCodigo": null, "layer": "110.00Ma_point", "path": "C:/Users/Leonardo Bachi/OneDrive/Desktop/ITT_OCEANEON/20_SETEMBRO_TABELA_FINAL/PONTOS_RETIFICADOS/110.00Ma.geojson", "winner": "H", "cluster_size": 9}, "geometry": {"type": "Point", "coordinates": [-18.511899358260404, -21.212341562869145]}}, {"type": "Feature", "properties": {"ID": "518", "Country": "Brazil", "Basin_Sub_": "Araripe", "Group": "Chapada", "Formation": "Araripina ", "Member": "N/A", "Well name/ outcrop": "Road section BR-116 (Piaui)", "Latitude": "-7.4", "Longitude": "-40.71", "Dating evidence": "Biostratigraphy: palynomorphs", "REF(Authors, Year)": "Lima, 1978b, 1978d", "Show_on_Ma": "110", "Lithology, structures, paleowind": "Sandstones and siltstones, with cross bedding, load structures and convolute bedding; trace fossils (Skolithos, Taenidium)", "Paleoenvironment": "Alluvial fan plains (mid to distal), anoxic lacustrine/floodplains", "REF (Authors, Year)": "Assine et al., 2007; Fernandes et al., 1998", "Fossil occurrences": "Palynomorphs: angiosperm pollens, tricolpates, reticulates, polyplicates, rimulates; Ichnofossils: skolithos, taenidium", "REF (Authors, Year)_1": "Lima, 1978a,b; Fernandes et al, 1998", "Geochemistry data": "N/A", "REF (Authors, Year)_2": "N/A", "Sediment-based climate inference (hot/cold, humid/semi-arid/desert)": "Hot, dry", "Fossil-based climate inference (hot/cold, humid/semi-arid/desert)": "Hot, dry", "Geochemistry-based climate inference  (hot/cold, humid/semi-arid/desert)": "N/A", "Climate assignment leading evidence": "Palynomorph assemblage", "Climate_Cl": "D", "Weight": "5", "PlateID": "201", "Sediment-based climate inference (hot/cold, humid/S/desert)": null, "Fossil-based climate inference (hot/cold, humid/S/desert)": null, "Geochemistry-based climate inference  (hot/cold, humid/S/desert)": null, "PaleozonaCodigo": null, "layer": "110.00Ma_point", "path": "C:/Users/Leonardo Bachi/OneDrive/Desktop/ITT_OCEANEON/20_SETEMBRO_TABELA_FINAL/PONTOS_RETIFICADOS/110.00Ma.geojson", "winner": "H", "cluster_size": 9}, "geometry": {"type": "Point", "coordinates": [-18.60563364878159, -20.91461970159759]}}, {"type": "Feature", "properties": {"ID": "821", "Country": "Brazil", "Basin_Sub_": "Grajaú", "Group": "Itapecuru", "Formation": "N/A", "Member": "N/A", "Well name/ outcrop": null, "Latitude": "-4", "Longitude": "-45.5", "Dating evidence": "Biostratigraphy: palynomorphs -  Elaterosporites jardinei (P-320) local biozone", "REF(Authors, Year)": "Santos & Carvalho, 2009", "Show_on_Ma": "110", "Lithology, structures, paleowind": "Sandstones with through and planar cross stratification, interbedded siltstones and shales ", "Paleoenvironment": "Lacustrine and transitional coastal", "REF (Authors, Year)": "Santos & Carvalho, 2009", "Fossil occurrences": "Fish, crocodiles, turtles, mollusks, dinosaurs; palynomorphs: Classopollis, Afropollis jardinus, Equisetosporites, Gnetaceapollenites and Steevesipolenites ", "REF (Authors, Year)_1": "Santos & Carvalho, 2009", "Geochemistry data": "N/A", "REF (Authors, Year)_2": "N/A", "Sediment-based climate inference (hot/cold, humid/semi-arid/desert)": "N/A", "Fossil-based climate inference (hot/cold, humid/semi-arid/desert)": "Hot, humid", "Geochemistry-based climate inference  (hot/cold, humid/semi-arid/desert)": "N/A", "Climate assignment leading evidence": "Marine invertebrates", "Climate_Cl": "H", "Weight": "5", "PlateID": "201", "Sediment-based climate inference (hot/cold, humid/S/desert)": null, "Fossil-based climate inference (hot/cold, humid/S/desert)": null, "Geochemistry-based climate inference  (hot/cold, humid/S/desert)": null, "PaleozonaCodigo": null, "layer": "110.00Ma_point", "path": "C:/Users/Leonardo Bachi/OneDrive/Desktop/ITT_OCEANEON/20_SETEMBRO_TABELA_FINAL/PONTOS_RETIFICADOS/110.00Ma.geojson", "winner": "S", "cluster_size": 3}, "geometry": {"type": "Point", "coordinates": [-23.71344760706491, -17.593684932519785]}}, {"type": "Feature", "properties": {"ID": "869", "Country": "Brazil", "Basin_Sub_": "Jatobá/Santana", "Group": "Crato", "Formation": "N/A", "Member": "2-JSN-01-PE", "Well name/ outcrop": null, "Latitude": "-9.11", "Longitude": "-38.31", "Dating evidence": "Biostratigraphy: Inaperturopollenites turbatus, Sergipea variverrucata, Exesipollenites tumulus", "REF(Authors, Year)": "Nascimento 2013", "Show_on_Ma": "110", "Lithology, structures, paleowind": "facies association, very fine sandstones/claystones with laminated limestones", "Paleoenvironment": "Continental (alluvial fans)", "REF (Authors, Year)": "Rocha, 2011", "Fossil occurrences": "Cyathidites, Deltoidospora, Cicatricosisporites, Crybelosporites pannuceus, Callialasporites, Callialasporites turbatus, Inaperturopollenites turbatus, Classopollis", "REF (Authors, Year)_1": "Nascimento 2013", "Geochemistry data": "N/A", "REF (Authors, Year)_2": "N/A", "Sediment-based climate inference (hot/cold, humid/semi-arid/desert)": "N/A", "Fossil-based climate inference (hot/cold, humid/semi-arid/desert)": "Hot, Semi-Arid", "Geochemistry-based climate inference  (hot/cold, humid/semi-arid/desert)": "N/A", "Climate assignment leading evidence": "Alluvial fans", "Climate_Cl": "S", "Weight": "5", "PlateID": "201", "Sediment-based climate inference (hot/cold, humid/S/desert)": null, "Fossil-based climate inference (hot/cold, humid/S/desert)": null, "Geochemistry-based climate inference  (hot/cold, humid/S/desert)": null, "PaleozonaCodigo": null, "layer": "110.00Ma_point", "path": "C:/Users/Leonardo Bachi/OneDrive/Desktop/ITT_OCEANEON/20_SETEMBRO_TABELA_FINAL/PONTOS_RETIFICADOS/110.00Ma.geojson", "winner": "D", "cluster_size": 3}, "geometry": {"type": "Point", "coordinates": [-15.990203364671927, -22.546439355963397]}}, {"type": "Feature", "properties": {"ID": "1478", "Country": "Brazil", "Basin_Sub_": "Sanfranciscana", "Group": "Areado", "Formation": "Quiricó", "Member": null, "Well name/ outcrop": null, "Latitude": "-18", "Longitude": "-46.1", "Dating evidence": null, "REF(Authors, Year)": null, "Show_on_Ma": "110", "Lithology, structures, paleowind": null, "Paleoenvironment": null, "REF (Authors, Year)": null, "Fossil occurrences": null, "REF (Authors, Year)_1": null, "Geochemistry data": null, "REF (Authors, Year)_2": null, "Sediment-based climate inference (hot/cold, humid/semi-arid/desert)": null, "Fossil-based climate inference (hot/cold, humid/semi-arid/desert)": null, "Geochemistry-based climate inference  (hot/cold, humid/semi-arid/desert)": null, "Climate assignment leading evidence": null, "Climate_Cl": "S", "Weight": "6", "PlateID": "201", "Sediment-based climate inference (hot/cold, humid/S/desert)": null, "Fossil-based climate inference (hot/cold, humid/S/desert)": null, "Geochemistry-based climate inference  (hot/cold, humid/S/desert)": null, "PaleozonaCodigo": null, "layer": "110.00Ma_point", "path": "C:/Users/Leonardo Bachi/OneDrive/Desktop/ITT_OCEANEON/20_SETEMBRO_TABELA_FINAL/PONTOS_RETIFICADOS/110.00Ma.geojson", "winner": "D", "cluster_size": 16}, "geometry": {"type": "Point", "coordinates": [-24.285732983472162, -31.596412945519944]}}, {"type": "Feature", "properties": {"ID": "1480", "Country": "Brazil", "Basin_Sub_": "Sanfranciscana", "Group": "Areado", "Formation": "Quiricó", "Member": null, "Well name/ outcrop": null, "Latitude": "-18", "Longitude": "-45.92", "Dating evidence": null, "REF(Authors, Year)": null, "Show_on_Ma": "110", "Lithology, structures, paleowind": null, "Paleoenvironment": null, "REF (Authors, Year)": null, "Fossil occurrences": null, "REF (Authors, Year)_1": null, "Geochemistry data": null, "REF (Authors, Year)_2": null, "Sediment-based climate inference (hot/cold, humid/semi-arid/desert)": null, "Fossil-based climate inference (hot/cold, humid/semi-arid/desert)": null, "Geochemistry-based climate inference  (hot/cold, humid/semi-arid/desert)": null, "Climate assignment leading evidence": null, "Climate_Cl": "S", "Weight": "3", "PlateID": "201", "Sediment-based climate inference (hot/cold, humid/S/desert)": null, "Fossil-based climate inference (hot/cold, humid/S/desert)": null, "Geochemistry-based climate inference  (hot/cold, humid/S/desert)": null, "PaleozonaCodigo": null, "layer": "110.00Ma_point", "path": "C:/Users/Leonardo Bachi/OneDrive/Desktop/ITT_OCEANEON/20_SETEMBRO_TABELA_FINAL/PONTOS_RETIFICADOS/110.00Ma.geojson", "winner": "D", "cluster_size": 16}, "geometry": {"type": "Point", "coordinates": [-24.08475146179035, -31.59568391758347]}}, {"type": "Feature", "properties": {"ID": "1481", "Country": "Brazil", "Basin_Sub_": "Sanfranciscana", "Group": "Areado", "Formation": "Quiricó", "Member": null, "Well name/ outcrop": null, "Latitude": "-18", "Longitude": "-46", "Dating evidence": null, "REF(Authors, Year)": null, "Show_on_Ma": "110", "Lithology, structures, paleowind": null, "Paleoenvironment": null, "REF (Authors, Year)": null, "Fossil occurrences": null, "REF (Authors, Year)_1": null, "Geochemistry data": null, "REF (Authors, Year)_2": null, "Sediment-based climate inference (hot/cold, humid/semi-arid/desert)": null, "Fossil-based climate inference (hot/cold, humid/semi-arid/desert)": null, "Geochemistry-based climate inference  (hot/cold, humid/semi-arid/desert)": null, "Climate assignment leading evidence": null, "Climate_Cl": "S", "Weight": "3", "PlateID": "201", "Sediment-based climate inference (hot/cold, humid/S/desert)": null, "Fossil-based climate inference (hot/cold, humid/S/desert)": null, "Geochemistry-based climate inference  (hot/cold, humid/S/desert)": null, "PaleozonaCodigo": null, "layer": "110.00Ma_point", "path": "C:/Users/Leonardo Bachi/OneDrive/Desktop/ITT_OCEANEON/20_SETEMBRO_TABELA_FINAL/PONTOS_RETIFICADOS/110.00Ma.geojson", "winner": "D", "cluster_size": 16}, "geometry": {"type": "Point", "coordinates": [-24.17407629564666, -31.59602625395132]}}, {"type": "Feature", "properties": {"ID": "1482", "Country": "Brazil", "Basin_Sub_": "Sanfranciscana", "Group": "Areado", "Formation": "Quiricó", "Member": null, "Well name/ outcrop": null, "Latitude": "-18", "Longitude": "-46.4", "Dating evidence": null, "REF(Authors, Year)": null, "Show_on_Ma": "110", "Lithology, structures, paleowind": null, "Paleoenvironment": null, "REF (Authors, Year)": null, "Fossil occurrences": null, "REF (Authors, Year)_1": null, "Geochemistry data": null, "REF (Authors, Year)_2": null, "Sediment-based climate inference (hot/cold, humid/semi-arid/desert)": null, "Fossil-based climate inference (hot/cold, humid/semi-arid/desert)": null, "Geochemistry-based climate inference  (hot/cold, humid/semi-arid/desert)": null, "Climate assignment leading evidence": null, "Climate_Cl": "S", "Weight": "3", "PlateID": "201", "Sediment-based climate inference (hot/cold, humid/S/desert)": null, "Fossil-based climate inference (hot/cold, humid/S/desert)": null, "Geochemistry-based climate inference  (hot/cold, humid/S/desert)": null, "PaleozonaCodigo": null, "layer": "110.00Ma_point", "path": "C:/Users/Leonardo Bachi/OneDrive/Desktop/ITT_OCEANEON/20_SETEMBRO_TABELA_FINAL/PONTOS_RETIFICADOS/110.00Ma.geojson", "winner": "D", "cluster_size": 16}, "geometry": {"type": "Point", "coordinates": [-24.620706574569574, -31.597298145259618]}}, {"type": "Feature", "properties": {"ID": "1483", "Country": "Brazil", "Basin_Sub_": "Sanfranciscana", "Group": "Areado", "Formation": "Quiricó", "Member": null, "Well name/ outcrop": null, "Latitude": "-18", "Longitude": "-46.02", "Dating evidence": null, "REF(Authors, Year)": null, "Show_on_Ma": "110", "Lithology, structures, paleowind": null, "Paleoenvironment": null, "REF (Authors, Year)": null, "Fossil occurrences": null, "REF (Authors, Year)_1": null, "Geochemistry data": null, "REF (Authors, Year)_2": null, "Sediment-based climate inference (hot/cold, humid/semi-arid/desert)": null, "Fossil-based climate inference (hot/cold, humid/semi-arid/desert)": null, "Geochemistry-based climate inference  (hot/cold, humid/semi-arid/desert)": null, "Climate assignment leading evidence": null, "Climate_Cl": "S", "Weight": "3", "PlateID": "201", "Sediment-based climate inference (hot/cold, humid/S/desert)": null, "Fossil-based climate inference (hot/cold, humid/S/desert)": null, "Geochemistry-based climate inference  (hot/cold, humid/S/desert)": null, "PaleozonaCodigo": null, "layer": "110.00Ma_point", "path": "C:/Users/Leonardo Bachi/OneDrive/Desktop/ITT_OCEANEON/20_SETEMBRO_TABELA_FINAL/PONTOS_RETIFICADOS/110.00Ma.geojson", "winner": "D", "cluster_size": 16}, "geometry": {"type": "Point", "coordinates": [-24.196407577988147, -31.596107257104215]}}, {"type": "Feature", "properties": {"ID": "1724", "Country": "Cameroon", "Basin_Sub_": "Mamfe", "Group": "N/A", "Formation": "Manfe", "Member": "Nfiatok ", "Well name/ outcrop": "S7 sample", "Latitude": "5.753", "Longitude": "9.228", "Dating evidence": "palynology?", "REF(Authors, Year)": "Abolo, 2008 (in Asi et al., 2022)", "Show_on_Ma": "110", "Lithology, structures, paleowind": "Repeated succession of alternating black shales, limestones, and sandstones with mud crcks. Mud crack and limestones in the lower part and  leaf and root fossil, and coal bed in upper part.", "Paleoenvironment": "Continental: fluvio-lacustrine (with fluvial back swamp settings)", "REF (Authors, Year)": "Asi et al., 2022", "Fossil occurrences": "N/A", "REF (Authors, Year)_1": "Asi et al., 2022", "Geochemistry data": "TOC value of 2.49 wt%, type II and II of organic matter", "REF (Authors, Year)_2": "Asi et al., 2022", "Sediment-based climate inference (hot/cold, humid/semi-arid/desert)": "semi-arid", "Fossil-based climate inference (hot/cold, humid/semi-arid/desert)": "N/A", "Geochemistry-based climate inference  (hot/cold, humid/semi-arid/desert)": "N/A", "Climate assignment leading evidence": "mud cracks and limestone", "Climate_Cl": "S", "Weight": "2", "PlateID": "701", "Sediment-based climate inference (hot/cold, humid/S/desert)": null, "Fossil-based climate inference (hot/cold, humid/S/desert)": null, "Geochemistry-based climate inference  (hot/cold, humid/S/desert)": null, "PaleozonaCodigo": null, "layer": "110.00Ma_point", "path": "C:/Users/Leonardo Bachi/OneDrive/Desktop/ITT_OCEANEON/20_SETEMBRO_TABELA_FINAL/PONTOS_RETIFICADOS/110.00Ma.geojson", "winner": "H", "cluster_size": 8}, "geometry": {"type": "Point", "coordinates": [-6.938301703775295, -18.28143677471997]}}, {"type": "Feature", "properties": {"ID": "1966", "Country": "Democratic Republic of Congo", "Basin_Sub_": "Congo", "Group": "Loia", "Formation": " ", "Member": null, "Well name/ outcrop": null, "Latitude": "0", "Longitude": "21", "Dating evidence": null, "REF(Authors, Year)": null, "Show_on_Ma": "110", "Lithology, structures, paleowind": null, "Paleoenvironment": null, "REF (Authors, Year)": null, "Fossil occurrences": null, "REF (Authors, Year)_1": null, "Geochemistry data": null, "REF (Authors, Year)_2": null, "Sediment-based climate inference (hot/cold, humid/semi-arid/desert)": null, "Fossil-based climate inference (hot/cold, humid/semi-arid/desert)": null, "Geochemistry-based climate inference  (hot/cold, humid/semi-arid/desert)": null, "Climate assignment leading evidence": null, "Climate_Cl": "S", "Weight": "2", "PlateID": "701", "Sediment-based climate inference (hot/cold, humid/S/desert)": null, "Fossil-based climate inference (hot/cold, humid/S/desert)": null, "Geochemistry-based climate inference  (hot/cold, humid/S/desert)": null, "PaleozonaCodigo": null, "layer": "110.00Ma_point", "path": "C:/Users/Leonardo Bachi/OneDrive/Desktop/ITT_OCEANEON/20_SETEMBRO_TABELA_FINAL/PONTOS_RETIFICADOS/110.00Ma.geojson", "winner": "H", "cluster_size": 3}, "geometry": {"type": "Point", "coordinates": [3.219108221836346, -27.44284485671056]}}, {"type": "Feature", "properties": {"ID": "2677", "Country": "Tunisia", "Basin_Sub_": "Tataouine", "Group": "N/A", "Formation": "A? El Guettar", "Member": "Chenini", "Well name/ outcrop": "Ghomrassen region", "Latitude": "33.087", "Longitude": "10.265", "Dating evidence": "Biostratigraphy: Vertebrates", "REF(Authors, Year)": "  Dridi 2022", "Show_on_Ma": "110", "Lithology, structures, paleowind": "cross-bedded ?uvial sandstones, locally interbedded with high-angle, aeolian deposits and thin layers of typical arid paleo-soil.", "Paleoenvironment": "Continental: fluvial and aeolina", "REF (Authors, Year)": "  Dridi 2022", "Fossil occurrences": "Theropoda? Carcharodontosauridae, Theropoda: Spinosauridae, Crocodylomorpha indet; ?Araripesuchus sp., Testudies: Pleurodira indet., Chondrichthyes: Leptostyrax sp., Scapanorhynchus sp., Onchopristis dunklei, Tribodus tuniniensis, Cretodus semiplicatus, Osteichthyes: Lepidotes sp., Mawsonia sp., ? Lavocatodus humei, Sarcopterygii indet. ", "REF (Authors, Year)_1": "  Dridi 2022", "Geochemistry data": "N/A", "REF (Authors, Year)_2": "N/A", "Sediment-based climate inference (hot/cold, humid/semi-arid/desert)": "semi-arid", "Fossil-based climate inference (hot/cold, humid/semi-arid/desert)": "semi-arid", "Geochemistry-based climate inference  (hot/cold, humid/semi-arid/desert)": "N/A", "Climate assignment leading evidence": "Aeolian deposits and desiccation marks on the surface of many coprolites", "Climate_Cl": "S", "Weight": "6", "PlateID": "715", "Sediment-based climate inference (hot/cold, humid/S/desert)": null, "Fossil-based climate inference (hot/cold, humid/S/desert)": null, "Geochemistry-based climate inference  (hot/cold, humid/S/desert)": null, "PaleozonaCodigo": null, "layer": "110.00Ma_point", "path": "C:/Users/Leonardo Bachi/OneDrive/Desktop/ITT_OCEANEON/20_SETEMBRO_TABELA_FINAL/PONTOS_RETIFICADOS/110.00Ma.geojson", "winner": "H", "cluster_size": 6}, "geometry": {"type": "Point", "coordinates": [3.255097137521981, 7.152766971644027]}}]}