{"type": "FeatureCollection", "features": [{"type": "Feature", "properties": {"Climate_Cl": "S", "votes": 5, "cluster_size": 5, "tie": false, "status": "majority", "member_ids": "8,11,14,17,20"}, "geometry": {"type": "Point", "coordinates": [-2.889390535840537, 11.953168641821728]}}, {"type": "Feature", "properties": {"Climate_Cl": "H", "votes": 1, "cluster_size": 1, "tie": false, "status": "majority", "member_ids": "82"}, "geometry": {"type": "Point", "coordinates": [-6.08314921980402, 4.120336658197291]}}, {"type": "Feature", "properties": {"Climate_Cl": "H", "votes": 2, "cluster_size": 2, "tie": false, "status": "majority", "member_ids": "85,88"}, "geometry": {"type": "Point", "coordinates": [-5.098317320726878, 4.205981557119342]}}, {"type": "Feature", "properties": {"Climate_Cl": "H", "votes": 3, "cluster_size": 3, "tie": false, "status": "majority", "member_ids": "154,163,172"}, "geometry": {"type": "Point", "coordinates": [-5.08135479693141, 10.01689109172173]}}, {"type": "Feature", "properties": {"Climate_Cl": "S", "votes": 2, "cluster_size": 2, "tie": false, "status": "majority", "member_ids": "187,188"}, "geometry": {"type": "Point", "coordinates": [-8.435700258925076, -33.348612047052676]}}, {"type": "Feature", "properties": {"Climate_Cl": "S", "votes": 2, "cluster_size": 2, "tie": false, "status": "majority", "member_ids": "207,230"}, "geometry": {"type": "Point", "coordinates": [-60.16698897218166, -60.882241691550746]}}, {"type": "Feature", "properties": {"Climate_Cl": "H", "votes": 1, "cluster_size": 1, "tie": false, "status": "majority", "member_ids": "219"}, "geometry": {"type": "Point", "coordinates": [-59.08004167199304, -60.504425680631314]}}, {"type": "Feature", "properties": {"Climate_Cl": "S", "votes": 1, "cluster_size": 1, "tie": false, "status": "majority", "member_ids": "238"}, "geometry": {"type": "Point", "coordinates": [-53.109604678884565, -56.2463635578072]}}, {"type": "Feature", "properties": {"Climate_Cl": "H", "votes": 1, "cluster_size": 1, "tie": false, "status": "majority", "member_ids": "258"}, "geometry": {"type": "Point", "coordinates": [-55.62523519374979, -60.60088813672712]}}, {"type": "Feature", "properties": {"Climate_Cl": "S", "votes": 1, "cluster_size": 1, "tie": false, "status": "majority", "member_ids": "269"}, "geometry": {"type": "Point", "coordinates": [-55.35807811456954, -57.68428649963503]}}, {"type": "Feature", "properties": {"Climate_Cl": "S", "votes": 1, "cluster_size": 1, "tie": false, "status": "majority", "member_ids": "312"}, "geometry": {"type": "Point", "coordinates": [-54.72803950073343, -51.71807677388928]}}, {"type": "Feature", "properties": {"Climate_Cl": "S", "votes": 1, "cluster_size": 2, "tie": true, "status": "tie", "member_ids": "331,332"}, "geometry": {"type": "Point", "coordinates": [-53.947011859672095, -50.129122825933756]}}, {"type": "Feature", "properties": {"Climate_Cl": "D", "votes": 1, "cluster_size": 2, "tie": true, "status": "tie", "member_ids": "331,332"}, "geometry": {"type": "Point", "coordinates": [-53.947011859672095, -50.129122825933756]}}, {"type": "Feature", "properties": {"Climate_Cl": "D", "votes": 1, "cluster_size": 1, "tie": false, "status": "majority", "member_ids": "347"}, "geometry": {"type": "Point", "coordinates": [-43.4213770368092, -55.248914554854444]}}, {"type": "Feature", "properties": {"Climate_Cl": "S", "votes": 1, "cluster_size": 1, "tie": false, "status": "majority", "member_ids": "379"}, "geometry": {"type": "Point", "coordinates": [-47.65968131437826, -38.518980449051]}}, {"type": "Feature", "properties": {"Climate_Cl": "S", "votes": 2, "cluster_size": 2, "tie": false, "status": "majority", "member_ids": "400,403"}, "geometry": {"type": "Point", "coordinates": [-49.36400876756192, -45.60657804284256]}}, {"type": "Feature", "properties": {"Climate_Cl": "S", "votes": 1, "cluster_size": 1, "tie": false, "status": "majority", "member_ids": "416"}, "geometry": {"type": "Point", "coordinates": [-46.371388204878265, -32.784389271052774]}}, {"type": "Feature", "properties": {"Climate_Cl": "H", "votes": 1, "cluster_size": 1, "tie": false, "status": "majority", "member_ids": "446"}, "geometry": {"type": "Point", "coordinates": [-53.398921595418415, -19.0748823831877]}}, {"type": "Feature", "properties": {"Climate_Cl": "H", "votes": 2, "cluster_size": 2, "tie": false, "status": "majority", "member_ids": "481,1683"}, "geometry": {"type": "Point", "coordinates": [-38.55381191606851, -10.237402848364722]}}, {"type": "Feature", "properties": {"Climate_Cl": "D", "votes": 5, "cluster_size": 11, "tie": false, "status": "majority", "member_ids": "499,502,504,506,508,510,512,514,516,518,520"}, "geometry": {"type": "Point", "coordinates": [-18.43226494784428, -20.99829182280101]}}, {"type": "Feature", "properties": {"Climate_Cl": "S", "votes": 1, "cluster_size": 1, "tie": false, "status": "majority", "member_ids": "592"}, "geometry": {"type": "Point", "coordinates": [-17.036539784655112, -13.966286341837833]}}, {"type": "Feature", "properties": {"Climate_Cl": "S", "votes": 4, "cluster_size": 4, "tie": false, "status": "majority", "member_ids": "621,623,1558,1561"}, "geometry": {"type": "Point", "coordinates": [-21.132275176722576, -15.565591890452348]}}, {"type": "Feature", "properties": {"Climate_Cl": "S", "votes": 2, "cluster_size": 2, "tie": false, "status": "majority", "member_ids": "640,645"}, "geometry": {"type": "Point", "coordinates": [-15.996074733436496, -27.27010552984134]}}, {"type": "Feature", "properties": {"Climate_Cl": "D", "votes": 4, "cluster_size": 4, "tie": false, "status": "majority", "member_ids": "697,699,701,704"}, "geometry": {"type": "Point", "coordinates": [-18.34508411952305, -36.45535525142375]}}, {"type": "Feature", "properties": {"Climate_Cl": "S", "votes": 1, "cluster_size": 1, "tie": false, "status": "majority", "member_ids": "722"}, "geometry": {"type": "Point", "coordinates": [-16.74779882935616, -16.28817783146257]}}, {"type": "Feature", "properties": {"Climate_Cl": "S", "votes": 2, "cluster_size": 2, "tie": false, "status": "majority", "member_ids": "735,740"}, "geometry": {"type": "Point", "coordinates": [-15.854180739912062, -30.437669644693855]}}, {"type": "Feature", "properties": {"Climate_Cl": "S", "votes": 2, "cluster_size": 2, "tie": false, "status": "majority", "member_ids": "762,765"}, "geometry": {"type": "Point", "coordinates": [-15.148691156851113, -33.41532195219714]}}, {"type": "Feature", "properties": {"Climate_Cl": "H", "votes": 1, "cluster_size": 1, "tie": false, "status": "majority", "member_ids": "786"}, "geometry": {"type": "Point", "coordinates": [-26.803914255550477, -10.59248152590424]}}, {"type": "Feature", "properties": {"Climate_Cl": "H", "votes": 1, "cluster_size": 1, "tie": false, "status": "majority", "member_ids": "802"}, "geometry": {"type": "Point", "coordinates": [-28.506164491005666, -9.022270652106899]}}, {"type": "Feature", "properties": {"Climate_Cl": "S", "votes": 2, "cluster_size": 3, "tie": false, "status": "majority", "member_ids": "816,821,1565"}, "geometry": {"type": "Point", "coordinates": [-23.71344760706491, -17.593684932519785]}}, {"type": "Feature", "properties": {"Climate_Cl": "S", "votes": 1, "cluster_size": 1, "tie": false, "status": "majority", "member_ids": "834"}, "geometry": {"type": "Point", "coordinates": [-14.599920095119806, -25.887215687275617]}}, {"type": "Feature", "properties": {"Climate_Cl": "S", "votes": 1, "cluster_size": 1, "tie": false, "status": "majority", "member_ids": "850"}, "geometry": {"type": "Point", "coordinates": [-15.413862489714603, -26.118528902910917]}}, {"type": "Feature", "properties": {"Climate_Cl": "D", "votes": 2, "cluster_size": 3, "tie": false, "status": "majority", "member_ids": "863,866,869"}, "geometry": {"type": "Point", "coordinates": [-15.983355768243436, -22.539527259425856]}}, {"type": "Feature", "properties": {"Climate_Cl": "S", "votes": 2, "cluster_size": 2, "tie": false, "status": "majority", "member_ids": "902,907"}, "geometry": {"type": "Point", "coordinates": [-14.822441815127737, -28.89882437928262]}}, {"type": "Feature", "properties": {"Climate_Cl": "H", "votes": 1, "cluster_size": 2, "tie": true, "status": "tie", "member_ids": "922,929"}, "geometry": {"type": "Point", "coordinates": [-28.39489820673412, -15.577326163030541]}}, {"type": "Feature", "properties": {"Climate_Cl": "S", "votes": 1, "cluster_size": 2, "tie": true, "status": "tie", "member_ids": "922,929"}, "geometry": {"type": "Point", "coordinates": [-28.39489820673412, -15.577326163030541]}}, {"type": "Feature", "properties": {"Climate_Cl": "S", "votes": 2, "cluster_size": 2, "tie": false, "status": "majority", "member_ids": "944,949"}, "geometry": {"type": "Point", "coordinates": [-16.921620154139205, -31.47286766644002]}}, {"type": "Feature", "properties": {"Climate_Cl": "H", "votes": 1, "cluster_size": 1, "tie": false, "status": "majority", "member_ids": "988"}, "geometry": {"type": "Point", "coordinates": [-23.22372606470435, -13.590285786456816]}}, {"type": "Feature", "properties": {"Climate_Cl": "D", "votes": 1, "cluster_size": 1, "tie": false, "status": "majority", "member_ids": "1008"}, "geometry": {"type": "Point", "coordinates": [-33.31381611749862, -36.47931690292073]}}, {"type": "Feature", "properties": {"Climate_Cl": "D", "votes": 2, "cluster_size": 2, "tie": false, "status": "majority", "member_ids": "1012,1016"}, "geometry": {"type": "Point", "coordinates": [-32.28040456974384, -37.28787947233007]}}, {"type": "Feature", "properties": {"Climate_Cl": "S", "votes": 1, "cluster_size": 1, "tie": false, "status": "majority", "member_ids": "1133"}, "geometry": {"type": "Point", "coordinates": [-16.988299549914938, -42.48224649082936]}}, {"type": "Feature", "properties": {"Climate_Cl": "S", "votes": 2, "cluster_size": 2, "tie": false, "status": "majority", "member_ids": "1243,1250"}, "geometry": {"type": "Point", "coordinates": [-14.143622135728892, -18.341861806406047]}}, {"type": "Feature", "properties": {"Climate_Cl": "S", "votes": 2, "cluster_size": 3, "tie": false, "status": "majority", "member_ids": "1259,2070,2072"}, "geometry": {"type": "Point", "coordinates": [-13.605140580151284, -16.48176070484351]}}, {"type": "Feature", "properties": {"Climate_Cl": "D", "votes": 11, "cluster_size": 16, "tie": false, "status": "majority", "member_ids": "1384,1385,1386,1387,1388,1389,1390,1391,1392,1393,1394,1478,1480,1481,1482,1483"}, "geometry": {"type": "Point", "coordinates": [-24.363894398206785, -31.596551089136398]}}, {"type": "Feature", "properties": {"Climate_Cl": "S", "votes": 1, "cluster_size": 1, "tie": false, "status": "majority", "member_ids": "1479"}, "geometry": {"type": "Point", "coordinates": [-24.449536784563048, -32.596902220264155]}}, {"type": "Feature", "properties": {"Climate_Cl": "S", "votes": 2, "cluster_size": 2, "tie": false, "status": "majority", "member_ids": "1520,1526"}, "geometry": {"type": "Point", "coordinates": [-22.67896917824671, -39.08689068690948]}}, {"type": "Feature", "properties": {"Climate_Cl": "S", "votes": 1, "cluster_size": 1, "tie": false, "status": "majority", "member_ids": "1529"}, "geometry": {"type": "Point", "coordinates": [-20.41417357022347, -37.97367413298598]}}, {"type": "Feature", "properties": {"Climate_Cl": "S", "votes": 1, "cluster_size": 1, "tie": false, "status": "majority", "member_ids": "1556"}, "geometry": {"type": "Point", "coordinates": [-24.150263902931997, -15.835793862075871]}}, {"type": "Feature", "properties": {"Climate_Cl": "H", "votes": 2, "cluster_size": 2, "tie": false, "status": "majority", "member_ids": "1648,1649"}, "geometry": {"type": "Point", "coordinates": [-44.3671207015421, -17.882807869705186]}}, {"type": "Feature", "properties": {"Climate_Cl": "H", "votes": 1, "cluster_size": 1, "tie": false, "status": "majority", "member_ids": "1650"}, "geometry": {"type": "Point", "coordinates": [-41.23291954669534, -18.096379339527072]}}, {"type": "Feature", "properties": {"Climate_Cl": "H", "votes": 1, "cluster_size": 1, "tie": false, "status": "majority", "member_ids": "1709"}, "geometry": {"type": "Point", "coordinates": [-7.064542284398925, -19.582507760326543]}}, {"type": "Feature", "properties": {"Climate_Cl": "H", "votes": 7, "cluster_size": 8, "tie": false, "status": "majority", "member_ids": "1716,1721,1724,1819,1822,1825,1828,1831"}, "geometry": {"type": "Point", "coordinates": [-6.900378842428506, -18.317133197575576]}}, {"type": "Feature", "properties": {"Climate_Cl": "H", "votes": 1, "cluster_size": 1, "tie": false, "status": "majority", "member_ids": "1856"}, "geometry": {"type": "Point", "coordinates": [5.274476548491966, -17.967480040693413]}}, {"type": "Feature", "properties": {"Climate_Cl": "S", "votes": 2, "cluster_size": 2, "tie": false, "status": "majority", "member_ids": "1916,1917"}, "geometry": {"type": "Point", "coordinates": [-52.98888206736463, -41.26860323385176]}}, {"type": "Feature", "properties": {"Climate_Cl": "H", "votes": 2, "cluster_size": 3, "tie": false, "status": "majority", "member_ids": "1933,1949,1966"}, "geometry": {"type": "Point", "coordinates": [3.2191082218363456, -27.44284485671056]}}, {"type": "Feature", "properties": {"Climate_Cl": "H", "votes": 2, "cluster_size": 2, "tie": false, "status": "majority", "member_ids": "1934,1950"}, "geometry": {"type": "Point", "coordinates": [-0.00538525134692, -26.578046623947685]}}, {"type": "Feature", "properties": {"Climate_Cl": "H", "votes": 2, "cluster_size": 2, "tie": false, "status": "majority", "member_ids": "1935,1951"}, "geometry": {"type": "Point", "coordinates": [1.154247812157783, -30.035585244524313]}}, {"type": "Feature", "properties": {"Climate_Cl": "H", "votes": 1, "cluster_size": 1, "tie": false, "status": "majority", "member_ids": "1952"}, "geometry": {"type": "Point", "coordinates": [2.260553697986174, -30.32309357934914]}}, {"type": "Feature", "properties": {"Climate_Cl": "H", "votes": 1, "cluster_size": 1, "tie": false, "status": "majority", "member_ids": "2010"}, "geometry": {"type": "Point", "coordinates": [-56.440195509865525, -11.681424097481099]}}, {"type": "Feature", "properties": {"Climate_Cl": "H", "votes": 1, "cluster_size": 1, "tie": false, "status": "majority", "member_ids": "2011"}, "geometry": {"type": "Point", "coordinates": [-56.91407643219844, -12.631707189382078]}}, {"type": "Feature", "properties": {"Climate_Cl": "H", "votes": 1, "cluster_size": 1, "tie": false, "status": "majority", "member_ids": "2012"}, "geometry": {"type": "Point", "coordinates": [-57.62834387319754, -14.560050224158081]}}, {"type": "Feature", "properties": {"Climate_Cl": "H", "votes": 2, "cluster_size": 3, "tie": false, "status": "majority", "member_ids": "2018,2024,2025"}, "geometry": {"type": "Point", "coordinates": [-8.31399293696443, -22.227303979466626]}}, {"type": "Feature", "properties": {"Climate_Cl": "S", "votes": 1, "cluster_size": 1, "tie": false, "status": "majority", "member_ids": "2039"}, "geometry": {"type": "Point", "coordinates": [-11.019897188476447, -27.2846102000508]}}, {"type": "Feature", "properties": {"Climate_Cl": "H", "votes": 1, "cluster_size": 1, "tie": false, "status": "majority", "member_ids": "2084"}, "geometry": {"type": "Point", "coordinates": [-19.432846149071693, -13.946681381583655]}}, {"type": "Feature", "properties": {"Climate_Cl": "S", "votes": 2, "cluster_size": 2, "tie": false, "status": "majority", "member_ids": "2209,2211"}, "geometry": {"type": "Point", "coordinates": [-13.405565048742773, 11.347823562432277]}}, {"type": "Feature", "properties": {"Climate_Cl": "D", "votes": 1, "cluster_size": 1, "tie": false, "status": "majority", "member_ids": "2225"}, "geometry": {"type": "Point", "coordinates": [-11.474199773624319, 11.653912450155254]}}, {"type": "Feature", "properties": {"Climate_Cl": "H", "votes": 1, "cluster_size": 2, "tie": true, "status": "tie", "member_ids": "2242,2245"}, "geometry": {"type": "Point", "coordinates": [-12.171027426121087, -38.24495520033713]}}, {"type": "Feature", "properties": {"Climate_Cl": "S", "votes": 1, "cluster_size": 2, "tie": true, "status": "tie", "member_ids": "2242,2245"}, "geometry": {"type": "Point", "coordinates": [-12.171027426121087, -38.24495520033713]}}, {"type": "Feature", "properties": {"Climate_Cl": "S", "votes": 1, "cluster_size": 1, "tie": false, "status": "majority", "member_ids": "2268"}, "geometry": {"type": "Point", "coordinates": [-5.125991627120292, -7.036894816997432]}}, {"type": "Feature", "properties": {"Climate_Cl": "H", "votes": 12, "cluster_size": 12, "tie": false, "status": "majority", "member_ids": "2277,2281,2285,2289,2293,2297,2301,2305,2309,2313,2317,2321"}, "geometry": {"type": "Point", "coordinates": [-2.960383559604295, -14.579995379584789]}}, {"type": "Feature", "properties": {"Climate_Cl": "S", "votes": 1, "cluster_size": 1, "tie": false, "status": "majority", "member_ids": "2328"}, "geometry": {"type": "Point", "coordinates": [-3.32758887743843, -15.455531334696575]}}, {"type": "Feature", "properties": {"Climate_Cl": "S", "votes": 1, "cluster_size": 1, "tie": false, "status": "majority", "member_ids": "2359"}, "geometry": {"type": "Point", "coordinates": [-8.183187847408625, -17.584471720155687]}}, {"type": "Feature", "properties": {"Climate_Cl": "S", "votes": 1, "cluster_size": 1, "tie": false, "status": "majority", "member_ids": "2396"}, "geometry": {"type": "Point", "coordinates": [-58.25537335479734, -18.51569009656141]}}, {"type": "Feature", "properties": {"Climate_Cl": "S", "votes": 1, "cluster_size": 1, "tie": false, "status": "majority", "member_ids": "2405"}, "geometry": {"type": "Point", "coordinates": [-52.52073446034511, -28.22237234343332]}}, {"type": "Feature", "properties": {"Climate_Cl": "S", "votes": 1, "cluster_size": 1, "tie": false, "status": "majority", "member_ids": "2422"}, "geometry": {"type": "Point", "coordinates": [-56.778099378649415, -21.71811678288772]}}, {"type": "Feature", "properties": {"Climate_Cl": "S", "votes": 1, "cluster_size": 1, "tie": false, "status": "majority", "member_ids": "2430"}, "geometry": {"type": "Point", "coordinates": [-57.28205329798041, -22.666813293222773]}}, {"type": "Feature", "properties": {"Climate_Cl": "H", "votes": 3, "cluster_size": 3, "tie": false, "status": "majority", "member_ids": "2452,2466,2472"}, "geometry": {"type": "Point", "coordinates": [-54.75566052298245, -18.927039005981538]}}, {"type": "Feature", "properties": {"Climate_Cl": "S", "votes": 1, "cluster_size": 1, "tie": false, "status": "majority", "member_ids": "2489"}, "geometry": {"type": "Point", "coordinates": [-54.37573502257274, -19.9758613045407]}}, {"type": "Feature", "properties": {"Climate_Cl": "S", "votes": 1, "cluster_size": 1, "tie": false, "status": "majority", "member_ids": "2508"}, "geometry": {"type": "Point", "coordinates": [-8.639741628686512, -29.02208575411995]}}, {"type": "Feature", "properties": {"Climate_Cl": "H", "votes": 2, "cluster_size": 3, "tie": false, "status": "majority", "member_ids": "2520,2588,2618"}, "geometry": {"type": "Point", "coordinates": [-26.826316560472716, 0.5864319536220893]}}, {"type": "Feature", "properties": {"Climate_Cl": "H", "votes": 1, "cluster_size": 2, "tie": true, "status": "tie", "member_ids": "2537,2601"}, "geometry": {"type": "Point", "coordinates": [-29.252938482396168, -1.012375564080676]}}, {"type": "Feature", "properties": {"Climate_Cl": "S", "votes": 1, "cluster_size": 2, "tie": true, "status": "tie", "member_ids": "2537,2601"}, "geometry": {"type": "Point", "coordinates": [-29.252938482396168, -1.012375564080676]}}, {"type": "Feature", "properties": {"Climate_Cl": "H", "votes": 1, "cluster_size": 1, "tie": false, "status": "majority", "member_ids": "2554"}, "geometry": {"type": "Point", "coordinates": [-25.696089304017754, 1.674571185274025]}}, {"type": "Feature", "properties": {"Climate_Cl": "H", "votes": 6, "cluster_size": 7, "tie": false, "status": "majority", "member_ids": "2662,2666,2668,2671,2674,2677,2681"}, "geometry": {"type": "Point", "coordinates": [3.1682466409576335, 6.885863406288715]}}, {"type": "Feature", "properties": {"Climate_Cl": "S", "votes": 1, "cluster_size": 1, "tie": false, "status": "majority", "member_ids": "2755"}, "geometry": {"type": "Point", "coordinates": [2.742206005748782, 8.438719420302013]}}, {"type": "Feature", "properties": {"Climate_Cl": "S", "votes": 1, "cluster_size": 1, "tie": false, "status": "majority", "member_ids": "2983"}, "geometry": {"type": "Point", "coordinates": [-35.01118940849699, -48.4375536848567]}}, {"type": "Feature", "properties": {"Climate_Cl": "S", "votes": 1, "cluster_size": 1, "tie": false, "status": "majority", "member_ids": "2994"}, "geometry": {"type": "Point", "coordinates": [-36.05223074893375, -47.400395168785614]}}, {"type": "Feature", "properties": {"Climate_Cl": "S", "votes": 1, "cluster_size": 1, "tie": false, "status": "majority", "member_ids": "2997"}, "geometry": {"type": "Point", "coordinates": [-36.622016685532635, -47.37918105895451]}}, {"type": "Feature", "properties": {"Climate_Cl": "H", "votes": 1, "cluster_size": 1, "tie": false, "status": "majority", "member_ids": "3000"}, "geometry": {"type": "Point", "coordinates": [-37.2953144937026, -47.35272026371818]}}, {"type": "Feature", "properties": {"Climate_Cl": "H", "votes": 1, "cluster_size": 1, "tie": false, "status": "majority", "member_ids": "3004"}, "geometry": {"type": "Point", "coordinates": [-48.07902549092015, -4.125284168562684]}}, {"type": "Feature", "properties": {"Climate_Cl": "H", "votes": 1, "cluster_size": 1, "tie": false, "status": "majority", "member_ids": "3005"}, "geometry": {"type": "Point", "coordinates": [-48.708664106108856, -4.992345795408034]}}, {"type": "Feature", "properties": {"Climate_Cl": "H", "votes": 1, "cluster_size": 2, "tie": true, "status": "tie", "member_ids": "3038,3046"}, "geometry": {"type": "Point", "coordinates": [-41.70229269394639, -3.312481023128036]}}, {"type": "Feature", "properties": {"Climate_Cl": "S", "votes": 1, "cluster_size": 2, "tie": true, "status": "tie", "member_ids": "3038,3046"}, "geometry": {"type": "Point", "coordinates": [-41.70229269394639, -3.312481023128036]}}, {"type": "Feature", "properties": {"Climate_Cl": "H", "votes": 3, "cluster_size": 3, "tie": false, "status": "majority", "member_ids": "3044,3045,3052"}, "geometry": {"type": "Point", "coordinates": [-41.11910291055277, -3.426562878911657]}}, {"type": "Feature", "properties": {"Climate_Cl": "S", "votes": 1, "cluster_size": 1, "tie": false, "status": "majority", "member_ids": "3076"}, "geometry": {"type": "Point", "coordinates": [-52.31617284808468, -5.293379669107903]}}, {"type": "Feature", "properties": {"Climate_Cl": "H", "votes": 1, "cluster_size": 1, "tie": false, "status": "majority", "member_ids": "3077"}, "geometry": {"type": "Point", "coordinates": [-51.827787021294654, -6.167175578007438]}}, {"type": "Feature", "properties": {"Climate_Cl": "H", "votes": 1, "cluster_size": 2, "tie": true, "status": "tie", "member_ids": "3087,3155"}, "geometry": {"type": "Point", "coordinates": [-51.8697525197245, -3.6894393716422247]}}, {"type": "Feature", "properties": {"Climate_Cl": "S", "votes": 1, "cluster_size": 2, "tie": true, "status": "tie", "member_ids": "3087,3155"}, "geometry": {"type": "Point", "coordinates": [-51.8697525197245, -3.6894393716422247]}}, {"type": "Feature", "properties": {"Climate_Cl": "S", "votes": 1, "cluster_size": 1, "tie": false, "status": "majority", "member_ids": "3163"}, "geometry": {"type": "Point", "coordinates": [-50.7524869510244, -4.850385871756975]}}, {"type": "Feature", "properties": {"Climate_Cl": "H", "votes": 1, "cluster_size": 2, "tie": true, "status": "tie", "member_ids": "3164,3165"}, "geometry": {"type": "Point", "coordinates": [-49.83613659630271, -3.789167440347335]}}, {"type": "Feature", "properties": {"Climate_Cl": "S", "votes": 1, "cluster_size": 2, "tie": true, "status": "tie", "member_ids": "3164,3165"}, "geometry": {"type": "Point", "coordinates": [-49.83613659630271, -3.789167440347335]}}, {"type": "Feature", "properties": {"Climate_Cl": "S", "votes": 1, "cluster_size": 1, "tie": false, "status": "majority", "member_ids": "3170"}, "geometry": {"type": "Point", "coordinates": [-43.400855813948866, -4.929173350664851]}}]}