{"type": "FeatureCollection", "features": [{"type": "Feature", "properties": {"ID": "189", "Country": "Angola", "Basin_Sub_": "Kwanza / onshore", "Group": "N/A", "Formation": "Tuenza", "Member": "Saliferous Tuenza", "Well name/ outcrop": "Cacuaco Oil Field", "Latitude": "-8.806", "Longitude": "13.346", "Dating evidence": "stratigraphic correlation", "REF(Authors, Year)": "Brognon and Verrier, 1966", "Show_on_Ma": "115", "Lithology, structures, paleowind": "Anhydrite, dolomite, and salt", "Paleoenvironment": "Coastal to marine: carbonate-evaporite / paralic to carbonate shelf", "REF (Authors, Year)": "Burwood, 1999; Brownfield and Charpentier, 2006", "Fossil occurrences": "N/A", "REF (Authors, Year)_1": "N/A", "Geochemistry data": "N/A", "REF (Authors, Year)_2": "N/A", "Sediment-based climate inference (hot/cold, humid/semi-arid/desert)": "semi-arid", "Fossil-based climate inference (hot/cold, humid/semi-arid/desert)": "N/A", "Geochemistry-based climate inference  (hot/cold, humid/semi-arid/desert)": "N/A", "Climate assignment leading evidence": "evaporite", "Climate_Cl": "S", "Weight": "3", "PlateID": "701", "Sediment-based climate inference (hot/cold, humid/S/desert)": null, "Fossil-based climate inference (hot/cold, humid/S/desert)": null, "Geochemistry-based climate inference  (hot/cold, humid/S/desert)": null, "PaleozonaCodigo": null, "layer": "115.00Ma_point", "path": "C:/Users/Leonardo Bachi/OneDrive/Desktop/ITT_OCEANEON/20_SETEMBRO_TABELA_FINAL/PONTOS_RETIFICADOS/115.00Ma.geojson", "winner": "D", "cluster_size": 3}, "geometry": {"type": "Point", "coordinates": [-9.242520458434281, -34.4229007768457]}}, {"type": "Feature", "properties": {"ID": "329", "Country": "Argentina", "Basin_Sub_": "Neuquén", "Group": "Bajada del Agrio", "Formation": "Rayoso", "Member": "Quili Malal", "Well name/ outcrop": "Cerro Rayoso region", "Latitude": "-37.87", "Longitude": "-69.905", "Dating evidence": "Palynology", "REF(Authors, Year)": "Vallati, 2001", "Show_on_Ma": "115", "Lithology, structures, paleowind": "Siltstones, sandstones, evaporites (gypsum), halite pseudomorphs", "Paleoenvironment": "Continental: shallow water, periodical sub-aerial exposure; shallow lakes, mudflats", "REF (Authors, Year)": "Leanza, 2003", "Fossil occurrences": "Palynomorphs (Afropollis zonatus association), ostracods, carophytes, foraminifera", "REF (Authors, Year)_1": "Leanza, 2003", "Geochemistry data": null, "REF (Authors, Year)_2": null, "Sediment-based climate inference (hot/cold, humid/semi-arid/desert)": "desert", "Fossil-based climate inference (hot/cold, humid/semi-arid/desert)": "desert", "Geochemistry-based climate inference  (hot/cold, humid/semi-arid/desert)": null, "Climate assignment leading evidence": "evaporitic deposits and Palynomorphs", "Climate_Cl": "D", "Weight": "6", "PlateID": "2901", "Sediment-based climate inference (hot/cold, humid/S/desert)": null, "Fossil-based climate inference (hot/cold, humid/S/desert)": null, "Geochemistry-based climate inference  (hot/cold, humid/S/desert)": null, "PaleozonaCodigo": null, "layer": "115.00Ma_point", "path": "C:/Users/Leonardo Bachi/OneDrive/Desktop/ITT_OCEANEON/20_SETEMBRO_TABELA_FINAL/PONTOS_RETIFICADOS/115.00Ma.geojson", "winner": "S", "cluster_size": 3}, "geometry": {"type": "Point", "coordinates": [-52.387260888786436, -50.85115766872617]}}, {"type": "Feature", "properties": {"ID": "346", "Country": "Argentina", "Basin_Sub_": "Rawson", "Group": " ", "Formation": "SAG(?) Sequence", "Member": null, "Well name/ outcrop": "Ayra x-1 well", "Latitude": "-42.17", "Longitude": "-60.83", "Dating evidence": "Base: Authigenic illite radiometric ages: 109 ?18 Ma; Top: Seismic correlations", "REF(Authors, Year)": "Continanzia et al., 2011", "Show_on_Ma": "115", "Lithology, structures, paleowind": "Reddish to brownish sandstones and mudstones; red beds", "Paleoenvironment": "Arid fluvial; alluvial fans; floodplains", "REF (Authors, Year)": "Continanzia et al., 2011", "Fossil occurrences": null, "REF (Authors, Year)_1": null, "Geochemistry data": null, "REF (Authors, Year)_2": null, "Sediment-based climate inference (hot/cold, humid/semi-arid/desert)": "Arid", "Fossil-based climate inference (hot/cold, humid/semi-arid/desert)": null, "Geochemistry-based climate inference  (hot/cold, humid/semi-arid/desert)": null, "Climate assignment leading evidence": "Arid fluvial deposits", "Climate_Cl": "D", "Weight": "2", "PlateID": "283", "Sediment-based climate inference (hot/cold, humid/S/desert)": null, "Fossil-based climate inference (hot/cold, humid/S/desert)": null, "Geochemistry-based climate inference  (hot/cold, humid/S/desert)": null, "PaleozonaCodigo": null, "layer": "115.00Ma_point", "path": "C:/Users/Leonardo Bachi/OneDrive/Desktop/ITT_OCEANEON/20_SETEMBRO_TABELA_FINAL/PONTOS_RETIFICADOS/115.00Ma.geojson", "winner": "S", "cluster_size": 5}, "geometry": {"type": "Point", "coordinates": [-41.686313549690105, -55.97425280789532]}}, {"type": "Feature", "properties": {"ID": "373", "Country": "Argentina", "Basin_Sub_": "Rawson", "Group": " ", "Formation": "Syn-rift sequence III", "Member": null, "Well name/ outcrop": "Ayra x-1 well", "Latitude": "-42.17", "Longitude": "-60.83", "Dating evidence": "Seismic correlations; Authigenic illite radiometric ages: 109 ?18 Ma", "REF(Authors, Year)": "Continanzia et al., 2011", "Show_on_Ma": "115", "Lithology, structures, paleowind": "Reddish to brownish sandstones and mudstones; red beds", "Paleoenvironment": "Arid fluvial; alluvial fans; floodplains", "REF (Authors, Year)": "Continanzia et al., 2011", "Fossil occurrences": null, "REF (Authors, Year)_1": null, "Geochemistry data": null, "REF (Authors, Year)_2": null, "Sediment-based climate inference (hot/cold, humid/semi-arid/desert)": "Arid", "Fossil-based climate inference (hot/cold, humid/semi-arid/desert)": null, "Geochemistry-based climate inference  (hot/cold, humid/semi-arid/desert)": null, "Climate assignment leading evidence": "Arid fluvial deposits", "Climate_Cl": "D", "Weight": "2", "PlateID": "283", "Sediment-based climate inference (hot/cold, humid/S/desert)": null, "Fossil-based climate inference (hot/cold, humid/S/desert)": null, "Geochemistry-based climate inference  (hot/cold, humid/S/desert)": null, "PaleozonaCodigo": null, "layer": "115.00Ma_point", "path": "C:/Users/Leonardo Bachi/OneDrive/Desktop/ITT_OCEANEON/20_SETEMBRO_TABELA_FINAL/PONTOS_RETIFICADOS/115.00Ma.geojson", "winner": "S", "cluster_size": 5}, "geometry": {"type": "Point", "coordinates": [-41.686313549690105, -55.97425280789532]}}, {"type": "Feature", "properties": {"ID": "650", "Country": "Brazil", "Basin_Sub_": "Camamu/Almada", "Group": "Camamu", "Formation": "Taipus-Mirim", "Member": "Igrapi?a", "Well name/ outcrop": "N/A", "Latitude": "-13.83", "Longitude": "-38.5", "Dating evidence": "Palynology", "REF(Authors, Year)": "Caixeta et al. 2007; Gontijo et al. 2007", "Show_on_Ma": "115", "Lithology, structures, paleowind": "Brown and yellow limestones, dolomites, brown shales and evaporites (anhydrite)", "Paleoenvironment": "Marine (restricted)", "REF (Authors, Year)": "Caixeta et al. 2007; Gontijo et al. 2007", "Fossil occurrences": "N/A", "REF (Authors, Year)_1": "N/A", "Geochemistry data": "N/A", "REF (Authors, Year)_2": "N/A", "Sediment-based climate inference (hot/cold, humid/semi-arid/desert)": "Arid", "Fossil-based climate inference (hot/cold, humid/semi-arid/desert)": "N/A", "Geochemistry-based climate inference  (hot/cold, humid/semi-arid/desert)": "N/A", "Climate assignment leading evidence": "Lithology", "Climate_Cl": "D", "Weight": "3", "PlateID": "201", "Sediment-based climate inference (hot/cold, humid/S/desert)": null, "Fossil-based climate inference (hot/cold, humid/S/desert)": null, "Geochemistry-based climate inference  (hot/cold, humid/S/desert)": null, "PaleozonaCodigo": null, "layer": "115.00Ma_point", "path": "C:/Users/Leonardo Bachi/OneDrive/Desktop/ITT_OCEANEON/20_SETEMBRO_TABELA_FINAL/PONTOS_RETIFICADOS/115.00Ma.geojson", "winner": "H,S", "cluster_size": 8}, "geometry": {"type": "Point", "coordinates": [-14.13545343309246, -27.890743522624668]}}, {"type": "Feature", "properties": {"ID": "651", "Country": "Brazil", "Basin_Sub_": "Camamu/Almada", "Group": "Camamu", "Formation": "Taipus-Mirim", "Member": "Serinha?", "Well name/ outcrop": "N/A", "Latitude": "-13.83", "Longitude": "-38.5", "Dating evidence": "Palynology", "REF(Authors, Year)": "Caixeta et al. 2007; Gontijo et al. 2007", "Show_on_Ma": "115", "Lithology, structures, paleowind": "Light to dark gray sandstone and dark gray, brown and black carbonaceous siltstone shale.", "Paleoenvironment": "Marine (restricted)", "REF (Authors, Year)": "Caixeta et al. 2007; Gontijo et al. 2007", "Fossil occurrences": "N/A", "REF (Authors, Year)_1": "N/A", "Geochemistry data": "N/A", "REF (Authors, Year)_2": "N/A", "Sediment-based climate inference (hot/cold, humid/semi-arid/desert)": "N/A", "Fossil-based climate inference (hot/cold, humid/semi-arid/desert)": "N/A", "Geochemistry-based climate inference  (hot/cold, humid/semi-arid/desert)": "N/A", "Climate assignment leading evidence": "Lithology", "Climate_Cl": "D", "Weight": "1", "PlateID": "201", "Sediment-based climate inference (hot/cold, humid/S/desert)": null, "Fossil-based climate inference (hot/cold, humid/S/desert)": null, "Geochemistry-based climate inference  (hot/cold, humid/S/desert)": null, "PaleozonaCodigo": null, "layer": "115.00Ma_point", "path": "C:/Users/Leonardo Bachi/OneDrive/Desktop/ITT_OCEANEON/20_SETEMBRO_TABELA_FINAL/PONTOS_RETIFICADOS/115.00Ma.geojson", "winner": "H,S", "cluster_size": 8}, "geometry": {"type": "Point", "coordinates": [-14.13545343309246, -27.890743522624668]}}, {"type": "Feature", "properties": {"ID": "1681", "Country": "Brazil", "Basin_Sub_": "Tacutu", "Group": " ", "Formation": "Serra do Tucano", "Member": null, "Well name/ outcrop": null, "Latitude": "3", "Longitude": "-60.141", "Dating evidence": null, "REF(Authors, Year)": null, "Show_on_Ma": "115", "Lithology, structures, paleowind": null, "Paleoenvironment": null, "REF (Authors, Year)": null, "Fossil occurrences": null, "REF (Authors, Year)_1": null, "Geochemistry data": null, "REF (Authors, Year)_2": null, "Sediment-based climate inference (hot/cold, humid/semi-arid/desert)": null, "Fossil-based climate inference (hot/cold, humid/semi-arid/desert)": null, "Geochemistry-based climate inference  (hot/cold, humid/semi-arid/desert)": null, "Climate assignment leading evidence": null, "Climate_Cl": "D", "Weight": "7", "PlateID": "201", "Sediment-based climate inference (hot/cold, humid/S/desert)": null, "Fossil-based climate inference (hot/cold, humid/S/desert)": null, "Geochemistry-based climate inference  (hot/cold, humid/S/desert)": null, "PaleozonaCodigo": null, "layer": "115.00Ma_point", "path": "C:/Users/Leonardo Bachi/OneDrive/Desktop/ITT_OCEANEON/20_SETEMBRO_TABELA_FINAL/PONTOS_RETIFICADOS/115.00Ma.geojson", "winner": "H", "cluster_size": 4}, "geometry": {"type": "Point", "coordinates": [-36.93531814543762, -10.952618853778509]}}, {"type": "Feature", "properties": {"ID": "536", "Country": "Brazil", "Basin_Sub_": "Araripe", "Group": "Santana", "Formation": "Crato", "Member": "N/A", "Well name/ outcrop": "Well 2-AR-SR-1A-CE", "Latitude": "-7.29", "Longitude": "-39.39", "Dating evidence": "Stratigraphic relationships", "REF(Authors, Year)": "Varej? et al., 2021", "Show_on_Ma": "115", "Lithology, structures, paleowind": "Siltstones, evaporite lenses, laminated claystones and sandstones with fluidization, carbonate concretions and plant fragments", "Paleoenvironment": "Estuarine", "REF (Authors, Year)": "Vallejo et al., 2025", "Fossil occurrences": "Sergipea variverrucata, Complicatisaccus cearensis, Equisetosporites maculosus, Gnetaceaepollenites barghoornii, Stellatopollis densiornatus, Regalipollenites amphoriformis, Bennettitaepollenites regaliae, Sergipea\nnaviformis, Penetetrapites mollis, Cicatricosisporites nuni, Cicatricosisporites brevilaesuratus, Matonisporites silvai, and rare occurrence of Retistephanocolpites; foraminiferal test linings, dinoflagellate cysts (e.g., Subtilisphaera sp.), and abundant Araucariacites, Inaperturopollenites, and fern spores (e.g., Cicatricosisporites and Paludites mamelonatus) ", "REF (Authors, Year)_1": "Vallejo et al., 2025", "Geochemistry data": "N/A", "REF (Authors, Year)_2": "N/A", "Sediment-based climate inference (hot/cold, humid/semi-arid/desert)": "Dry, hot", "Fossil-based climate inference (hot/cold, humid/semi-arid/desert)": "Dry, hot", "Geochemistry-based climate inference  (hot/cold, humid/semi-arid/desert)": "N/A", "Climate assignment leading evidence": "Lacustrine environments with evaporites, palynomorphs", "Climate_Cl": "D", "Weight": "6", "PlateID": "201", "Sediment-based climate inference (hot/cold, humid/S/desert)": null, "Fossil-based climate inference (hot/cold, humid/S/desert)": null, "Geochemistry-based climate inference  (hot/cold, humid/S/desert)": null, "PaleozonaCodigo": null, "layer": "115.00Ma_point", "path": "C:/Users/Leonardo Bachi/OneDrive/Desktop/ITT_OCEANEON/20_SETEMBRO_TABELA_FINAL/PONTOS_RETIFICADOS/115.00Ma.geojson", "winner": "S", "cluster_size": 10}, "geometry": {"type": "Point", "coordinates": [-15.405403365307283, -21.394119310265072]}}, {"type": "Feature", "properties": {"ID": "542", "Country": "Brazil", "Basin_Sub_": "Araripe", "Group": "Santana", "Formation": "Crato", "Member": "N/A", "Well name/ outcrop": "General location", "Latitude": "-7.5", "Longitude": "-39.5", "Dating evidence": "Stratigraphic relationships", "REF(Authors, Year)": "Assine et al., 2014; Neumann & Assine, 2015", "Show_on_Ma": "115", "Lithology, structures, paleowind": "Laminated carbonate, calciferous and bituminous shales; halite hoppers", "Paleoenvironment": "Lacustrine", "REF (Authors, Year)": "Assine et al., 2014", "Fossil occurrences": "Conifer fossil wood with no true growth rings", "REF (Authors, Year)_1": "Guerra-Sommer et al., 2021", "Geochemistry data": "N/A", "REF (Authors, Year)_2": "N/A", "Sediment-based climate inference (hot/cold, humid/semi-arid/desert)": "Dry, hot", "Fossil-based climate inference (hot/cold, humid/semi-arid/desert)": "Humid, hot", "Geochemistry-based climate inference  (hot/cold, humid/semi-arid/desert)": "N/A", "Climate assignment leading evidence": "Increasing aridity towards the top (presence of halite pseudomorphs); no true growth rings in the conifer fossil wood indicates tropical climate", "Climate_Cl": "D", "Weight": "4", "PlateID": "201", "Sediment-based climate inference (hot/cold, humid/S/desert)": null, "Fossil-based climate inference (hot/cold, humid/S/desert)": null, "Geochemistry-based climate inference  (hot/cold, humid/S/desert)": null, "PaleozonaCodigo": null, "layer": "115.00Ma_point", "path": "C:/Users/Leonardo Bachi/OneDrive/Desktop/ITT_OCEANEON/20_SETEMBRO_TABELA_FINAL/PONTOS_RETIFICADOS/115.00Ma.geojson", "winner": "S", "cluster_size": 10}, "geometry": {"type": "Point", "coordinates": [-15.513654529763551, -21.608258159911376]}}, {"type": "Feature", "properties": {"ID": "554", "Country": "Brazil", "Basin_Sub_": "Araripe", "Group": "Santana", "Formation": "Ipubi", "Member": "N/A", "Well name/ outcrop": "Well 2-AR-SR-1A-CE", "Latitude": "-7.29", "Longitude": "-39.39", "Dating evidence": "Radiometric age: Re/Os - 123 ?3.5 Ma", "REF(Authors, Year)": "Lucio et al., 2020", "Show_on_Ma": "115", "Lithology, structures, paleowind": "Black bituminous shales, interbedded with cm-thick layers of gypsum, growing more abundant towards the top and culminating in an evaporite deposit at the top. Eventual marly layers and OM-richer intervals", "Paleoenvironment": "Lacustrine, anoxic hypersaline evaporitic", "REF (Authors, Year)": "Vallejo et al., 2025", "Fossil occurrences": "Fish, plant remains, palynomorphs: Classopollis classoides, Afropollis jardinus, Stellatopollis araripensis, Cicatricosisporites avnimelechi, and Eucommiidites spp.", "REF (Authors, Year)_1": "Vallejo et al., 2025", "Geochemistry data": "N/A", "REF (Authors, Year)_2": "N/A", "Sediment-based climate inference (hot/cold, humid/semi-arid/desert)": "Dry, hot", "Fossil-based climate inference (hot/cold, humid/semi-arid/desert)": "Dry, hot", "Geochemistry-based climate inference  (hot/cold, humid/semi-arid/desert)": "N/A", "Climate assignment leading evidence": "Palynomorph assemblage; saline lakes", "Climate_Cl": "D", "Weight": "5", "PlateID": "201", "Sediment-based climate inference (hot/cold, humid/S/desert)": null, "Fossil-based climate inference (hot/cold, humid/S/desert)": null, "Geochemistry-based climate inference  (hot/cold, humid/S/desert)": null, "PaleozonaCodigo": null, "layer": "115.00Ma_point", "path": "C:/Users/Leonardo Bachi/OneDrive/Desktop/ITT_OCEANEON/20_SETEMBRO_TABELA_FINAL/PONTOS_RETIFICADOS/115.00Ma.geojson", "winner": "S", "cluster_size": 10}, "geometry": {"type": "Point", "coordinates": [-15.405403365307283, -21.394119310265072]}}, {"type": "Feature", "properties": {"ID": "582", "Country": "Brazil", "Basin_Sub_": "Araripe", "Group": "Santana", "Formation": "Romualdo", "Member": "N/A", "Well name/ outcrop": "Well 2-AR-SR-1A-CE", "Latitude": "-7.29", "Longitude": "-39.39", "Dating evidence": "Biostratigraphy: planktonic foraminifera - Microhedbergella miniglobularis global zone; Radiometric age: U/Pb - 110.5 ?7.4 Ma; palynomorphs: Sergipea variverrucata Biozone (P-270) (Vallejo et al., 2025)", "REF(Authors, Year)": "Arai & Assine, 2020", "Show_on_Ma": "115", "Lithology, structures, paleowind": "Shales, sandstones, carbonates, concretions and coquina  ", "Paleoenvironment": "Estuarine, tidally-influenced", "REF (Authors, Year)": "Vallejo et al., 2025", "Fossil occurrences": "Low abundance of palynoflora, including Classopollis classoides, Araucariacites australis and Afropollis jardinus; Sergipea variverrucata, Subtilisphaera, foraminiferal test linings. Some fern spores.", "REF (Authors, Year)_1": "Vallejo et al., 2025", "Geochemistry data": "N/A", "REF (Authors, Year)_2": "N/A", "Sediment-based climate inference (hot/cold, humid/semi-arid/desert)": "Hot, dry", "Fossil-based climate inference (hot/cold, humid/semi-arid/desert)": "Hot, dry", "Geochemistry-based climate inference  (hot/cold, humid/semi-arid/desert)": "N/A", "Climate assignment leading evidence": "Palynomorph assemblage", "Climate_Cl": "D", "Weight": "5", "PlateID": "201", "Sediment-based climate inference (hot/cold, humid/S/desert)": null, "Fossil-based climate inference (hot/cold, humid/S/desert)": null, "Geochemistry-based climate inference  (hot/cold, humid/S/desert)": null, "PaleozonaCodigo": null, "layer": "115.00Ma_point", "path": "C:/Users/Leonardo Bachi/OneDrive/Desktop/ITT_OCEANEON/20_SETEMBRO_TABELA_FINAL/PONTOS_RETIFICADOS/115.00Ma.geojson", "winner": "S", "cluster_size": 10}, "geometry": {"type": "Point", "coordinates": [-15.405403365307283, -21.394119310265072]}}, {"type": "Feature", "properties": {"ID": "584", "Country": "Brazil", "Basin_Sub_": "Araripe", "Group": "Santana", "Formation": "Romualdo", "Member": "N/A", "Well name/ outcrop": "General location", "Latitude": "-7.5", "Longitude": "-39.5", "Dating evidence": "Biostratigraphy: planktonic foraminifera - Microhedbergella miniglobularis global zone; Radiometric age: U/Pb - 110.5 ?7.4 Ma", "REF(Authors, Year)": "Arai & Assine, 2020", "Show_on_Ma": "115", "Lithology, structures, paleowind": "Shales, sandstones, carbonates, concretions and coquina  ", "Paleoenvironment": "Coastal (lagoon); tempestites", "REF (Authors, Year)": "Assine et al., 2007; Araripe et al., 2021", "Fossil occurrences": "Palynomorphs - Ephedroid pollen grains (Equisetosporites, Gnetaceaepollenites, Singhia and Steevesipollenites); conifer fossil wood with developed growth rings", "REF (Authors, Year)_1": "Arai and Coelho (2001); Arai and Assine (2020); Guerra-Sommer et al., 2021", "Geochemistry data": "Stable isotopes (carbonates)", "REF (Authors, Year)_2": "N/A", "Sediment-based climate inference (hot/cold, humid/semi-arid/desert)": "Hot - Marine carbonate precipitation (stable isotope data)  ", "Fossil-based climate inference (hot/cold, humid/semi-arid/desert)": "Hot, humid but progressively more arid", "Geochemistry-based climate inference  (hot/cold, humid/semi-arid/desert)": "Hot - Marine carbonate precipitation (stable isotope data)  ", "Climate assignment leading evidence": "Humid (base) to arid (top); conifer growth rings indicate monsoonal climate, with periods of aridity (Guerra-Sommer et al., 2021); tempestites indicate periodic rain", "Climate_Cl": "H", "Weight": "9", "PlateID": "201", "Sediment-based climate inference (hot/cold, humid/S/desert)": null, "Fossil-based climate inference (hot/cold, humid/S/desert)": null, "Geochemistry-based climate inference  (hot/cold, humid/S/desert)": null, "PaleozonaCodigo": null, "layer": "115.00Ma_point", "path": "C:/Users/Leonardo Bachi/OneDrive/Desktop/ITT_OCEANEON/20_SETEMBRO_TABELA_FINAL/PONTOS_RETIFICADOS/115.00Ma.geojson", "winner": "S", "cluster_size": 10}, "geometry": {"type": "Point", "coordinates": [-15.513654529763551, -21.608258159911376]}}, {"type": "Feature", "properties": {"ID": "559", "Country": "Brazil", "Basin_Sub_": "Araripe", "Group": "Santana", "Formation": "Ipubi", "Member": "N/A", "Well name/ outcrop": "Pedra Branca Quarry", "Latitude": "-7.13", "Longitude": "-39.72", "Dating evidence": "Radiometric age: Re/Os - 123 ?3.5 Ma", "REF(Authors, Year)": "Lucio et al., 2020", "Show_on_Ma": "115", "Lithology, structures, paleowind": "Black bituminous shales, interbedded with cm-thick layers of gypsum, growing more abundant towards the top and culminating in an evaporite deposit at the top. Eventual marly layers and OM-richer intervals", "Paleoenvironment": "Lacustrine, anoxic hypersaline evaporitic", "REF (Authors, Year)": "Castro, 2015", "Fossil occurrences": "Fish, plant remains", "REF (Authors, Year)_1": "Castro, 2015", "Geochemistry data": "TOC (18.90%), bituminous, Type I; CG-EM indicates strong terrestrial (angiosperms, conifers) contribution", "REF (Authors, Year)_2": "Castro, 2015", "Sediment-based climate inference (hot/cold, humid/semi-arid/desert)": "Dry, hot", "Fossil-based climate inference (hot/cold, humid/semi-arid/desert)": "N/A", "Geochemistry-based climate inference  (hot/cold, humid/semi-arid/desert)": "Dry, hot", "Climate assignment leading evidence": "Saline lakes, geochemical data", "Climate_Cl": "D", "Weight": "3", "PlateID": "201", "Sediment-based climate inference (hot/cold, humid/S/desert)": null, "Fossil-based climate inference (hot/cold, humid/S/desert)": null, "Geochemistry-based climate inference  (hot/cold, humid/S/desert)": null, "PaleozonaCodigo": null, "layer": "115.00Ma_point", "path": "C:/Users/Leonardo Bachi/OneDrive/Desktop/ITT_OCEANEON/20_SETEMBRO_TABELA_FINAL/PONTOS_RETIFICADOS/115.00Ma.geojson", "winner": "S", "cluster_size": 4}, "geometry": {"type": "Point", "coordinates": [-15.763259913972625, -21.24697195452691]}}, {"type": "Feature", "properties": {"ID": "593", "Country": "Brazil", "Basin_Sub_": "Barreirinhas", "Group": "n/a", "Formation": "CodóN/A", "Member": "N/A", "Well name/ outcrop": null, "Latitude": "-0.5", "Longitude": "-39", "Dating evidence": "Stratigraphic relationships", "REF(Authors, Year)": "Trosdtorf Junior et al., 2007", "Show_on_Ma": "115", "Lithology, structures, paleowind": "Calcilutite and shales", "Paleoenvironment": "Marine (anoxic evaporitic depositional environment)", "REF (Authors, Year)": "Trosdtorf Junior et al., 2007", "Fossil occurrences": "N/A", "REF (Authors, Year)_1": "N/A", "Geochemistry data": "N/A", "REF (Authors, Year)_2": "N/A", "Sediment-based climate inference (hot/cold, humid/semi-arid/desert)": "Hot, dry?", "Fossil-based climate inference (hot/cold, humid/semi-arid/desert)": "N/A", "Geochemistry-based climate inference  (hot/cold, humid/semi-arid/desert)": "N/A", "Climate assignment leading evidence": "Evaporites, carbonates", "Climate_Cl": "D", "Weight": "2", "PlateID": "201", "Sediment-based climate inference (hot/cold, humid/S/desert)": null, "Fossil-based climate inference (hot/cold, humid/S/desert)": null, "Geochemistry-based climate inference  (hot/cold, humid/S/desert)": null, "PaleozonaCodigo": null, "layer": "115.00Ma_point", "path": "C:/Users/Leonardo Bachi/OneDrive/Desktop/ITT_OCEANEON/20_SETEMBRO_TABELA_FINAL/PONTOS_RETIFICADOS/115.00Ma.geojson", "winner": "S", "cluster_size": 6}, "geometry": {"type": "Point", "coordinates": [-15.280360137406491, -14.594031320427325]}}, {"type": "Feature", "properties": {"ID": "611", "Country": "Brazil", "Basin_Sub_": "Barreirinhas", "Group": "n/a", "Formation": "Unnamed", "Member": "N/A", "Well name/ outcrop": "N/A", "Latitude": "-0.5", "Longitude": "-39", "Dating evidence": "Assumed; no actual dating data", "REF(Authors, Year)": "Trosdtorf Junior et al., 2007", "Show_on_Ma": "115", "Lithology, structures, paleowind": "Sandstones and shales", "Paleoenvironment": "Lacustrine, fluvial, alluvial", "REF (Authors, Year)": "Trosdtorf Junior et al., 2007", "Fossil occurrences": "N/A", "REF (Authors, Year)_1": "N/A", "Geochemistry data": "N/A", "REF (Authors, Year)_2": "N/A", "Sediment-based climate inference (hot/cold, humid/semi-arid/desert)": "Humid?", "Fossil-based climate inference (hot/cold, humid/semi-arid/desert)": "N/A", "Geochemistry-based climate inference  (hot/cold, humid/semi-arid/desert)": "N/A", "Climate assignment leading evidence": "Perennial lacustrine deposits", "Climate_Cl": "H", "Weight": "1", "PlateID": "201", "Sediment-based climate inference (hot/cold, humid/S/desert)": null, "Fossil-based climate inference (hot/cold, humid/S/desert)": null, "Geochemistry-based climate inference  (hot/cold, humid/S/desert)": null, "PaleozonaCodigo": null, "layer": "115.00Ma_point", "path": "C:/Users/Leonardo Bachi/OneDrive/Desktop/ITT_OCEANEON/20_SETEMBRO_TABELA_FINAL/PONTOS_RETIFICADOS/115.00Ma.geojson", "winner": "S", "cluster_size": 6}, "geometry": {"type": "Point", "coordinates": [-15.280360137406491, -14.594031320427325]}}, {"type": "Feature", "properties": {"ID": "728", "Country": "Brazil", "Basin_Sub_": "Ceará", "Group": "MundaúN/A", "Formation": "Well 1-CES-8 (Trairi beds)", "Member": null, "Well name/ outcrop": null, "Latitude": "-2.83", "Longitude": "-38.8", "Dating evidence": "P-270    (Sergipea variverrucata-Palynology)", "REF(Authors, Year)": "Hashimoto et al,, 1987", "Show_on_Ma": "115", "Lithology, structures, paleowind": "Carbonates and shales intercalated", "Paleoenvironment": "Sabkha", "REF (Authors, Year)": "Hashimoto et al., 1987", "Fossil occurrences": "N/A", "REF (Authors, Year)_1": "N/A", "Geochemistry data": "Biomarker analysis (steranes and terpanes)", "REF (Authors, Year)_2": "Hashimoto et al., 1987", "Sediment-based climate inference (hot/cold, humid/semi-arid/desert)": "D", "Fossil-based climate inference (hot/cold, humid/semi-arid/desert)": "N/A", "Geochemistry-based climate inference  (hot/cold, humid/semi-arid/desert)": "D", "Climate assignment leading evidence": "Analysis of sedimentological, paleobiological and geochemical data.", "Climate_Cl": "D", "Weight": "3", "PlateID": "201", "Sediment-based climate inference (hot/cold, humid/S/desert)": null, "Fossil-based climate inference (hot/cold, humid/S/desert)": null, "Geochemistry-based climate inference  (hot/cold, humid/S/desert)": null, "PaleozonaCodigo": null, "layer": "115.00Ma_point", "path": "C:/Users/Leonardo Bachi/OneDrive/Desktop/ITT_OCEANEON/20_SETEMBRO_TABELA_FINAL/PONTOS_RETIFICADOS/115.00Ma.geojson", "winner": "S", "cluster_size": 7}, "geometry": {"type": "Point", "coordinates": [-14.97465760987418, -16.914012021600737]}}, {"type": "Feature", "properties": {"ID": "730", "Country": "Brazil", "Basin_Sub_": "Ceará", "Group": "MundaúN/A", "Formation": "Well 1-CES-8 (Trairi beds)", "Member": null, "Well name/ outcrop": null, "Latitude": "-2.83", "Longitude": "-38.8", "Dating evidence": "P-270    (Sergipea variverrucata-Palynology)", "REF(Authors, Year)": "Hashimoto et al,, 1987", "Show_on_Ma": "115", "Lithology, structures, paleowind": "Carbonates and shales intercalated", "Paleoenvironment": "Sabkha", "REF (Authors, Year)": "Hashimoto et al., 1987", "Fossil occurrences": "N/A", "REF (Authors, Year)_1": "N/A", "Geochemistry data": "Biomarker analysis (steranes and terpanes)", "REF (Authors, Year)_2": "Hashimoto et al., 1987", "Sediment-based climate inference (hot/cold, humid/semi-arid/desert)": "H", "Fossil-based climate inference (hot/cold, humid/semi-arid/desert)": "N/A", "Geochemistry-based climate inference  (hot/cold, humid/semi-arid/desert)": "H", "Climate assignment leading evidence": "Analysis of sedimentological, paleobiological and geochemical data.", "Climate_Cl": "H", "Weight": "3", "PlateID": "201", "Sediment-based climate inference (hot/cold, humid/S/desert)": null, "Fossil-based climate inference (hot/cold, humid/S/desert)": null, "Geochemistry-based climate inference  (hot/cold, humid/S/desert)": null, "PaleozonaCodigo": null, "layer": "115.00Ma_point", "path": "C:/Users/Leonardo Bachi/OneDrive/Desktop/ITT_OCEANEON/20_SETEMBRO_TABELA_FINAL/PONTOS_RETIFICADOS/115.00Ma.geojson", "winner": "S", "cluster_size": 7}, "geometry": {"type": "Point", "coordinates": [-14.97465760987418, -16.914012021600737]}}, {"type": "Feature", "properties": {"ID": "731", "Country": "Brazil", "Basin_Sub_": "Ceará", "Group": "Paracuru ", "Formation": "Trairí", "Member": null, "Well name/ outcrop": "Manda?Sub-Basin", "Latitude": "-2.953", "Longitude": "-38.947", "Dating evidence": "N/A", "REF(Authors, Year)": "Cond?et al. 2007", "Show_on_Ma": "115", "Lithology, structures, paleowind": "Carbonates and evaporites ", "Paleoenvironment": "Restricted shallow-marine - coastal sabkha", "REF (Authors, Year)": "Souza et al., 2021", "Fossil occurrences": "N/A", "REF (Authors, Year)_1": "N/A", "Geochemistry data": "N/A", "REF (Authors, Year)_2": "N/A", "Sediment-based climate inference (hot/cold, humid/semi-arid/desert)": "Hot, arid to semi-arid", "Fossil-based climate inference (hot/cold, humid/semi-arid/desert)": "N/A", "Geochemistry-based climate inference  (hot/cold, humid/semi-arid/desert)": "N/A", "Climate assignment leading evidence": "Evaporites", "Climate_Cl": "D", "Weight": "3", "PlateID": "201", "Sediment-based climate inference (hot/cold, humid/S/desert)": null, "Fossil-based climate inference (hot/cold, humid/S/desert)": null, "Geochemistry-based climate inference  (hot/cold, humid/S/desert)": null, "PaleozonaCodigo": null, "layer": "115.00Ma_point", "path": "C:/Users/Leonardo Bachi/OneDrive/Desktop/ITT_OCEANEON/20_SETEMBRO_TABELA_FINAL/PONTOS_RETIFICADOS/115.00Ma.geojson", "winner": "S", "cluster_size": 7}, "geometry": {"type": "Point", "coordinates": [-15.122771530305634, -17.042914843973907]}}, {"type": "Feature", "properties": {"ID": "733", "Country": "Brazil", "Basin_Sub_": "Ceará", "Group": "MundaúN/A", "Formation": "Manda?Sub-Basin", "Member": null, "Well name/ outcrop": null, "Latitude": "-2.953", "Longitude": "-38.947", "Dating evidence": "N/A", "REF(Authors, Year)": "Cond?et al, 2007", "Show_on_Ma": "115", "Lithology, structures, paleowind": "Sandstones and shales ", "Paleoenvironment": "fluvial-deltaic and lacustrine", "REF (Authors, Year)": "Souza et al., 2021", "Fossil occurrences": "N/A", "REF (Authors, Year)_1": "N/A", "Geochemistry data": "High TOC, HI and RHP; Type II?II kerogen", "REF (Authors, Year)_2": "Souza et al., 2021", "Sediment-based climate inference (hot/cold, humid/semi-arid/desert)": "Humid?", "Fossil-based climate inference (hot/cold, humid/semi-arid/desert)": "N/A", "Geochemistry-based climate inference  (hot/cold, humid/semi-arid/desert)": "N/A", "Climate assignment leading evidence": "Siliciclastic sedimentation and absence of carbonate deposits", "Climate_Cl": "H", "Weight": "1", "PlateID": "201", "Sediment-based climate inference (hot/cold, humid/S/desert)": null, "Fossil-based climate inference (hot/cold, humid/S/desert)": null, "Geochemistry-based climate inference  (hot/cold, humid/S/desert)": null, "PaleozonaCodigo": null, "layer": "115.00Ma_point", "path": "C:/Users/Leonardo Bachi/OneDrive/Desktop/ITT_OCEANEON/20_SETEMBRO_TABELA_FINAL/PONTOS_RETIFICADOS/115.00Ma.geojson", "winner": "S", "cluster_size": 7}, "geometry": {"type": "Point", "coordinates": [-15.122771530305634, -17.042914843973907]}}, {"type": "Feature", "properties": {"ID": "744", "Country": "Brazil", "Basin_Sub_": "Cumuruxatiba", "Group": "Nativo", "Formation": "Mariricu", "Member": "Ita?as", "Well name/ outcrop": "N/A", "Latitude": "-17", "Longitude": "-38.5", "Dating evidence": "Stratigraphic relationships", "REF(Authors, Year)": "Rodovalho et al. 2007", "Show_on_Ma": "115", "Lithology, structures, paleowind": "Halite, anhydrite, gypsum", "Paleoenvironment": "Marine (restricted)", "REF (Authors, Year)": "Rodovalho et al. 2007", "Fossil occurrences": "N/A", "REF (Authors, Year)_1": "N/A", "Geochemistry data": "N/A", "REF (Authors, Year)_2": "N/A", "Sediment-based climate inference (hot/cold, humid/semi-arid/desert)": "Hot, dry - arid", "Fossil-based climate inference (hot/cold, humid/semi-arid/desert)": "N/A", "Geochemistry-based climate inference  (hot/cold, humid/semi-arid/desert)": "N/A", "Climate assignment leading evidence": "Evaporites", "Climate_Cl": "D", "Weight": "3", "PlateID": "201", "Sediment-based climate inference (hot/cold, humid/S/desert)": null, "Fossil-based climate inference (hot/cold, humid/S/desert)": null, "Geochemistry-based climate inference  (hot/cold, humid/S/desert)": null, "PaleozonaCodigo": null, "layer": "115.00Ma_point", "path": "C:/Users/Leonardo Bachi/OneDrive/Desktop/ITT_OCEANEON/20_SETEMBRO_TABELA_FINAL/PONTOS_RETIFICADOS/115.00Ma.geojson", "winner": "S", "cluster_size": 4}, "geometry": {"type": "Point", "coordinates": [-13.965092483923339, -31.0572738515059]}}, {"type": "Feature", "properties": {"ID": "769", "Country": "Brazil", "Basin_Sub_": "Espírito Santo", "Group": "Nativo", "Formation": "Mariricu", "Member": "Ita?as", "Well name/ outcrop": "N/A", "Latitude": "-20", "Longitude": "-38", "Dating evidence": "Stratigraphic relationships", "REF(Authors, Year)": "Fran? et al. 2007", "Show_on_Ma": "115", "Lithology, structures, paleowind": "Anhydrite and halite, with 3 silt/clay intercalations", "Paleoenvironment": "Coastal environment, restricted marine", "REF (Authors, Year)": "Fran? et al. 2007", "Fossil occurrences": "Palinoflora represents the final of the Dicheiropollis etruscus/Afropollis Province (Classopolis abundance max 46,74%)", "REF (Authors, Year)_1": "Mitchel et al. 2018", "Geochemistry data": "N/A", "REF (Authors, Year)_2": "N/A", "Sediment-based climate inference (hot/cold, humid/semi-arid/desert)": "Arid/semi-arid", "Fossil-based climate inference (hot/cold, humid/semi-arid/desert)": "Arid/semi-arid", "Geochemistry-based climate inference  (hot/cold, humid/semi-arid/desert)": "N/A", "Climate assignment leading evidence": "Transitional restricted, evaporites, palynomorphs", "Climate_Cl": "D", "Weight": "6", "PlateID": "201", "Sediment-based climate inference (hot/cold, humid/S/desert)": null, "Fossil-based climate inference (hot/cold, humid/S/desert)": null, "Geochemistry-based climate inference  (hot/cold, humid/S/desert)": null, "PaleozonaCodigo": null, "layer": "115.00Ma_point", "path": "C:/Users/Leonardo Bachi/OneDrive/Desktop/ITT_OCEANEON/20_SETEMBRO_TABELA_FINAL/PONTOS_RETIFICADOS/115.00Ma.geojson", "winner": "S", "cluster_size": 3}, "geometry": {"type": "Point", "coordinates": [-13.226795012673636, -34.03008555596428]}}, {"type": "Feature", "properties": {"ID": "788", "Country": "Brazil", "Basin_Sub_": "Foz do Amazonas", "Group": "N/A", "Formation": "CodóRift II", "Member": "N/A", "Well name/ outcrop": null, "Latitude": "3", "Longitude": "-48.5", "Dating evidence": "Seismic interpretation", "REF(Authors, Year)": "Figueiredo et al. 2007", "Show_on_Ma": "115", "Lithology, structures, paleowind": "Shales and calcilutites", "Paleoenvironment": "Marine evaporitic (anoxic)", "REF (Authors, Year)": "Figueiredo et al. 2007", "Fossil occurrences": "N/A", "REF (Authors, Year)_1": "N/A", "Geochemistry data": "N/A", "REF (Authors, Year)_2": "N/A", "Sediment-based climate inference (hot/cold, humid/semi-arid/desert)": "Hot, dry", "Fossil-based climate inference (hot/cold, humid/semi-arid/desert)": "N/A", "Geochemistry-based climate inference  (hot/cold, humid/semi-arid/desert)": "N/A", "Climate assignment leading evidence": "Evaporites", "Climate_Cl": "D", "Weight": "3", "PlateID": "201", "Sediment-based climate inference (hot/cold, humid/S/desert)": null, "Fossil-based climate inference (hot/cold, humid/S/desert)": null, "Geochemistry-based climate inference  (hot/cold, humid/S/desert)": null, "PaleozonaCodigo": null, "layer": "115.00Ma_point", "path": "C:/Users/Leonardo Bachi/OneDrive/Desktop/ITT_OCEANEON/20_SETEMBRO_TABELA_FINAL/PONTOS_RETIFICADOS/115.00Ma.geojson", "winner": "H", "cluster_size": 3}, "geometry": {"type": "Point", "coordinates": [-25.09188791682492, -11.273441037544444]}}, {"type": "Feature", "properties": {"ID": "820", "Country": "Brazil", "Basin_Sub_": "Grajaú", "Group": "Itapecuru", "Formation": "N/A", "Member": "N/A", "Well name/ outcrop": null, "Latitude": "-4", "Longitude": "-45.5", "Dating evidence": "Biostratigraphy: palynomorphs -  Elaterosporites jardinei (P-320) local biozone", "REF(Authors, Year)": "Santos & Carvalho, 2009", "Show_on_Ma": "115", "Lithology, structures, paleowind": "Sandstones with through and planar cross stratification, interbedded siltstones and shales ", "Paleoenvironment": "Lacustrine and transitional coastal", "REF (Authors, Year)": "Santos & Carvalho, 2009", "Fossil occurrences": "Fish, crocodiles, turtles, mollusks, dinosaurs; palynomorphs: Classopollis, Afropollis jardinus, Equisetosporites, Gnetaceapollenites and Steevesipolenites ", "REF (Authors, Year)_1": "Santos & Carvalho, 2009", "Geochemistry data": "N/A", "REF (Authors, Year)_2": "N/A", "Sediment-based climate inference (hot/cold, humid/semi-arid/desert)": "N/A", "Fossil-based climate inference (hot/cold, humid/semi-arid/desert)": "Hot, humid", "Geochemistry-based climate inference  (hot/cold, humid/semi-arid/desert)": "N/A", "Climate assignment leading evidence": "Marine invertebrates", "Climate_Cl": "H", "Weight": "5", "PlateID": "201", "Sediment-based climate inference (hot/cold, humid/S/desert)": null, "Fossil-based climate inference (hot/cold, humid/S/desert)": null, "Geochemistry-based climate inference  (hot/cold, humid/S/desert)": null, "PaleozonaCodigo": null, "layer": "115.00Ma_point", "path": "C:/Users/Leonardo Bachi/OneDrive/Desktop/ITT_OCEANEON/20_SETEMBRO_TABELA_FINAL/PONTOS_RETIFICADOS/115.00Ma.geojson", "winner": "S", "cluster_size": 10}, "geometry": {"type": "Point", "coordinates": [-21.956385775328716, -18.259810412861455]}}, {"type": "Feature", "properties": {"ID": "824", "Country": "Brazil", "Basin_Sub_": "Grajaú", "Group": "Grajaú", "Formation": "N/A", "Member": null, "Well name/ outcrop": null, "Latitude": "-4", "Longitude": "-45.5", "Dating evidence": "Stratigraphic relationships", "REF(Authors, Year)": "Santos & Carvalho, 2009", "Show_on_Ma": "115", "Lithology, structures, paleowind": "Sandstones with through cross stratification", "Paleoenvironment": "Eolian dune field", "REF (Authors, Year)": "Santos & Carvalho, 2009", "Fossil occurrences": "N/A", "REF (Authors, Year)_1": "N/A", "Geochemistry data": "N/A", "REF (Authors, Year)_2": "N/A", "Sediment-based climate inference (hot/cold, humid/semi-arid/desert)": "Dry, hot", "Fossil-based climate inference (hot/cold, humid/semi-arid/desert)": "N/A", "Geochemistry-based climate inference  (hot/cold, humid/semi-arid/desert)": "N/A", "Climate assignment leading evidence": "Eolian", "Climate_Cl": "D", "Weight": "3", "PlateID": "201", "Sediment-based climate inference (hot/cold, humid/S/desert)": null, "Fossil-based climate inference (hot/cold, humid/S/desert)": null, "Geochemistry-based climate inference  (hot/cold, humid/S/desert)": null, "PaleozonaCodigo": null, "layer": "115.00Ma_point", "path": "C:/Users/Leonardo Bachi/OneDrive/Desktop/ITT_OCEANEON/20_SETEMBRO_TABELA_FINAL/PONTOS_RETIFICADOS/115.00Ma.geojson", "winner": "S", "cluster_size": 10}, "geometry": {"type": "Point", "coordinates": [-21.956385775328716, -18.259810412861455]}}, {"type": "Feature", "properties": {"ID": "868", "Country": "Brazil", "Basin_Sub_": "Jatobá/Santana", "Group": "Crato", "Formation": "N/A", "Member": "2-JSN-01-PE", "Well name/ outcrop": null, "Latitude": "-9.11", "Longitude": "-38.31", "Dating evidence": "Biostratigraphy: Inaperturopollenites turbatus, Sergipea variverrucata, Exesipollenites tumulus", "REF(Authors, Year)": "Nascimento 2013", "Show_on_Ma": "115", "Lithology, structures, paleowind": "facies association, very fine sandstones/claystones with laminated limestones", "Paleoenvironment": "Continental (alluvial fans)", "REF (Authors, Year)": "Rocha, 2011", "Fossil occurrences": "Cyathidites, Deltoidospora, Cicatricosisporites, Crybelosporites pannuceus, Callialasporites, Callialasporites turbatus, Inaperturopollenites turbatus, Classopollis", "REF (Authors, Year)_1": "Nascimento 2013", "Geochemistry data": "N/A", "REF (Authors, Year)_2": "N/A", "Sediment-based climate inference (hot/cold, humid/semi-arid/desert)": "N/A", "Fossil-based climate inference (hot/cold, humid/semi-arid/desert)": "Hot, Semi-Arid", "Geochemistry-based climate inference  (hot/cold, humid/semi-arid/desert)": "N/A", "Climate assignment leading evidence": "Alluvial fans", "Climate_Cl": "S", "Weight": "5", "PlateID": "201", "Sediment-based climate inference (hot/cold, humid/S/desert)": null, "Fossil-based climate inference (hot/cold, humid/S/desert)": null, "Geochemistry-based climate inference  (hot/cold, humid/S/desert)": null, "PaleozonaCodigo": null, "layer": "115.00Ma_point", "path": "C:/Users/Leonardo Bachi/OneDrive/Desktop/ITT_OCEANEON/20_SETEMBRO_TABELA_FINAL/PONTOS_RETIFICADOS/115.00Ma.geojson", "winner": "D", "cluster_size": 3}, "geometry": {"type": "Point", "coordinates": [-14.167819586816428, -23.167164554557782]}}, {"type": "Feature", "properties": {"ID": "871", "Country": "Brazil", "Basin_Sub_": "Jatobá", "Group": "Marizal", "Formation": "N/A", "Member": null, "Well name/ outcrop": "2-JB-SN- 2A-PE", "Latitude": "-8.658", "Longitude": "-38.018", "Dating evidence": "Biostratigraphy: Classopollis classoides, Araucariacites australis, Bennettitaepollenites regaliae, Gnetaceaepollenites jansonii, Stellatopollis densiornatus, Equisetosporites maculosus, Gnetaceaepollenites retangularis, Sergipea tenuiverrucata, Trisectoris reticulatus, Callialasporites dampieri, Deltoidospora australis, Crybelosporites pannuceus, Cicatricosisporites avnimelechi, Cicatricosisporites brevilaesuratus, Cicatricosisporites micro- striatus, Matonisporites silvai and Ischyosporites foveolatus,", "REF(Authors, Year)": "Vallejo et al., 2025", "Show_on_Ma": "115", "Lithology, structures, paleowind": "Claystone, low angle planar cross lamination. Intercalations of very fine-grained sandstone, eventually with flame struture, sandstone lenses and climbing rippes cross-laminations.", "Paleoenvironment": "Fluvial- deltaic system", "REF (Authors, Year)": "Vallejo et al., 2025", "Fossil occurrences": "\nDicheiropollis etruscus/Afropollis Province. Prevalence of gymnospermous pollen, including taxa such as Class-opollis, Equisetosporites, Araucariacites, Inaperturopollenites, Gnetaceae-pollenites, Steevesipollenites, and Uesuguipollenites.", "REF (Authors, Year)_1": "Vallejo et al., 2025", "Geochemistry data": "N/A", "REF (Authors, Year)_2": "N/A", "Sediment-based climate inference (hot/cold, humid/semi-arid/desert)": "Arid, semi-arid", "Fossil-based climate inference (hot/cold, humid/semi-arid/desert)": "Hot, humid", "Geochemistry-based climate inference  (hot/cold, humid/semi-arid/desert)": "N/A", "Climate assignment leading evidence": "Fluvial-deltaic ", "Climate_Cl": "D", "Weight": "5", "PlateID": "201", "Sediment-based climate inference (hot/cold, humid/S/desert)": null, "Fossil-based climate inference (hot/cold, humid/S/desert)": null, "Geochemistry-based climate inference  (hot/cold, humid/S/desert)": null, "PaleozonaCodigo": null, "layer": "115.00Ma_point", "path": "C:/Users/Leonardo Bachi/OneDrive/Desktop/ITT_OCEANEON/20_SETEMBRO_TABELA_FINAL/PONTOS_RETIFICADOS/115.00Ma.geojson", "winner": "S", "cluster_size": 5}, "geometry": {"type": "Point", "coordinates": [-13.877342174841145, -22.702438379669896]}}, {"type": "Feature", "properties": {"ID": "875", "Country": "Brazil", "Basin_Sub_": "Jatobá", "Group": "Marizal", "Formation": "N/A", "Member": null, "Well name/ outcrop": "2-JB-SN- 2A-PE", "Latitude": "-8.658", "Longitude": "-38.018", "Dating evidence": "Biostratigraphy: Classopollis classoides, Araucariacites australis, Bennettitaepollenites regaliae, Gnetaceaepollenites jansonii, Stellatopollis densiornatus, Equisetosporites maculosus, Gnetaceaepollenites retangularis, Sergipea tenuiverrucata, Trisectoris reticulatus, Callialasporites dampieri, Deltoidospora australis, Crybelosporites pannuceus, Cicatricosisporites avnimelechi, Cicatricosisporites brevilaesuratus, Cicatricosisporites micro- striatus, Matonisporites silvai and Ischyosporites foveolatus,", "REF(Authors, Year)": "Vallejo et al., 2025", "Show_on_Ma": "115", "Lithology, structures, paleowind": "Claystone, low angle planar cross lamination. Intercalations of very fine-grained sandstone, eventually with flame struture, sandstone lenses and climbing rippes cross-laminations.", "Paleoenvironment": "Fluvial- deltaic system", "REF (Authors, Year)": "Vallejo et al., 2025", "Fossil occurrences": "\nDicheiropollis etruscus/Afropollis Province. Prevalence of gymnospermous pollen, including taxa such as Class-opollis, Equisetosporites, Araucariacites, Inaperturopollenites, Gnetaceae-pollenites, Steevesipollenites, and Uesuguipollenites.", "REF (Authors, Year)_1": "Vallejo et al., 2025", "Geochemistry data": "N/A", "REF (Authors, Year)_2": "N/A", "Sediment-based climate inference (hot/cold, humid/semi-arid/desert)": "Arid, semi-arid", "Fossil-based climate inference (hot/cold, humid/semi-arid/desert)": "Hot, humid", "Geochemistry-based climate inference  (hot/cold, humid/semi-arid/desert)": "N/A", "Climate assignment leading evidence": "Fluvial-deltaic ", "Climate_Cl": "D", "Weight": "5", "PlateID": "201", "Sediment-based climate inference (hot/cold, humid/S/desert)": null, "Fossil-based climate inference (hot/cold, humid/S/desert)": null, "Geochemistry-based climate inference  (hot/cold, humid/S/desert)": null, "PaleozonaCodigo": null, "layer": "115.00Ma_point", "path": "C:/Users/Leonardo Bachi/OneDrive/Desktop/ITT_OCEANEON/20_SETEMBRO_TABELA_FINAL/PONTOS_RETIFICADOS/115.00Ma.geojson", "winner": "S", "cluster_size": 5}, "geometry": {"type": "Point", "coordinates": [-13.877342174841145, -22.702438379669896]}}, {"type": "Feature", "properties": {"ID": "912", "Country": "Brazil", "Basin_Sub_": "Jequitinhonha", "Group": "Nativo", "Formation": "Mariricu", "Member": "Itai?as", "Well name/ outcrop": "General location", "Latitude": "-15.5", "Longitude": "-37.5", "Dating evidence": "Stratigraphic relationships", "REF(Authors, Year)": "Rangel et al., 2007", "Show_on_Ma": "115", "Lithology, structures, paleowind": "Evaporites (halite, anhydrite, gypsum)", "Paleoenvironment": "Restricted marine", "REF (Authors, Year)": "Rangel et al., 2007", "Fossil occurrences": "N/A", "REF (Authors, Year)_1": "N/A", "Geochemistry data": "N/A", "REF (Authors, Year)_2": "N/A", "Sediment-based climate inference (hot/cold, humid/semi-arid/desert)": "Hot, dry", "Fossil-based climate inference (hot/cold, humid/semi-arid/desert)": "N/A", "Geochemistry-based climate inference  (hot/cold, humid/semi-arid/desert)": "N/A", "Climate assignment leading evidence": "Evaporites", "Climate_Cl": "D", "Weight": "3", "PlateID": "201", "Sediment-based climate inference (hot/cold, humid/S/desert)": null, "Fossil-based climate inference (hot/cold, humid/S/desert)": null, "Geochemistry-based climate inference  (hot/cold, humid/S/desert)": null, "PaleozonaCodigo": null, "layer": "115.00Ma_point", "path": "C:/Users/Leonardo Bachi/OneDrive/Desktop/ITT_OCEANEON/20_SETEMBRO_TABELA_FINAL/PONTOS_RETIFICADOS/115.00Ma.geojson", "winner": "S", "cluster_size": 4}, "geometry": {"type": "Point", "coordinates": [-12.94081962266881, -29.51150525122546]}}, {"type": "Feature", "properties": {"ID": "914", "Country": "Brazil", "Basin_Sub_": "Jequitinhonha", "Group": "Nativo", "Formation": "Mariricu", "Member": "Mucuri", "Well name/ outcrop": "General location", "Latitude": "-15.5", "Longitude": "-37.5", "Dating evidence": "Stratigraphic relationships", "REF(Authors, Year)": "Rangel et al., 2007", "Show_on_Ma": "115", "Lithology, structures, paleowind": "Shales, with conglomerates and sandstones", "Paleoenvironment": "Lagoon", "REF (Authors, Year)": "Rangel et al., 2007", "Fossil occurrences": "N/A", "REF (Authors, Year)_1": "N/A", "Geochemistry data": "N/A", "REF (Authors, Year)_2": "N/A", "Sediment-based climate inference (hot/cold, humid/semi-arid/desert)": "Humid?", "Fossil-based climate inference (hot/cold, humid/semi-arid/desert)": "N/A", "Geochemistry-based climate inference  (hot/cold, humid/semi-arid/desert)": "N/A", "Climate assignment leading evidence": "Thick siliciclastic sedimentation", "Climate_Cl": "H", "Weight": "1", "PlateID": "201", "Sediment-based climate inference (hot/cold, humid/S/desert)": null, "Fossil-based climate inference (hot/cold, humid/S/desert)": null, "Geochemistry-based climate inference  (hot/cold, humid/S/desert)": null, "PaleozonaCodigo": null, "layer": "115.00Ma_point", "path": "C:/Users/Leonardo Bachi/OneDrive/Desktop/ITT_OCEANEON/20_SETEMBRO_TABELA_FINAL/PONTOS_RETIFICADOS/115.00Ma.geojson", "winner": "S", "cluster_size": 4}, "geometry": {"type": "Point", "coordinates": [-12.94081962266881, -29.51150525122546]}}, {"type": "Feature", "properties": {"ID": "942", "Country": "Brazil", "Basin_Sub_": "Mucuri", "Group": "Barra Nova", "Formation": "S? Mateus", "Member": "N/A", "Well name/ outcrop": "N/A", "Latitude": "-18", "Longitude": "-39.5", "Dating evidence": "Biostratigraphy: palynomorphs - P-280b local zone", "REF(Authors, Year)": "Fran? et al. 2007", "Show_on_Ma": "115", "Lithology, structures, paleowind": "Sandstones", "Paleoenvironment": "Shallow marine", "REF (Authors, Year)": "Fran? et al. 2007", "Fossil occurrences": "N/A", "REF (Authors, Year)_1": "N/A", "Geochemistry data": "N/A", "REF (Authors, Year)_2": "N/A", "Sediment-based climate inference (hot/cold, humid/semi-arid/desert)": "Semi-arid?", "Fossil-based climate inference (hot/cold, humid/semi-arid/desert)": "N/A", "Geochemistry-based climate inference  (hot/cold, humid/semi-arid/desert)": "N/A", "Climate assignment leading evidence": "N/A", "Climate_Cl": "S", "Weight": "1", "PlateID": "201", "Sediment-based climate inference (hot/cold, humid/S/desert)": null, "Fossil-based climate inference (hot/cold, humid/S/desert)": null, "Geochemistry-based climate inference  (hot/cold, humid/S/desert)": null, "PaleozonaCodigo": null, "layer": "115.00Ma_point", "path": "C:/Users/Leonardo Bachi/OneDrive/Desktop/ITT_OCEANEON/20_SETEMBRO_TABELA_FINAL/PONTOS_RETIFICADOS/115.00Ma.geojson", "winner": "D", "cluster_size": 5}, "geometry": {"type": "Point", "coordinates": [-15.030280422075748, -32.09944237123248]}}, {"type": "Feature", "properties": {"ID": "947", "Country": "Brazil", "Basin_Sub_": "Mucuri", "Group": "Barra Nova", "Formation": "Regencia", "Member": "N/A", "Well name/ outcrop": "N/A", "Latitude": "-18", "Longitude": "-39.5", "Dating evidence": "Biostratigraphy: palynomorphs - P-280b local zone", "REF(Authors, Year)": "Fran? et al. 2007", "Show_on_Ma": "115", "Lithology, structures, paleowind": "Calcarenites and calcilutites", "Paleoenvironment": "Shallow to deep marine", "REF (Authors, Year)": "Fran? et al. 2007", "Fossil occurrences": "N/A", "REF (Authors, Year)_1": "N/A", "Geochemistry data": "N/A", "REF (Authors, Year)_2": "N/A", "Sediment-based climate inference (hot/cold, humid/semi-arid/desert)": "Semi-arid?", "Fossil-based climate inference (hot/cold, humid/semi-arid/desert)": "N/A", "Geochemistry-based climate inference  (hot/cold, humid/semi-arid/desert)": "N/A", "Climate assignment leading evidence": "Carbonates", "Climate_Cl": "S", "Weight": "2", "PlateID": "201", "Sediment-based climate inference (hot/cold, humid/S/desert)": null, "Fossil-based climate inference (hot/cold, humid/S/desert)": null, "Geochemistry-based climate inference  (hot/cold, humid/S/desert)": null, "PaleozonaCodigo": null, "layer": "115.00Ma_point", "path": "C:/Users/Leonardo Bachi/OneDrive/Desktop/ITT_OCEANEON/20_SETEMBRO_TABELA_FINAL/PONTOS_RETIFICADOS/115.00Ma.geojson", "winner": "D", "cluster_size": 5}, "geometry": {"type": "Point", "coordinates": [-15.030280422075748, -32.09944237123248]}}, {"type": "Feature", "properties": {"ID": "1076", "Country": "Brazil", "Basin_Sub_": "Parnaíba", "Group": " ", "Formation": "Corda", "Member": null, "Well name/ outcrop": null, "Latitude": "-6", "Longitude": "-44", "Dating evidence": null, "REF(Authors, Year)": null, "Show_on_Ma": "115", "Lithology, structures, paleowind": null, "Paleoenvironment": null, "REF (Authors, Year)": null, "Fossil occurrences": null, "REF (Authors, Year)_1": null, "Geochemistry data": null, "REF (Authors, Year)_2": null, "Sediment-based climate inference (hot/cold, humid/semi-arid/desert)": null, "Fossil-based climate inference (hot/cold, humid/semi-arid/desert)": null, "Geochemistry-based climate inference  (hot/cold, humid/semi-arid/desert)": null, "Climate assignment leading evidence": null, "Climate_Cl": "D", "Weight": "1", "PlateID": "201", "Sediment-based climate inference (hot/cold, humid/S/desert)": null, "Fossil-based climate inference (hot/cold, humid/S/desert)": null, "Geochemistry-based climate inference  (hot/cold, humid/S/desert)": null, "PaleozonaCodigo": null, "layer": "115.00Ma_point", "path": "C:/Users/Leonardo Bachi/OneDrive/Desktop/ITT_OCEANEON/20_SETEMBRO_TABELA_FINAL/PONTOS_RETIFICADOS/115.00Ma.geojson", "winner": "S", "cluster_size": 7}, "geometry": {"type": "Point", "coordinates": [-20.342332091154816, -20.237427735139537]}}, {"type": "Feature", "properties": {"ID": "1082", "Country": "Brazil", "Basin_Sub_": "Parnaíba", "Group": " ", "Formation": "Codó", "Member": null, "Well name/ outcrop": null, "Latitude": "-6", "Longitude": "-44", "Dating evidence": null, "REF(Authors, Year)": null, "Show_on_Ma": "115", "Lithology, structures, paleowind": null, "Paleoenvironment": null, "REF (Authors, Year)": null, "Fossil occurrences": null, "REF (Authors, Year)_1": null, "Geochemistry data": null, "REF (Authors, Year)_2": null, "Sediment-based climate inference (hot/cold, humid/semi-arid/desert)": null, "Fossil-based climate inference (hot/cold, humid/semi-arid/desert)": null, "Geochemistry-based climate inference  (hot/cold, humid/semi-arid/desert)": null, "Climate assignment leading evidence": null, "Climate_Cl": "D", "Weight": "1", "PlateID": "201", "Sediment-based climate inference (hot/cold, humid/S/desert)": null, "Fossil-based climate inference (hot/cold, humid/S/desert)": null, "Geochemistry-based climate inference  (hot/cold, humid/S/desert)": null, "PaleozonaCodigo": null, "layer": "115.00Ma_point", "path": "C:/Users/Leonardo Bachi/OneDrive/Desktop/ITT_OCEANEON/20_SETEMBRO_TABELA_FINAL/PONTOS_RETIFICADOS/115.00Ma.geojson", "winner": "S", "cluster_size": 7}, "geometry": {"type": "Point", "coordinates": [-20.342332091154816, -20.237427735139537]}}, {"type": "Feature", "properties": {"ID": "1134", "Country": "Brazil", "Basin_Sub_": "Pelotas", "Group": "N/A", "Formation": "Ariri", "Member": "N/A", "Well name/ outcrop": "N/A", "Latitude": "-29", "Longitude": "-40", "Dating evidence": "Biostratigraphy: marine microfossils", "REF(Authors, Year)": "Bueno et al., 2007", "Show_on_Ma": "115", "Lithology, structures, paleowind": "Anidrite, carbonates", "Paleoenvironment": "Marine: mixed shelf", "REF (Authors, Year)": "Bueno et al., 2007", "Fossil occurrences": "N/A", "REF (Authors, Year)_1": "N/A", "Geochemistry data": "N/A", "REF (Authors, Year)_2": "N/A", "Sediment-based climate inference (hot/cold, humid/semi-arid/desert)": "Dry, hot", "Fossil-based climate inference (hot/cold, humid/semi-arid/desert)": "N/A", "Geochemistry-based climate inference  (hot/cold, humid/semi-arid/desert)": "N/A", "Climate assignment leading evidence": "Evaporite deposits ", "Climate_Cl": "D", "Weight": "3", "PlateID": "201", "Sediment-based climate inference (hot/cold, humid/S/desert)": null, "Fossil-based climate inference (hot/cold, humid/S/desert)": null, "Geochemistry-based climate inference  (hot/cold, humid/S/desert)": null, "PaleozonaCodigo": null, "layer": "115.00Ma_point", "path": "C:/Users/Leonardo Bachi/OneDrive/Desktop/ITT_OCEANEON/20_SETEMBRO_TABELA_FINAL/PONTOS_RETIFICADOS/115.00Ma.geojson", "winner": "S", "cluster_size": 4}, "geometry": {"type": "Point", "coordinates": [-14.984163874771696, -43.10888888617745]}}, {"type": "Feature", "properties": {"ID": "1301", "Country": "Brazil", "Basin_Sub_": "Recôncavo", "Group": "N/A", "Formation": "Marizal", "Member": "N/A", "Well name/ outcrop": "N/A", "Latitude": "-12.5", "Longitude": "-38.5", "Dating evidence": "Biostratigraphy:  Cicatricosisporites hallei, Matonisporites dorogensis", "REF(Authors, Year)": "Viana, 1971", "Show_on_Ma": "115", "Lithology, structures, paleowind": "Conglomerates, sandstones, shales, limestones", "Paleoenvironment": "Continental: alluvial fans, fluvial", "REF (Authors, Year)": "Viana, 1971", "Fossil occurrences": "Leptolepidites verrucatus; Matonisporites silvai, Callialasporites dampieri, Gnetaceaepollenites jansonii, Exesipollenites tumulus", "REF (Authors, Year)_1": "Reis et al. 2007", "Geochemistry data": "N/A", "REF (Authors, Year)_2": "N/A", "Sediment-based climate inference (hot/cold, humid/semi-arid/desert)": "N/A", "Fossil-based climate inference (hot/cold, humid/semi-arid/desert)": "Hot, Semi-Arid", "Geochemistry-based climate inference  (hot/cold, humid/semi-arid/desert)": "N/A", "Climate assignment leading evidence": "Alluvial fans deposits", "Climate_Cl": "D", "Weight": "5", "PlateID": "201", "Sediment-based climate inference (hot/cold, humid/S/desert)": null, "Fossil-based climate inference (hot/cold, humid/S/desert)": null, "Geochemistry-based climate inference  (hot/cold, humid/S/desert)": null, "PaleozonaCodigo": null, "layer": "115.00Ma_point", "path": "C:/Users/Leonardo Bachi/OneDrive/Desktop/ITT_OCEANEON/20_SETEMBRO_TABELA_FINAL/PONTOS_RETIFICADOS/115.00Ma.geojson", "winner": "S", "cluster_size": 3}, "geometry": {"type": "Point", "coordinates": [-14.20393802894448, -26.56213828791654]}}, {"type": "Feature", "properties": {"ID": "1610", "Country": "Brazil", "Basin_Sub_": "Sergipe-Alagoas", "Group": "Coruripe", "Formation": "Maceió", "Member": null, "Well name/ outcrop": null, "Latitude": "-11", "Longitude": "-35.5", "Dating evidence": "Biostratigraphy: Palynomorphs (P-230 and P-260) local biozones; Non-marine ostracods local zones 010/011", "REF(Authors, Year)": "Schaller, 1970; Uesugui, 1987; Souza-Lima, 2008", "Show_on_Ma": "115", "Lithology, structures, paleowind": "Shales, mudstones, packstones/grainstones, algalic calcilutite, and evaporites (Paripuera)", "Paleoenvironment": "Continental to transitional: sabhka", "REF (Authors, Year)": "Campos Neto et al., 2007", "Fossil occurrences": "Palynomorphs and non-marine ostracods", "REF (Authors, Year)_1": "Luft-Souza et al., 2022", "Geochemistry data": null, "REF (Authors, Year)_2": null, "Sediment-based climate inference (hot/cold, humid/semi-arid/desert)": "Semi-arid", "Fossil-based climate inference (hot/cold, humid/semi-arid/desert)": null, "Geochemistry-based climate inference  (hot/cold, humid/semi-arid/desert)": null, "Climate assignment leading evidence": "Evaporites", "Climate_Cl": "D", "Weight": "4", "PlateID": "201", "Sediment-based climate inference (hot/cold, humid/S/desert)": null, "Fossil-based climate inference (hot/cold, humid/S/desert)": null, "Geochemistry-based climate inference  (hot/cold, humid/S/desert)": null, "PaleozonaCodigo": null, "layer": "115.00Ma_point", "path": "C:/Users/Leonardo Bachi/OneDrive/Desktop/ITT_OCEANEON/20_SETEMBRO_TABELA_FINAL/PONTOS_RETIFICADOS/115.00Ma.geojson", "winner": "S", "cluster_size": 9}, "geometry": {"type": "Point", "coordinates": [-11.034635243503411, -24.910785405204003]}}, {"type": "Feature", "properties": {"ID": "1627", "Country": "Brazil", "Basin_Sub_": "Sergipe-Alagoas", "Group": "Coruripe", "Formation": "Muribeca", "Member": "Ibura", "Well name/ outcrop": null, "Latitude": "-11", "Longitude": "-35.5", "Dating evidence": "Biostratigraphy: Palynomorphs (P-270) local biozone", "REF(Authors, Year)": "Uesugui, 1987; Souza-Lima, 2008; Carvalho et al., 2017, 2019", "Show_on_Ma": "115", "Lithology, structures, paleowind": "Evaporites, mudstones, marlstones, bituminous shales, microbial carbonates, evaporites, sandstones, and conglomerates", "Paleoenvironment": "Continental to transitional: sabkha", "REF (Authors, Year)": "Campos Neto et al., 2007; Luft-Souza et al., 2022", "Fossil occurrences": "Non-marine ostracods, palynomorphs, microbial mats, and stromatolites", "REF (Authors, Year)_1": "Luft-Souza et al., 2022", "Geochemistry data": null, "REF (Authors, Year)_2": null, "Sediment-based climate inference (hot/cold, humid/semi-arid/desert)": "Semi-arid", "Fossil-based climate inference (hot/cold, humid/semi-arid/desert)": null, "Geochemistry-based climate inference  (hot/cold, humid/semi-arid/desert)": null, "Climate assignment leading evidence": "Evaporites deposits, sabkha, microbial mats, stromatolites", "Climate_Cl": "D", "Weight": "6", "PlateID": "201", "Sediment-based climate inference (hot/cold, humid/S/desert)": null, "Fossil-based climate inference (hot/cold, humid/S/desert)": null, "Geochemistry-based climate inference  (hot/cold, humid/S/desert)": null, "PaleozonaCodigo": null, "layer": "115.00Ma_point", "path": "C:/Users/Leonardo Bachi/OneDrive/Desktop/ITT_OCEANEON/20_SETEMBRO_TABELA_FINAL/PONTOS_RETIFICADOS/115.00Ma.geojson", "winner": "S", "cluster_size": 9}, "geometry": {"type": "Point", "coordinates": [-11.034635243503411, -24.910785405204003]}}, {"type": "Feature", "properties": {"ID": "1633", "Country": "Brazil", "Basin_Sub_": "Sergipe-Alagoas", "Group": "Sergipe", "Formation": "Riachuelo", "Member": "Taquari", "Well name/ outcrop": null, "Latitude": "-11", "Longitude": "-35.5", "Dating evidence": "Biostratigraphy: Ammonites, planktonic foraminifers, and ostracods", "REF(Authors, Year)": "Zucon, 2005;  Koutsoukos et al., 1989; Viviers et al., 2000", "Show_on_Ma": "115", "Lithology, structures, paleowind": "Black shales and mudstones", "Paleoenvironment": "Transitional to marine: lagoon to slope ", "REF (Authors, Year)": "Campos Neto et al., 2007; Luft-Souza et al., 2022", "Fossil occurrences": "Ammonites, echinoids, planktonic foraminifera, ostracods, radiolarian, and calcareous nannofossils", "REF (Authors, Year)_1": "Luft-Souza et al., 2022", "Geochemistry data": null, "REF (Authors, Year)_2": null, "Sediment-based climate inference (hot/cold, humid/semi-arid/desert)": null, "Fossil-based climate inference (hot/cold, humid/semi-arid/desert)": null, "Geochemistry-based climate inference  (hot/cold, humid/semi-arid/desert)": null, "Climate assignment leading evidence": "Carbonates", "Climate_Cl": "H", "Weight": "5", "PlateID": "201", "Sediment-based climate inference (hot/cold, humid/S/desert)": null, "Fossil-based climate inference (hot/cold, humid/S/desert)": null, "Geochemistry-based climate inference  (hot/cold, humid/S/desert)": null, "PaleozonaCodigo": null, "layer": "115.00Ma_point", "path": "C:/Users/Leonardo Bachi/OneDrive/Desktop/ITT_OCEANEON/20_SETEMBRO_TABELA_FINAL/PONTOS_RETIFICADOS/115.00Ma.geojson", "winner": "S", "cluster_size": 9}, "geometry": {"type": "Point", "coordinates": [-11.034635243503411, -24.910785405204003]}}, {"type": "Feature", "properties": {"ID": "1723", "Country": "Cameroon", "Basin_Sub_": "Mamfe", "Group": "N/A", "Formation": "Manfe", "Member": "Nfiatok ", "Well name/ outcrop": "S7 sample", "Latitude": "5.753", "Longitude": "9.228", "Dating evidence": "palynology?", "REF(Authors, Year)": "Abolo, 2008 (in Asi et al., 2022)", "Show_on_Ma": "115", "Lithology, structures, paleowind": "Repeated succession of alternating black shales, limestones, and sandstones with mud crcks. Mud crack and limestones in the lower part and  leaf and root fossil, and coal bed in upper part.", "Paleoenvironment": "Continental: fluvio-lacustrine (with fluvial back swamp settings)", "REF (Authors, Year)": "Asi et al., 2022", "Fossil occurrences": "N/A", "REF (Authors, Year)_1": "Asi et al., 2022", "Geochemistry data": "TOC value of 2.49 wt%, type II and II of organic matter", "REF (Authors, Year)_2": "Asi et al., 2022", "Sediment-based climate inference (hot/cold, humid/semi-arid/desert)": "semi-arid", "Fossil-based climate inference (hot/cold, humid/semi-arid/desert)": "N/A", "Geochemistry-based climate inference  (hot/cold, humid/semi-arid/desert)": "N/A", "Climate assignment leading evidence": "mud cracks and limestone", "Climate_Cl": "S", "Weight": "2", "PlateID": "701", "Sediment-based climate inference (hot/cold, humid/S/desert)": null, "Fossil-based climate inference (hot/cold, humid/S/desert)": null, "Geochemistry-based climate inference  (hot/cold, humid/S/desert)": null, "PaleozonaCodigo": null, "layer": "115.00Ma_point", "path": "C:/Users/Leonardo Bachi/OneDrive/Desktop/ITT_OCEANEON/20_SETEMBRO_TABELA_FINAL/PONTOS_RETIFICADOS/115.00Ma.geojson", "winner": "H", "cluster_size": 8}, "geometry": {"type": "Point", "coordinates": [-7.059778556965895, -19.42057331801197]}}, {"type": "Feature", "properties": {"ID": "1851", "Country": "Chad", "Basin_Sub_": "Doseo", "Group": "N/A", "Formation": "Kenedi", "Member": "N/A", "Well name/ outcrop": "KE-1/eastern Doseo Basin", "Latitude": "9.635242", "Longitude": "20.27045", "Dating evidence": "Palinology", "REF(Authors, Year)": "Dou et al., 2024", "Show_on_Ma": "115", "Lithology, structures, paleowind": "Lacustrine mudstones interbedded with braided river?elta?an sand bodies", "Paleoenvironment": "?ontinental: Rift-lacustrine system", "REF (Authors, Year)": "Dou et al., 2024", "Fossil occurrences": "Fern spores (Cyathidites, Dictyophyllidites, Baculatisporites, Abdiverrucospora, Osmundacidites, Foraminisporis, Gabonisporites, Triporoletes, Appendicisporites, Cicatricosisporites and Schizaeoisporites).Gymnosperm\npollen (Pinaceae, Monsulcites, Callialasporites, C. dampieri, Jugella, Cycadopites, Eucommiidites, Exesipollenites and Classopollis spp., C. annulatus, Psophosphaera).Angiosperm pollen (Afropollis, Polyporites, Tricolpopollenites, Retitricolpites, Monoporropollenites, Triprojectus and Integricorpus).", "REF (Authors, Year)_1": "Dou et al., 2024", "Geochemistry data": "N/A", "REF (Authors, Year)_2": "N/A", "Sediment-based climate inference (hot/cold, humid/semi-arid/desert)": "N/A", "Fossil-based climate inference (hot/cold, humid/semi-arid/desert)": "semi-arid to more humid", "Geochemistry-based climate inference  (hot/cold, humid/semi-arid/desert)": "N/A", "Climate assignment leading evidence": "Braided rivers and dominant gymnosperm pollen (especially Classopollis)", "Climate_Cl": "S", "Weight": "5", "PlateID": "715", "Sediment-based climate inference (hot/cold, humid/S/desert)": null, "Fossil-based climate inference (hot/cold, humid/S/desert)": null, "Geochemistry-based climate inference  (hot/cold, humid/S/desert)": null, "PaleozonaCodigo": null, "layer": "115.00Ma_point", "path": "C:/Users/Leonardo Bachi/OneDrive/Desktop/ITT_OCEANEON/20_SETEMBRO_TABELA_FINAL/PONTOS_RETIFICADOS/115.00Ma.geojson", "winner": "H", "cluster_size": 5}, "geometry": {"type": "Point", "coordinates": [5.216353002720516, -19.5518757596053]}}, {"type": "Feature", "properties": {"ID": "1852", "Country": "Chad", "Basin_Sub_": "Doseo", "Group": "N/A", "Formation": "Kenedi", "Member": "N/A", "Well name/ outcrop": "KE-1/eastern Doseo Basin", "Latitude": "9.635242", "Longitude": "20.27045", "Dating evidence": "Palinology", "REF(Authors, Year)": "Dou et al., 2024", "Show_on_Ma": "115", "Lithology, structures, paleowind": "Sandstone/siltstone/muddy siltstone/silty mudstone/mudstone", "Paleoenvironment": "Continental: lacustrine?eltaic", "REF (Authors, Year)": "Dou et al., 2024", "Fossil occurrences": "Fern spores (Cyathidites, Dictyophyllidites, Baculatisporites, Abdiverrucospora, Osmundacidites, Foraminisporis, Gabonisporites, Triporoletes, Appendicisporites, Cicatricosisporites and Schizaeoisporites).Gymnosperm\npollen (Pinaceae, Monsulcites, Callialasporites, C. dampieri, Jugella, Cycadopites, Eucommiidites, Exesipollenites and Classopollis spp., C. annulatus, Psophosphaera).Angiosperm pollen (Afropollis, Polyporites, Tricolpopollenites, Retitricolpites, Monoporropollenites, Triprojectus and Integricorpus).", "REF (Authors, Year)_1": "Dou et al., 2024", "Geochemistry data": "?N/A", "REF (Authors, Year)_2": "?semi-arid to more humid", "Sediment-based climate inference (hot/cold, humid/semi-arid/desert)": "N/A", "Fossil-based climate inference (hot/cold, humid/semi-arid/desert)": "Classopollis remains important but begins to decline", "Geochemistry-based climate inference  (hot/cold, humid/semi-arid/desert)": null, "Climate assignment leading evidence": null, "Climate_Cl": "S", "Weight": "3", "PlateID": "715", "Sediment-based climate inference (hot/cold, humid/S/desert)": null, "Fossil-based climate inference (hot/cold, humid/S/desert)": null, "Geochemistry-based climate inference  (hot/cold, humid/S/desert)": null, "PaleozonaCodigo": null, "layer": "115.00Ma_point", "path": "C:/Users/Leonardo Bachi/OneDrive/Desktop/ITT_OCEANEON/20_SETEMBRO_TABELA_FINAL/PONTOS_RETIFICADOS/115.00Ma.geojson", "winner": "H", "cluster_size": 5}, "geometry": {"type": "Point", "coordinates": [5.216353002720516, -19.5518757596053]}}, {"type": "Feature", "properties": {"ID": "1965", "Country": "Democratic Republic of Congo", "Basin_Sub_": "Congo", "Group": "Loia", "Formation": " ", "Member": null, "Well name/ outcrop": null, "Latitude": "0", "Longitude": "21", "Dating evidence": null, "REF(Authors, Year)": null, "Show_on_Ma": "115", "Lithology, structures, paleowind": null, "Paleoenvironment": null, "REF (Authors, Year)": null, "Fossil occurrences": null, "REF (Authors, Year)_1": null, "Geochemistry data": null, "REF (Authors, Year)_2": null, "Sediment-based climate inference (hot/cold, humid/semi-arid/desert)": null, "Fossil-based climate inference (hot/cold, humid/semi-arid/desert)": null, "Geochemistry-based climate inference  (hot/cold, humid/semi-arid/desert)": null, "Climate assignment leading evidence": null, "Climate_Cl": "S", "Weight": "2", "PlateID": "701", "Sediment-based climate inference (hot/cold, humid/S/desert)": null, "Fossil-based climate inference (hot/cold, humid/S/desert)": null, "Geochemistry-based climate inference  (hot/cold, humid/S/desert)": null, "PaleozonaCodigo": null, "layer": "115.00Ma_point", "path": "C:/Users/Leonardo Bachi/OneDrive/Desktop/ITT_OCEANEON/20_SETEMBRO_TABELA_FINAL/PONTOS_RETIFICADOS/115.00Ma.geojson", "winner": "H", "cluster_size": 3}, "geometry": {"type": "Point", "coordinates": [2.831040660942206, -28.913264329159638]}}, {"type": "Feature", "properties": {"ID": "2536", "Country": "Senegal", "Basin_Sub_": "Cape Verde", "Group": "N/A", "Formation": "N/A", "Member": "N/A", "Well name/ outcrop": "DSDP367", "Latitude": "12.15", "Longitude": "-18.278", "Dating evidence": "N/A", "REF(Authors, Year)": "Pearson etal. 2024", "Show_on_Ma": "115", "Lithology, structures, paleowind": "Sandstones, siltstones, mudstones and marls", "Paleoenvironment": "Continental to marine: Fluvial to inner shelf", "REF (Authors, Year)": "Pearson et al., 2024", "Fossil occurrences": "Increasing angiosperm vegetation; aquatic-plant evidence indicates increasing moisture", "REF (Authors, Year)_1": "Pearson et al., 2024", "Geochemistry data": "Increasing kaolinite relative to chlorite/illite; illite remains important in several wells. In TB-1, chlorite becomes dominant over illite; Ti-1 contains variegated sandstone, siltstone and marl.", "REF (Authors, Year)_2": "Pearson et al., 2024", "Sediment-based climate inference (hot/cold, humid/semi-arid/desert)": "N/A", "Fossil-based climate inference (hot/cold, humid/semi-arid/desert)": "N/A", "Geochemistry-based climate inference  (hot/cold, humid/semi-arid/desert)": "Semi-arid to humid", "Climate assignment leading evidence": "Increasing kaolinite, aquatic-plant evidence indicates increasing moisture", "Climate_Cl": "H", "Weight": "6", "PlateID": "714", "Sediment-based climate inference (hot/cold, humid/S/desert)": null, "Fossil-based climate inference (hot/cold, humid/S/desert)": null, "Geochemistry-based climate inference  (hot/cold, humid/S/desert)": null, "PaleozonaCodigo": null, "layer": "115.00Ma_point", "path": "C:/Users/Leonardo Bachi/OneDrive/Desktop/ITT_OCEANEON/20_SETEMBRO_TABELA_FINAL/PONTOS_RETIFICADOS/115.00Ma.geojson", "winner": "S", "cluster_size": 4}, "geometry": {"type": "Point", "coordinates": [-28.8333287882514, -1.645895856022145]}}, {"type": "Feature", "properties": {"ID": "2890", "Country": "Tunisia", "Basin_Sub_": "N/A", "Group": "A? el Guettar", "Formation": "Oum ed Diab", "Member": "N/A", "Well name/ outcrop": "Oum ed Diab and Touil el Mra", "Latitude": "33.287", "Longitude": "10.226", "Dating evidence": "N/A", "REF(Authors, Year)": "Anderson etal 2007", "Show_on_Ma": "115", "Lithology, structures, paleowind": "shales, sands", "Paleoenvironment": "Coastal: lagoon", "REF (Authors, Year)": "Anderson etal 2007", "Fossil occurrences": "Fish vertebrae, and low abundances of other bony fish remains. Cephalic and dorsal fin spines ", "REF (Authors, Year)_1": " Anderson etal 2007", "Geochemistry data": "N/A", "REF (Authors, Year)_2": "N/A", "Sediment-based climate inference (hot/cold, humid/semi-arid/desert)": "N/A", "Fossil-based climate inference (hot/cold, humid/semi-arid/desert)": "humid", "Geochemistry-based climate inference  (hot/cold, humid/semi-arid/desert)": "N/A", "Climate assignment leading evidence": "fossil assemblage", "Climate_Cl": "H", "Weight": "2", "PlateID": "7701", "Sediment-based climate inference (hot/cold, humid/S/desert)": null, "Fossil-based climate inference (hot/cold, humid/S/desert)": null, "Geochemistry-based climate inference  (hot/cold, humid/S/desert)": null, "PaleozonaCodigo": null, "layer": "115.00Ma_point", "path": "C:/Users/Leonardo Bachi/OneDrive/Desktop/ITT_OCEANEON/20_SETEMBRO_TABELA_FINAL/PONTOS_RETIFICADOS/115.00Ma.geojson", "winner": "S", "cluster_size": 12}, "geometry": {"type": "Point", "coordinates": [3.927660189986106, 5.81193696799599]}}, {"type": "Feature", "properties": {"ID": "2819", "Country": "Tunisia", "Basin_Sub_": "N/A", "Group": "N/A", "Formation": "El Argoub", "Member": "Unit V", "Well name/ outcrop": "Jebel Bir Oum Ali", "Latitude": "34.13", "Longitude": "9.175", "Dating evidence": "Biostratigraphy: Ammonites", "REF(Authors, Year)": "Godet etal. 2014", "Show_on_Ma": "115", "Lithology, structures, paleowind": "claystone alternates with oolitic limestone beds, yellow sandstones, claystone, packstone, marls and evaporites; ", "Paleoenvironment": " Coastal to marine: lagoon to carbonate shelf", "REF (Authors, Year)": "Godet etal. 2014", "Fossil occurrences": "Plant remains,Oyster, Bivalve, Annelid, Crinoid; Benthic Foraminifera: Sinainella sp.; Gastropods, bivalves: Neithea sp., Trigonia sp.;Ammonite zone: Acanthohoplites nolani; Thalassinoides; Ammonites: D. nodosocostatum zone?", "REF (Authors, Year)_1": "Godet etal. 2014", "Geochemistry data": "d13C", "REF (Authors, Year)_2": "N/A", "Sediment-based climate inference (hot/cold, humid/semi-arid/desert)": "humid", "Fossil-based climate inference (hot/cold, humid/semi-arid/desert)": "N/A", "Geochemistry-based climate inference  (hot/cold, humid/semi-arid/desert)": "N/A", "Climate assignment leading evidence": "Plant remains", "Climate_Cl": "H", "Weight": "4", "PlateID": "715", "Sediment-based climate inference (hot/cold, humid/S/desert)": null, "Fossil-based climate inference (hot/cold, humid/S/desert)": null, "Geochemistry-based climate inference  (hot/cold, humid/S/desert)": null, "PaleozonaCodigo": null, "layer": "115.00Ma_point", "path": "C:/Users/Leonardo Bachi/OneDrive/Desktop/ITT_OCEANEON/20_SETEMBRO_TABELA_FINAL/PONTOS_RETIFICADOS/115.00Ma.geojson", "winner": "S", "cluster_size": 6}, "geometry": {"type": "Point", "coordinates": [3.411657745787901, 6.912857281919082]}}, {"type": "Feature", "properties": {"ID": "2828", "Country": "Tunisia", "Basin_Sub_": "Tataouine", "Group": "N/A", "Formation": "Foum El Argoud", "Member": "Unit V", "Well name/ outcrop": "Bir Oum Ali", "Latitude": "34.13", "Longitude": "9.175", "Dating evidence": "Biostratigraphy:  Plank. Foram. zone, Calc. Nannofossil bioevents, Ammonite zone", "REF(Authors, Year)": "Godet etal. 2014", "Show_on_Ma": "115", "Lithology, structures, paleowind": "marl,  limestone, claystone alternates, yellow calcareous sandstone", "Paleoenvironment": "Marine: carbonate shelf", "REF (Authors, Year)": "Godet etal. 2014", "Fossil occurrences": "benthic foraminifera: Sinainella sp.", "REF (Authors, Year)_1": "Godet etal. 2014", "Geochemistry data": "d13C", "REF (Authors, Year)_2": "N/A", "Sediment-based climate inference (hot/cold, humid/semi-arid/desert)": "humid", "Fossil-based climate inference (hot/cold, humid/semi-arid/desert)": "N/A", "Geochemistry-based climate inference  (hot/cold, humid/semi-arid/desert)": "humid", "Climate assignment leading evidence": "Isotopic 13C ", "Climate_Cl": "H", "Weight": "4", "PlateID": "715", "Sediment-based climate inference (hot/cold, humid/S/desert)": null, "Fossil-based climate inference (hot/cold, humid/S/desert)": null, "Geochemistry-based climate inference  (hot/cold, humid/S/desert)": null, "PaleozonaCodigo": null, "layer": "115.00Ma_point", "path": "C:/Users/Leonardo Bachi/OneDrive/Desktop/ITT_OCEANEON/20_SETEMBRO_TABELA_FINAL/PONTOS_RETIFICADOS/115.00Ma.geojson", "winner": "S", "cluster_size": 6}, "geometry": {"type": "Point", "coordinates": [3.411657745787901, 6.912857281919082]}}, {"type": "Feature", "properties": {"ID": "2857", "Country": "Tunisia", "Basin_Sub_": "N/A", "Group": "N/A", "Formation": "Kebar", "Member": "upper member", "Well name/ outcrop": "Jebel Koumine", "Latitude": "35.124", "Longitude": "9.138", "Dating evidence": "Biostratigraphy: Charophyte biozones", "REF(Authors, Year)": "Trabelsi etal. 2016", "Show_on_Ma": "115", "Lithology, structures, paleowind": "Clay, Marl, Polygenic breccia, Limestone, Dolostone, Sandstone, Calcrete", "Paleoenvironment": "Continental: lacustrine (fresh to brackish water)", "REF (Authors, Year)": "Trabelsi etal. 2016", "Fossil occurrences": "Clavator grovesii lusitanicus biozone; Charophytes: Sphaerochara verticillata var. verticillata , S.  Verticillata var. kebariensis, Globator maillardii var trochilscoides, G. maillardii var biutricularis, Atopochara trivolvis var. biutricuris, A. trivolvis var. trivolvis, Clavator harrisii var. harrisii, C. harrisii var. reyi, C. hrrisii var. zavialensis, Echinochara triplicata, Ascidiella iberica var. inflata; Ostracods, Gastropods", "REF (Authors, Year)_1": "Trabelsi etal. 2016", "Geochemistry data": "N/A", "REF (Authors, Year)_2": "N/A", "Sediment-based climate inference (hot/cold, humid/semi-arid/desert)": "hot", "Fossil-based climate inference (hot/cold, humid/semi-arid/desert)": "N/A", "Geochemistry-based climate inference  (hot/cold, humid/semi-arid/desert)": "N/A", "Climate assignment leading evidence": "Calcrete", "Climate_Cl": "S", "Weight": "1", "PlateID": "715", "Sediment-based climate inference (hot/cold, humid/S/desert)": null, "Fossil-based climate inference (hot/cold, humid/S/desert)": null, "Geochemistry-based climate inference  (hot/cold, humid/S/desert)": null, "PaleozonaCodigo": null, "layer": "115.00Ma_point", "path": "C:/Users/Leonardo Bachi/OneDrive/Desktop/ITT_OCEANEON/20_SETEMBRO_TABELA_FINAL/PONTOS_RETIFICADOS/115.00Ma.geojson", "winner": "H", "cluster_size": 3}, "geometry": {"type": "Point", "coordinates": [3.748179128109372, 7.849653951067172]}}, {"type": "Feature", "properties": {"ID": "3042", "Country": "Venezuela", "Basin_Sub_": "Eastern Basin", "Group": " ", "Formation": "El Cantil", "Member": null, "Well name/ outcrop": "Well B", "Latitude": "9.721", "Longitude": "-63.643", "Dating evidence": "paleontological data", "REF(Authors, Year)": "Carrillo et al., 1995", "Show_on_Ma": "115", "Lithology, structures, paleowind": "The upper part includes thicker and more massive limestones (more than 50 % limestone)  (Hedberg, 1950).", "Paleoenvironment": "middle neritic to outer neritic / middle-platform environments", "REF (Authors, Year)": "Carrillo et al., 1995", "Fossil occurrences": "Valuulineria sp., Ammobaculites subcretaceous, Haplophragmoides rugosus, H. concauus, and Cibicides sp. (middle neritic); Gauelinella sp., Bulimina sp., Nodosaridae, and Lenticulina sp. (outer neritic)", "REF (Authors, Year)_1": "Carrillo et al., 1995", "Geochemistry data": null, "REF (Authors, Year)_2": null, "Sediment-based climate inference (hot/cold, humid/semi-arid/desert)": null, "Fossil-based climate inference (hot/cold, humid/semi-arid/desert)": null, "Geochemistry-based climate inference  (hot/cold, humid/semi-arid/desert)": null, "Climate assignment leading evidence": "Lithology", "Climate_Cl": "S", "Weight": "1", "PlateID": "201", "Sediment-based climate inference (hot/cold, humid/S/desert)": null, "Fossil-based climate inference (hot/cold, humid/S/desert)": null, "Geochemistry-based climate inference  (hot/cold, humid/S/desert)": null, "PaleozonaCodigo": null, "layer": "115.00Ma_point", "path": "C:/Users/Leonardo Bachi/OneDrive/Desktop/ITT_OCEANEON/20_SETEMBRO_TABELA_FINAL/PONTOS_RETIFICADOS/115.00Ma.geojson", "winner": "H", "cluster_size": 3}, "geometry": {"type": "Point", "coordinates": [-40.034916923897654, -4.036051617208603]}}, {"type": "Feature", "properties": {"ID": "3082", "Country": "Venezuela", "Basin_Sub_": "Maracaibo", "Group": "Cogollo", "Formation": "Ap?", "Member": "PichéTOT3 well", "Well name/ outcrop": null, "Latitude": "10.452", "Longitude": "-72.057", "Dating evidence": "foraminiferal zonation", "REF(Authors, Year)": "Dot et al., 2015", "Show_on_Ma": "115", "Lithology, structures, paleowind": "Mudstone, wackestone, packstone and grainstone are included. Moldic, vug porosity. At the top of PichéMember, organic matter-rich pelagic facies were deposited (black shales = OAE 1b).", "Paleoenvironment": "Carbonate facies related to inner calcareous platform to shelf margin. Organic matter-rich pelagic facies ascribes to a shallow shelf associated with an increase and rapid sea-level transgression.", "REF (Authors, Year)": "Dot et al., 2015", "Fossil occurrences": "Bioclasts fragments (green algae, pelecypods, gastropods, benthic foraminifera, echinoderms, bryozoans). In the upper zone of the member, benthic foraminifera Orbitolina is found.", "REF (Authors, Year)_1": "Dot et al., 2015", "Geochemistry data": null, "REF (Authors, Year)_2": null, "Sediment-based climate inference (hot/cold, humid/semi-arid/desert)": "semi arid (carbonate plataform) to humid (shalow shelf with organic matter)", "Fossil-based climate inference (hot/cold, humid/semi-arid/desert)": null, "Geochemistry-based climate inference  (hot/cold, humid/semi-arid/desert)": null, "Climate assignment leading evidence": "lithology associated with the OAE 1b.", "Climate_Cl": "H", "Weight": "2", "PlateID": "2030", "Sediment-based climate inference (hot/cold, humid/S/desert)": null, "Fossil-based climate inference (hot/cold, humid/S/desert)": null, "Geochemistry-based climate inference  (hot/cold, humid/S/desert)": null, "PaleozonaCodigo": null, "layer": "115.00Ma_point", "path": "C:/Users/Leonardo Bachi/OneDrive/Desktop/ITT_OCEANEON/20_SETEMBRO_TABELA_FINAL/PONTOS_RETIFICADOS/115.00Ma.geojson", "winner": "S", "cluster_size": 5}, "geometry": {"type": "Point", "coordinates": [-50.223959749049975, -4.188498442124396]}}, {"type": "Feature", "properties": {"ID": "3084", "Country": "Venezuela", "Basin_Sub_": "Maracaibo", "Group": "Cogollo", "Formation": "Ap?", "Member": "Machiques", "Well name/ outcrop": "TOT3 well", "Latitude": "10.452", "Longitude": "-72.057", "Dating evidence": "foraminiferal zonation", "REF(Authors, Year)": "Dot et al., 2015", "Show_on_Ma": "115", "Lithology, structures, paleowind": "Pelagic limesotone (black shale).", "Paleoenvironment": "Shallow shelf associated with an increase and rapid sea-level transgression of the carbonate platform (and upwelling uxpansion of oxygen minimum zone).", "REF (Authors, Year)": "Dot et al., 2015", "Fossil occurrences": "Concretions contain abundant macrofossils, among them fish, molluscs, Inoceramus and Douvilliceras, Drufencia, Deshayesites, ammonites (1). Deshayesites colombianus, Chelonieras cornuelianum, and Parahoplites inconstants ammonites (2). Engonoceras genus ammonites at the top of the member (3). Pelagic foraminifera (4)", "REF (Authors, Year)_1": "(1) Dot et al., 2015; (2) Sutton, 1946; (3) Renz, 1977; (4) LEV., 1997.", "Geochemistry data": null, "REF (Authors, Year)_2": null, "Sediment-based climate inference (hot/cold, humid/semi-arid/desert)": "humid", "Fossil-based climate inference (hot/cold, humid/semi-arid/desert)": null, "Geochemistry-based climate inference  (hot/cold, humid/semi-arid/desert)": null, "Climate assignment leading evidence": "lithology associated with the OAE 1a.", "Climate_Cl": "H", "Weight": "2", "PlateID": "2030", "Sediment-based climate inference (hot/cold, humid/S/desert)": null, "Fossil-based climate inference (hot/cold, humid/S/desert)": null, "Geochemistry-based climate inference  (hot/cold, humid/S/desert)": null, "PaleozonaCodigo": null, "layer": "115.00Ma_point", "path": "C:/Users/Leonardo Bachi/OneDrive/Desktop/ITT_OCEANEON/20_SETEMBRO_TABELA_FINAL/PONTOS_RETIFICADOS/115.00Ma.geojson", "winner": "S", "cluster_size": 5}, "geometry": {"type": "Point", "coordinates": [-50.223959749049975, -4.188498442124396]}}]}