{"type": "FeatureCollection", "features": [{"type": "Feature", "properties": {"Climate_Cl": "S", "votes": 5, "cluster_size": 5, "tie": false, "status": "majority", "member_ids": "7,10,13,16,19"}, "geometry": {"type": "Point", "coordinates": [-2.167981846774027, 10.593070045265288]}}, {"type": "Feature", "properties": {"Climate_Cl": "H", "votes": 3, "cluster_size": 6, "tie": true, "status": "tie", "member_ids": "153,157,162,166,171,175"}, "geometry": {"type": "Point", "coordinates": [-4.396498456108677, 8.708214736411152]}}, {"type": "Feature", "properties": {"Climate_Cl": "D", "votes": 3, "cluster_size": 6, "tie": true, "status": "tie", "member_ids": "153,157,162,166,171,175"}, "geometry": {"type": "Point", "coordinates": [-4.396498456108677, 8.708214736411152]}}, {"type": "Feature", "properties": {"Climate_Cl": "D", "votes": 2, "cluster_size": 3, "tie": false, "status": "majority", "member_ids": "189,190,191"}, "geometry": {"type": "Point", "coordinates": [-9.242520458434281, -34.4229007768457]}}, {"type": "Feature", "properties": {"Climate_Cl": "S", "votes": 1, "cluster_size": 1, "tie": false, "status": "majority", "member_ids": "206"}, "geometry": {"type": "Point", "coordinates": [-58.79166957078056, -61.57378290681677]}}, {"type": "Feature", "properties": {"Climate_Cl": "H", "votes": 1, "cluster_size": 1, "tie": false, "status": "majority", "member_ids": "218"}, "geometry": {"type": "Point", "coordinates": [-57.686797237822965, -61.21574417236805]}}, {"type": "Feature", "properties": {"Climate_Cl": "S", "votes": 1, "cluster_size": 1, "tie": false, "status": "majority", "member_ids": "236"}, "geometry": {"type": "Point", "coordinates": [-51.55979866432774, -56.96955716347901]}}, {"type": "Feature", "properties": {"Climate_Cl": "S", "votes": 1, "cluster_size": 1, "tie": false, "status": "majority", "member_ids": "237"}, "geometry": {"type": "Point", "coordinates": [-52.67690991764785, -56.88616648496592]}}, {"type": "Feature", "properties": {"Climate_Cl": "H", "votes": 1, "cluster_size": 1, "tie": false, "status": "majority", "member_ids": "257"}, "geometry": {"type": "Point", "coordinates": [-54.1545316629003, -61.32004197404229]}}, {"type": "Feature", "properties": {"Climate_Cl": "S", "votes": 2, "cluster_size": 3, "tie": false, "status": "majority", "member_ids": "268,277,284"}, "geometry": {"type": "Point", "coordinates": [-53.68001497571135, -58.27559328422935]}}, {"type": "Feature", "properties": {"Climate_Cl": "H", "votes": 1, "cluster_size": 2, "tie": true, "status": "tie", "member_ids": "310,311"}, "geometry": {"type": "Point", "coordinates": [-53.18708920870602, -52.43887043450893]}}, {"type": "Feature", "properties": {"Climate_Cl": "S", "votes": 1, "cluster_size": 2, "tie": true, "status": "tie", "member_ids": "310,311"}, "geometry": {"type": "Point", "coordinates": [-53.18708920870602, -52.43887043450893]}}, {"type": "Feature", "properties": {"Climate_Cl": "S", "votes": 2, "cluster_size": 3, "tie": false, "status": "majority", "member_ids": "328,329,330"}, "geometry": {"type": "Point", "coordinates": [-52.387260888786436, -50.85115766872617]}}, {"type": "Feature", "properties": {"Climate_Cl": "S", "votes": 3, "cluster_size": 5, "tie": false, "status": "majority", "member_ids": "344,346,361,367,373"}, "geometry": {"type": "Point", "coordinates": [-41.686313549690105, -55.974252807895326]}}, {"type": "Feature", "properties": {"Climate_Cl": "S", "votes": 2, "cluster_size": 2, "tie": false, "status": "majority", "member_ids": "377,378"}, "geometry": {"type": "Point", "coordinates": [-46.000710198758426, -39.24598541995874]}}, {"type": "Feature", "properties": {"Climate_Cl": "S", "votes": 3, "cluster_size": 3, "tie": false, "status": "majority", "member_ids": "399,401,402"}, "geometry": {"type": "Point", "coordinates": [-47.72864975497145, -46.333113551177526]}}, {"type": "Feature", "properties": {"Climate_Cl": "S", "votes": 1, "cluster_size": 1, "tie": false, "status": "majority", "member_ids": "415"}, "geometry": {"type": "Point", "coordinates": [-44.70095969158384, -33.51131698072369]}}, {"type": "Feature", "properties": {"Climate_Cl": "H", "votes": 2, "cluster_size": 2, "tie": false, "status": "majority", "member_ids": "444,445"}, "geometry": {"type": "Point", "coordinates": [-51.76347691038564, -19.79774844459331]}}, {"type": "Feature", "properties": {"Climate_Cl": "H", "votes": 3, "cluster_size": 8, "tie": true, "status": "tie", "member_ids": "465,638,639,644,650,651,653,660"}, "geometry": {"type": "Point", "coordinates": [-14.13545343309246, -27.890743522624668]}}, {"type": "Feature", "properties": {"Climate_Cl": "S", "votes": 3, "cluster_size": 8, "tie": true, "status": "tie", "member_ids": "465,638,639,644,650,651,653,660"}, "geometry": {"type": "Point", "coordinates": [-14.13545343309246, -27.890743522624668]}}, {"type": "Feature", "properties": {"Climate_Cl": "H", "votes": 2, "cluster_size": 2, "tie": false, "status": "majority", "member_ids": "477,478"}, "geometry": {"type": "Point", "coordinates": [-31.869235827028373, -17.16495608815713]}}, {"type": "Feature", "properties": {"Climate_Cl": "H", "votes": 3, "cluster_size": 4, "tie": false, "status": "majority", "member_ids": "479,480,1681,1682"}, "geometry": {"type": "Point", "coordinates": [-36.8746264900617, -10.955756072247487]}}, {"type": "Feature", "properties": {"Climate_Cl": "S", "votes": 9, "cluster_size": 16, "tie": false, "status": "majority", "member_ids": "530,532,536,537,538,539,540,541,542,554,559,571,582,583,584,585"}, "geometry": {"type": "Point", "coordinates": [-15.5019629525302, -21.447021291736398]}}, {"type": "Feature", "properties": {"Climate_Cl": "D", "votes": 3, "cluster_size": 3, "tie": false, "status": "majority", "member_ids": "562,565,568"}, "geometry": {"type": "Point", "coordinates": [-16.53923026069212, -21.863700723014816]}}, {"type": "Feature", "properties": {"Climate_Cl": "S", "votes": 4, "cluster_size": 6, "tie": false, "status": "majority", "member_ids": "588,589,590,593,610,611"}, "geometry": {"type": "Point", "coordinates": [-15.280360137406491, -14.594031320427325]}}, {"type": "Feature", "properties": {"Climate_Cl": "S", "votes": 1, "cluster_size": 1, "tie": false, "status": "majority", "member_ids": "613"}, "geometry": {"type": "Point", "coordinates": [-22.86087982703456, -15.43780117209362]}}, {"type": "Feature", "properties": {"Climate_Cl": "S", "votes": 6, "cluster_size": 6, "tie": false, "status": "majority", "member_ids": "615,616,618,620,1554,1560"}, "geometry": {"type": "Point", "coordinates": [-19.378064108567337, -16.217932511520768]}}, {"type": "Feature", "properties": {"Climate_Cl": "D", "votes": 4, "cluster_size": 4, "tie": false, "status": "majority", "member_ids": "696,698,700,703"}, "geometry": {"type": "Point", "coordinates": [-16.418248591045334, -37.090782333995534]}}, {"type": "Feature", "properties": {"Climate_Cl": "D", "votes": 1, "cluster_size": 1, "tie": false, "status": "majority", "member_ids": "706"}, "geometry": {"type": "Point", "coordinates": [-16.059340617268546, -37.5110932150359]}}, {"type": "Feature", "properties": {"Climate_Cl": "D", "votes": 1, "cluster_size": 1, "tie": false, "status": "majority", "member_ids": "707"}, "geometry": {"type": "Point", "coordinates": [-15.337350214547346, -37.11495464279856]}}, {"type": "Feature", "properties": {"Climate_Cl": "S", "votes": 3, "cluster_size": 7, "tie": false, "status": "majority", "member_ids": "721,724,726,728,730,731,733"}, "geometry": {"type": "Point", "coordinates": [-15.016975872854596, -16.95084139942164]}}, {"type": "Feature", "properties": {"Climate_Cl": "S", "votes": 3, "cluster_size": 4, "tie": false, "status": "majority", "member_ids": "734,739,744,745"}, "geometry": {"type": "Point", "coordinates": [-13.965092483923339, -31.0572738515059]}}, {"type": "Feature", "properties": {"Climate_Cl": "S", "votes": 2, "cluster_size": 3, "tie": false, "status": "majority", "member_ids": "761,764,769"}, "geometry": {"type": "Point", "coordinates": [-13.226795012673636, -34.03008555596428]}}, {"type": "Feature", "properties": {"Climate_Cl": "D", "votes": 2, "cluster_size": 2, "tie": false, "status": "majority", "member_ids": "767,768"}, "geometry": {"type": "Point", "coordinates": [-14.469553161482725, -32.07838087323232]}}, {"type": "Feature", "properties": {"Climate_Cl": "H", "votes": 2, "cluster_size": 3, "tie": false, "status": "majority", "member_ids": "785,788,793"}, "geometry": {"type": "Point", "coordinates": [-25.09188791682492, -11.273441037544444]}}, {"type": "Feature", "properties": {"Climate_Cl": "S", "votes": 1, "cluster_size": 1, "tie": false, "status": "majority", "member_ids": "804"}, "geometry": {"type": "Point", "coordinates": [-26.80469052939109, -9.7105160317536]}}, {"type": "Feature", "properties": {"Climate_Cl": "S", "votes": 8, "cluster_size": 10, "tie": false, "status": "majority", "member_ids": "815,820,823,824,826,827,828,1564,1575,1576"}, "geometry": {"type": "Point", "coordinates": [-21.956385775328716, -18.259810412861455]}}, {"type": "Feature", "properties": {"Climate_Cl": "S", "votes": 2, "cluster_size": 2, "tie": false, "status": "majority", "member_ids": "833,841"}, "geometry": {"type": "Point", "coordinates": [-12.743455015660434, -26.498458098537167]}}, {"type": "Feature", "properties": {"Climate_Cl": "H", "votes": 1, "cluster_size": 1, "tie": false, "status": "majority", "member_ids": "856"}, "geometry": {"type": "Point", "coordinates": [-13.559737435764093, -26.735309133430402]}}, {"type": "Feature", "properties": {"Climate_Cl": "D", "votes": 2, "cluster_size": 3, "tie": false, "status": "majority", "member_ids": "862,865,868"}, "geometry": {"type": "Point", "coordinates": [-14.160994736307662, -23.160207291209797]}}, {"type": "Feature", "properties": {"Climate_Cl": "S", "votes": 1, "cluster_size": 1, "tie": false, "status": "majority", "member_ids": "870"}, "geometry": {"type": "Point", "coordinates": [-13.564494059828359, -23.191426255177454]}}, {"type": "Feature", "properties": {"Climate_Cl": "S", "votes": 3, "cluster_size": 5, "tie": false, "status": "majority", "member_ids": "871,872,873,874,875"}, "geometry": {"type": "Point", "coordinates": [-13.877342174841143, -22.702438379669896]}}, {"type": "Feature", "properties": {"Climate_Cl": "S", "votes": 2, "cluster_size": 4, "tie": false, "status": "majority", "member_ids": "901,906,912,914"}, "geometry": {"type": "Point", "coordinates": [-12.94081962266881, -29.51150525122546]}}, {"type": "Feature", "properties": {"Climate_Cl": "H", "votes": 1, "cluster_size": 2, "tie": true, "status": "tie", "member_ids": "921,928"}, "geometry": {"type": "Point", "coordinates": [-26.664809391705603, -16.26505655431977]}}, {"type": "Feature", "properties": {"Climate_Cl": "S", "votes": 1, "cluster_size": 2, "tie": true, "status": "tie", "member_ids": "921,928"}, "geometry": {"type": "Point", "coordinates": [-26.664809391705603, -16.26505655431977]}}, {"type": "Feature", "properties": {"Climate_Cl": "D", "votes": 3, "cluster_size": 5, "tie": false, "status": "majority", "member_ids": "942,947,952,953,955"}, "geometry": {"type": "Point", "coordinates": [-15.030280422075748, -32.09944237123248]}}, {"type": "Feature", "properties": {"Climate_Cl": "S", "votes": 1, "cluster_size": 2, "tie": true, "status": "tie", "member_ids": "990,992"}, "geometry": {"type": "Point", "coordinates": [-21.487311926020332, -14.253950863889177]}}, {"type": "Feature", "properties": {"Climate_Cl": "D", "votes": 1, "cluster_size": 2, "tie": true, "status": "tie", "member_ids": "990,992"}, "geometry": {"type": "Point", "coordinates": [-21.487311926020332, -14.253950863889177]}}, {"type": "Feature", "properties": {"Climate_Cl": "D", "votes": 1, "cluster_size": 1, "tie": false, "status": "majority", "member_ids": "1007"}, "geometry": {"type": "Point", "coordinates": [-31.51891576030898, -37.18463105440791]}}, {"type": "Feature", "properties": {"Climate_Cl": "D", "votes": 2, "cluster_size": 2, "tie": false, "status": "majority", "member_ids": "1011,1015"}, "geometry": {"type": "Point", "coordinates": [-30.47173322775402, -37.989876156621804]}}, {"type": "Feature", "properties": {"Climate_Cl": "S", "votes": 1, "cluster_size": 1, "tie": false, "status": "majority", "member_ids": "1071"}, "geometry": {"type": "Point", "coordinates": [-20.73506804451813, -17.243463507033876]}}, {"type": "Feature", "properties": {"Climate_Cl": "S", "votes": 5, "cluster_size": 7, "tie": false, "status": "majority", "member_ids": "1075,1076,1082,1083,1084,1085,1086"}, "geometry": {"type": "Point", "coordinates": [-20.342332091154816, -20.237427735139537]}}, {"type": "Feature", "properties": {"Climate_Cl": "S", "votes": 5, "cluster_size": 5, "tie": false, "status": "majority", "member_ids": "1087,1090,1093,1094,1097"}, "geometry": {"type": "Point", "coordinates": [-20.43712537404473, -18.238685787780344]}}, {"type": "Feature", "properties": {"Climate_Cl": "S", "votes": 2, "cluster_size": 2, "tie": false, "status": "majority", "member_ids": "1088,1089"}, "geometry": {"type": "Point", "coordinates": [-17.371514429962943, -18.16743639357974]}}, {"type": "Feature", "properties": {"Climate_Cl": "S", "votes": 3, "cluster_size": 3, "tie": false, "status": "majority", "member_ids": "1091,1095,1096"}, "geometry": {"type": "Point", "coordinates": [-19.09035009978992, -18.212042691806662]}}, {"type": "Feature", "properties": {"Climate_Cl": "S", "votes": 1, "cluster_size": 1, "tie": false, "status": "majority", "member_ids": "1092"}, "geometry": {"type": "Point", "coordinates": [-22.62645347039052, -20.266181354818418]}}, {"type": "Feature", "properties": {"Climate_Cl": "S", "votes": 3, "cluster_size": 4, "tie": false, "status": "majority", "member_ids": "1132,1134,1135,1137"}, "geometry": {"type": "Point", "coordinates": [-14.984163874771696, -43.10888888617745]}}, {"type": "Feature", "properties": {"Climate_Cl": "S", "votes": 1, "cluster_size": 1, "tie": false, "status": "majority", "member_ids": "1166"}, "geometry": {"type": "Point", "coordinates": [-9.859256606634313, -22.34016256529924]}}, {"type": "Feature", "properties": {"Climate_Cl": "S", "votes": 3, "cluster_size": 3, "tie": false, "status": "majority", "member_ids": "1242,1249,1268"}, "geometry": {"type": "Point", "coordinates": [-12.3559899884717, -19.0314075919906]}}, {"type": "Feature", "properties": {"Climate_Cl": "S", "votes": 4, "cluster_size": 4, "tie": false, "status": "majority", "member_ids": "1258,1263,1265,1266"}, "geometry": {"type": "Point", "coordinates": [-12.04639456265158, -16.95120472817796]}}, {"type": "Feature", "properties": {"Climate_Cl": "S", "votes": 2, "cluster_size": 2, "tie": false, "status": "majority", "member_ids": "1264,1267"}, "geometry": {"type": "Point", "coordinates": [-14.334837063738494, -19.460413801455932]}}, {"type": "Feature", "properties": {"Climate_Cl": "S", "votes": 1, "cluster_size": 1, "tie": false, "status": "majority", "member_ids": "1269"}, "geometry": {"type": "Point", "coordinates": [-13.138746751206186, -19.1484606420295]}}, {"type": "Feature", "properties": {"Climate_Cl": "S", "votes": 2, "cluster_size": 3, "tie": false, "status": "majority", "member_ids": "1277,1299,1301"}, "geometry": {"type": "Point", "coordinates": [-14.20393802894448, -26.56213828791654]}}, {"type": "Feature", "properties": {"Climate_Cl": "S", "votes": 10, "cluster_size": 20, "tie": true, "status": "tie", "member_ids": "1374,1375,1376,1377,1378,1379,1380,1381,1382,1383,1466,1467,1470,1471,1472,1473,1474,1475,1476,1477"}, "geometry": {"type": "Point", "coordinates": [-22.477851290738293, -32.26538741961531]}}, {"type": "Feature", "properties": {"Climate_Cl": "D", "votes": 10, "cluster_size": 20, "tie": true, "status": "tie", "member_ids": "1374,1375,1376,1377,1378,1379,1380,1381,1382,1383,1466,1467,1470,1471,1472,1473,1474,1475,1476,1477"}, "geometry": {"type": "Point", "coordinates": [-22.477851290738293, -32.26538741961531]}}, {"type": "Feature", "properties": {"Climate_Cl": "S", "votes": 2, "cluster_size": 2, "tie": false, "status": "majority", "member_ids": "1468,1469"}, "geometry": {"type": "Point", "coordinates": [-22.603262565017978, -33.26649490318029]}}, {"type": "Feature", "properties": {"Climate_Cl": "D", "votes": 1, "cluster_size": 1, "tie": false, "status": "majority", "member_ids": "1515"}, "geometry": {"type": "Point", "coordinates": [-20.754228507027317, -40.24715421209254]}}, {"type": "Feature", "properties": {"Climate_Cl": "S", "votes": 1, "cluster_size": 1, "tie": false, "status": "majority", "member_ids": "1517"}, "geometry": {"type": "Point", "coordinates": [-18.013507928440497, -40.195082879703904]}}, {"type": "Feature", "properties": {"Climate_Cl": "S", "votes": 2, "cluster_size": 2, "tie": false, "status": "majority", "member_ids": "1519,1525"}, "geometry": {"type": "Point", "coordinates": [-20.766152320775394, -39.74723765734532]}}, {"type": "Feature", "properties": {"Climate_Cl": "S", "votes": 1, "cluster_size": 1, "tie": false, "status": "majority", "member_ids": "1528"}, "geometry": {"type": "Point", "coordinates": [-18.490690510021444, -38.621455691855246]}}, {"type": "Feature", "properties": {"Climate_Cl": "H", "votes": 2, "cluster_size": 4, "tie": true, "status": "tie", "member_ids": "1549,1550,1555,1577"}, "geometry": {"type": "Point", "coordinates": [-22.404467844924827, -16.504148606945606]}}, {"type": "Feature", "properties": {"Climate_Cl": "S", "votes": 2, "cluster_size": 4, "tie": true, "status": "tie", "member_ids": "1549,1550,1555,1577"}, "geometry": {"type": "Point", "coordinates": [-22.404467844924827, -16.504148606945606]}}, {"type": "Feature", "properties": {"Climate_Cl": "S", "votes": 1, "cluster_size": 1, "tie": false, "status": "majority", "member_ids": "1551"}, "geometry": {"type": "Point", "coordinates": [-21.841733516002062, -16.49842531695252]}}, {"type": "Feature", "properties": {"Climate_Cl": "S", "votes": 1, "cluster_size": 1, "tie": false, "status": "majority", "member_ids": "1552"}, "geometry": {"type": "Point", "coordinates": [-21.00811879964184, -16.48754578115333]}}, {"type": "Feature", "properties": {"Climate_Cl": "S", "votes": 1, "cluster_size": 1, "tie": false, "status": "majority", "member_ids": "1553"}, "geometry": {"type": "Point", "coordinates": [-22.005575744195543, -15.850186398592768]}}, {"type": "Feature", "properties": {"Climate_Cl": "S", "votes": 6, "cluster_size": 9, "tie": false, "status": "majority", "member_ids": "1592,1610,1621,1626,1627,1628,1632,1633,1634"}, "geometry": {"type": "Point", "coordinates": [-11.034635243503411, -24.910785405204003]}}, {"type": "Feature", "properties": {"Climate_Cl": "H", "votes": 4, "cluster_size": 4, "tie": false, "status": "majority", "member_ids": "1642,1643,1644,1645"}, "geometry": {"type": "Point", "coordinates": [-42.692064882059164, -18.608882627126043]}}, {"type": "Feature", "properties": {"Climate_Cl": "H", "votes": 2, "cluster_size": 2, "tie": false, "status": "majority", "member_ids": "1646,1647"}, "geometry": {"type": "Point", "coordinates": [-39.544451211020906, -18.819332017225886]}}, {"type": "Feature", "properties": {"Climate_Cl": "S", "votes": 1, "cluster_size": 1, "tie": false, "status": "majority", "member_ids": "1689"}, "geometry": {"type": "Point", "coordinates": [-14.328517182587909, -24.06467543870984]}}, {"type": "Feature", "properties": {"Climate_Cl": "H", "votes": 1, "cluster_size": 1, "tie": false, "status": "majority", "member_ids": "1708"}, "geometry": {"type": "Point", "coordinates": [-7.238220598584367, -20.71631764096135]}}, {"type": "Feature", "properties": {"Climate_Cl": "H", "votes": 7, "cluster_size": 8, "tie": false, "status": "majority", "member_ids": "1715,1723,1727,1818,1821,1824,1827,1830"}, "geometry": {"type": "Point", "coordinates": [-7.023016435378583, -19.457569822672617]}}, {"type": "Feature", "properties": {"Climate_Cl": "H", "votes": 3, "cluster_size": 5, "tie": false, "status": "majority", "member_ids": "1851,1852,1853,1854,1855"}, "geometry": {"type": "Point", "coordinates": [5.216353002720516, -19.5518757596053]}}, {"type": "Feature", "properties": {"Climate_Cl": "S", "votes": 2, "cluster_size": 2, "tie": false, "status": "majority", "member_ids": "1881,1883"}, "geometry": {"type": "Point", "coordinates": [-50.67057259708331, -41.05197089629021]}}, {"type": "Feature", "properties": {"Climate_Cl": "S", "votes": 2, "cluster_size": 2, "tie": false, "status": "majority", "member_ids": "1914,1915"}, "geometry": {"type": "Point", "coordinates": [-51.39064209854866, -41.99198275396547]}}, {"type": "Feature", "properties": {"Climate_Cl": "H", "votes": 2, "cluster_size": 3, "tie": false, "status": "majority", "member_ids": "1930,1945,1965"}, "geometry": {"type": "Point", "coordinates": [2.831040660942206, -28.91326432915964]}}, {"type": "Feature", "properties": {"Climate_Cl": "H", "votes": 2, "cluster_size": 2, "tie": false, "status": "majority", "member_ids": "1931,1946"}, "geometry": {"type": "Point", "coordinates": [-0.398460334835565, -27.94626528156191]}}, {"type": "Feature", "properties": {"Climate_Cl": "H", "votes": 2, "cluster_size": 2, "tie": false, "status": "majority", "member_ids": "1932,1947"}, "geometry": {"type": "Point", "coordinates": [0.629790347022979, -31.43896702153893]}}, {"type": "Feature", "properties": {"Climate_Cl": "H", "votes": 1, "cluster_size": 1, "tie": false, "status": "majority", "member_ids": "1948"}, "geometry": {"type": "Point", "coordinates": [1.739420033642792, -31.76155304413356]}}, {"type": "Feature", "properties": {"Climate_Cl": "H", "votes": 1, "cluster_size": 1, "tie": false, "status": "majority", "member_ids": "2007"}, "geometry": {"type": "Point", "coordinates": [-55.27934014713567, -13.34845392945118]}}, {"type": "Feature", "properties": {"Climate_Cl": "H", "votes": 1, "cluster_size": 2, "tie": true, "status": "tie", "member_ids": "2008,2009"}, "geometry": {"type": "Point", "coordinates": [-56.00034756871331, -15.275215353947734]}}, {"type": "Feature", "properties": {"Climate_Cl": "S", "votes": 1, "cluster_size": 2, "tie": true, "status": "tie", "member_ids": "2008,2009"}, "geometry": {"type": "Point", "coordinates": [-56.00034756871331, -15.275215353947734]}}, {"type": "Feature", "properties": {"Climate_Cl": "H", "votes": 3, "cluster_size": 4, "tie": false, "status": "majority", "member_ids": "2016,2017,2020,2023"}, "geometry": {"type": "Point", "coordinates": [-8.786204503624498, -23.40735505699434]}}, {"type": "Feature", "properties": {"Climate_Cl": "D", "votes": 1, "cluster_size": 1, "tie": false, "status": "majority", "member_ids": "2036"}, "geometry": {"type": "Point", "coordinates": [-11.201029265837818, -26.648284343625797]}}, {"type": "Feature", "properties": {"Climate_Cl": "S", "votes": 1, "cluster_size": 2, "tie": true, "status": "tie", "member_ids": "2037,2038"}, "geometry": {"type": "Point", "coordinates": [-11.554539472377863, -28.270809268440818]}}, {"type": "Feature", "properties": {"Climate_Cl": "D", "votes": 1, "cluster_size": 2, "tie": true, "status": "tie", "member_ids": "2037,2038"}, "geometry": {"type": "Point", "coordinates": [-11.554539472377863, -28.270809268440818]}}, {"type": "Feature", "properties": {"Climate_Cl": "S", "votes": 1, "cluster_size": 1, "tie": false, "status": "majority", "member_ids": "2046"}, "geometry": {"type": "Point", "coordinates": [-14.634514856154981, -16.238466733744943]}}, {"type": "Feature", "properties": {"Climate_Cl": "H", "votes": 1, "cluster_size": 2, "tie": true, "status": "tie", "member_ids": "2069,2071"}, "geometry": {"type": "Point", "coordinates": [-13.57880341207713, -17.453804837133166]}}, {"type": "Feature", "properties": {"Climate_Cl": "S", "votes": 1, "cluster_size": 2, "tie": true, "status": "tie", "member_ids": "2069,2071"}, "geometry": {"type": "Point", "coordinates": [-13.57880341207713, -17.453804837133166]}}, {"type": "Feature", "properties": {"Climate_Cl": "H", "votes": 1, "cluster_size": 2, "tie": true, "status": "tie", "member_ids": "2073,2083"}, "geometry": {"type": "Point", "coordinates": [-19.453578544423934, -14.932743703033996]}}, {"type": "Feature", "properties": {"Climate_Cl": "S", "votes": 1, "cluster_size": 2, "tie": true, "status": "tie", "member_ids": "2073,2083"}, "geometry": {"type": "Point", "coordinates": [-19.453578544423934, -14.932743703033996]}}, {"type": "Feature", "properties": {"Climate_Cl": "S", "votes": 1, "cluster_size": 2, "tie": true, "status": "tie", "member_ids": "2222,2224"}, "geometry": {"type": "Point", "coordinates": [-10.720571998527506, 10.503739876757372]}}, {"type": "Feature", "properties": {"Climate_Cl": "D", "votes": 1, "cluster_size": 2, "tie": true, "status": "tie", "member_ids": "2222,2224"}, "geometry": {"type": "Point", "coordinates": [-10.720571998527506, 10.503739876757372]}}, {"type": "Feature", "properties": {"Climate_Cl": "D", "votes": 2, "cluster_size": 3, "tie": false, "status": "majority", "member_ids": "2244,2247,2248"}, "geometry": {"type": "Point", "coordinates": [-13.56628247202547, -39.47690055721092]}}, {"type": "Feature", "properties": {"Climate_Cl": "D", "votes": 1, "cluster_size": 1, "tie": false, "status": "majority", "member_ids": "2246"}, "geometry": {"type": "Point", "coordinates": [-12.890214828229093, -38.803956975117046]}}, {"type": "Feature", "properties": {"Climate_Cl": "S", "votes": 1, "cluster_size": 1, "tie": false, "status": "majority", "member_ids": "2267"}, "geometry": {"type": "Point", "coordinates": [-4.849339711157189, -8.339661808618326]}}, {"type": "Feature", "properties": {"Climate_Cl": "H", "votes": 12, "cluster_size": 12, "tie": false, "status": "majority", "member_ids": "2276,2280,2284,2288,2292,2296,2300,2304,2308,2312,2316,2320"}, "geometry": {"type": "Point", "coordinates": [-2.899307494376785, -15.88233529298619]}}, {"type": "Feature", "properties": {"Climate_Cl": "S", "votes": 1, "cluster_size": 1, "tie": false, "status": "majority", "member_ids": "2327"}, "geometry": {"type": "Point", "coordinates": [-3.249908385902663, -16.79817614768571]}}, {"type": "Feature", "properties": {"Climate_Cl": "S", "votes": 1, "cluster_size": 1, "tie": false, "status": "majority", "member_ids": "2358"}, "geometry": {"type": "Point", "coordinates": [-8.194061875397434, -18.80904020922885]}}, {"type": "Feature", "properties": {"Climate_Cl": "S", "votes": 1, "cluster_size": 1, "tie": false, "status": "majority", "member_ids": "2395"}, "geometry": {"type": "Point", "coordinates": [-56.63994024854541, -19.229366282975285]}}, {"type": "Feature", "properties": {"Climate_Cl": "H", "votes": 1, "cluster_size": 1, "tie": false, "status": "majority", "member_ids": "2402"}, "geometry": {"type": "Point", "coordinates": [-51.03277107004506, -28.932426460755934]}}, {"type": "Feature", "properties": {"Climate_Cl": "S", "votes": 1, "cluster_size": 1, "tie": false, "status": "majority", "member_ids": "2417"}, "geometry": {"type": "Point", "coordinates": [-55.1640270923184, -22.435128919560192]}}, {"type": "Feature", "properties": {"Climate_Cl": "H", "votes": 1, "cluster_size": 2, "tie": true, "status": "tie", "member_ids": "2437,2438"}, "geometry": {"type": "Point", "coordinates": [-55.67300521635738, -23.382734774919335]}}, {"type": "Feature", "properties": {"Climate_Cl": "S", "votes": 1, "cluster_size": 2, "tie": true, "status": "tie", "member_ids": "2437,2438"}, "geometry": {"type": "Point", "coordinates": [-55.67300521635738, -23.382734774919335]}}, {"type": "Feature", "properties": {"Climate_Cl": "H", "votes": 4, "cluster_size": 4, "tie": false, "status": "majority", "member_ids": "2451,2465,2471,2473"}, "geometry": {"type": "Point", "coordinates": [-53.12781530591426, -19.647653837631445]}}, {"type": "Feature", "properties": {"Climate_Cl": "H", "votes": 1, "cluster_size": 1, "tie": false, "status": "majority", "member_ids": "2460"}, "geometry": {"type": "Point", "coordinates": [-54.52227475685108, -18.479289382125877]}}, {"type": "Feature", "properties": {"Climate_Cl": "S", "votes": 1, "cluster_size": 1, "tie": false, "status": "majority", "member_ids": "2496"}, "geometry": {"type": "Point", "coordinates": [-52.74624672562455, -20.69729453378925]}}, {"type": "Feature", "properties": {"Climate_Cl": "S", "votes": 1, "cluster_size": 1, "tie": false, "status": "majority", "member_ids": "2507"}, "geometry": {"type": "Point", "coordinates": [-9.2345109471338, -30.09286341293764]}}, {"type": "Feature", "properties": {"Climate_Cl": "D", "votes": 1, "cluster_size": 1, "tie": false, "status": "majority", "member_ids": "2510"}, "geometry": {"type": "Point", "coordinates": [-8.656732303335666, -29.941536302151103]}}, {"type": "Feature", "properties": {"Climate_Cl": "H", "votes": 3, "cluster_size": 6, "tie": true, "status": "tie", "member_ids": "2517,2519,2551,2587,2591,2617"}, "geometry": {"type": "Point", "coordinates": [-26.319538667901288, -0.13292970541890467]}}, {"type": "Feature", "properties": {"Climate_Cl": "S", "votes": 3, "cluster_size": 6, "tie": true, "status": "tie", "member_ids": "2517,2519,2551,2587,2591,2617"}, "geometry": {"type": "Point", "coordinates": [-26.319538667901288, -0.13292970541890467]}}, {"type": "Feature", "properties": {"Climate_Cl": "S", "votes": 3, "cluster_size": 4, "tie": false, "status": "majority", "member_ids": "2535,2536,2599,2600"}, "geometry": {"type": "Point", "coordinates": [-28.8333287882514, -1.645895856022145]}}, {"type": "Feature", "properties": {"Climate_Cl": "H", "votes": 1, "cluster_size": 1, "tie": false, "status": "majority", "member_ids": "2553"}, "geometry": {"type": "Point", "coordinates": [-25.19582686596826, 0.930815797121014]}}, {"type": "Feature", "properties": {"Climate_Cl": "S", "votes": 11, "cluster_size": 13, "tie": false, "status": "majority", "member_ids": "2661,2664,2665,2670,2673,2678,2680,2798,2800,2804,2808,2812,2890"}, "geometry": {"type": "Point", "coordinates": [3.8143455397378685, 5.3966427900249965]}}, {"type": "Feature", "properties": {"Climate_Cl": "S", "votes": 6, "cluster_size": 8, "tie": false, "status": "majority", "member_ids": "2753,2819,2827,2828,2830,2832,2885,2889"}, "geometry": {"type": "Point", "coordinates": [3.373290580844203, 6.92415419010107]}}, {"type": "Feature", "properties": {"Climate_Cl": "S", "votes": 1, "cluster_size": 1, "tie": false, "status": "majority", "member_ids": "2754"}, "geometry": {"type": "Point", "coordinates": [11.999146939978248, 14.4483901267892]}}, {"type": "Feature", "properties": {"Climate_Cl": "H", "votes": 6, "cluster_size": 7, "tie": false, "status": "majority", "member_ids": "2839,2840,2847,2850,2852,2853,2857"}, "geometry": {"type": "Point", "coordinates": [3.9106305203290304, 7.695865109567974]}}, {"type": "Feature", "properties": {"Climate_Cl": "D", "votes": 1, "cluster_size": 1, "tie": false, "status": "majority", "member_ids": "2887"}, "geometry": {"type": "Point", "coordinates": [-1.030904096875944, 8.749968295815032]}}, {"type": "Feature", "properties": {"Climate_Cl": "S", "votes": 1, "cluster_size": 1, "tie": false, "status": "majority", "member_ids": "2977"}, "geometry": {"type": "Point", "coordinates": [-36.83417616414071, -47.01297712821088]}}, {"type": "Feature", "properties": {"Climate_Cl": "S", "votes": 1, "cluster_size": 1, "tie": false, "status": "majority", "member_ids": "2982"}, "geometry": {"type": "Point", "coordinates": [-33.17060861774549, -49.14771962731639]}}, {"type": "Feature", "properties": {"Climate_Cl": "S", "votes": 1, "cluster_size": 1, "tie": false, "status": "majority", "member_ids": "2993"}, "geometry": {"type": "Point", "coordinates": [-34.23238156877677, -48.11329729324667]}}, {"type": "Feature", "properties": {"Climate_Cl": "S", "votes": 1, "cluster_size": 1, "tie": false, "status": "majority", "member_ids": "2996"}, "geometry": {"type": "Point", "coordinates": [-34.81014413554259, -48.093475219675284]}}, {"type": "Feature", "properties": {"Climate_Cl": "H", "votes": 1, "cluster_size": 1, "tie": false, "status": "majority", "member_ids": "2999"}, "geometry": {"type": "Point", "coordinates": [-35.492879288802186, -48.068567023160995]}}, {"type": "Feature", "properties": {"Climate_Cl": "H", "votes": 1, "cluster_size": 1, "tie": false, "status": "majority", "member_ids": "3002"}, "geometry": {"type": "Point", "coordinates": [-46.41698487804957, -4.852234891757468]}}, {"type": "Feature", "properties": {"Climate_Cl": "H", "votes": 1, "cluster_size": 1, "tie": false, "status": "majority", "member_ids": "3003"}, "geometry": {"type": "Point", "coordinates": [-47.0475267087588, -5.719141607278914]}}, {"type": "Feature", "properties": {"Climate_Cl": "H", "votes": 4, "cluster_size": 4, "tie": false, "status": "majority", "member_ids": "3037,3040,3041,3051"}, "geometry": {"type": "Point", "coordinates": [-39.45109850604759, -4.149375509126994]}}, {"type": "Feature", "properties": {"Climate_Cl": "H", "votes": 2, "cluster_size": 3, "tie": false, "status": "majority", "member_ids": "3042,3043,3050"}, "geometry": {"type": "Point", "coordinates": [-40.034916923897654, -4.036051617208603]}}, {"type": "Feature", "properties": {"Climate_Cl": "S", "votes": 1, "cluster_size": 1, "tie": false, "status": "majority", "member_ids": "3074"}, "geometry": {"type": "Point", "coordinates": [-50.65965901751528, -6.017594983928549]}}, {"type": "Feature", "properties": {"Climate_Cl": "H", "votes": 1, "cluster_size": 1, "tie": false, "status": "majority", "member_ids": "3075"}, "geometry": {"type": "Point", "coordinates": [-50.17155107786183, -6.891908317738636]}}, {"type": "Feature", "properties": {"Climate_Cl": "H", "votes": 3, "cluster_size": 6, "tie": true, "status": "tie", "member_ids": "3082,3083,3084,3085,3086,3154"}, "geometry": {"type": "Point", "coordinates": [-50.21965259148757, -4.263709275746861]}}, {"type": "Feature", "properties": {"Climate_Cl": "S", "votes": 3, "cluster_size": 6, "tie": true, "status": "tie", "member_ids": "3082,3083,3084,3085,3086,3154"}, "geometry": {"type": "Point", "coordinates": [-50.21965259148757, -4.263709275746861]}}, {"type": "Feature", "properties": {"Climate_Cl": "H", "votes": 1, "cluster_size": 1, "tie": false, "status": "majority", "member_ids": "3161"}, "geometry": {"type": "Point", "coordinates": [-49.09366948263953, -5.576073536343804]}}, {"type": "Feature", "properties": {"Climate_Cl": "H", "votes": 1, "cluster_size": 1, "tie": false, "status": "majority", "member_ids": "3162"}, "geometry": {"type": "Point", "coordinates": [-48.175655029354395, -4.515466539979037]}}, {"type": "Feature", "properties": {"Climate_Cl": "S", "votes": 1, "cluster_size": 1, "tie": false, "status": "majority", "member_ids": "3169"}, "geometry": {"type": "Point", "coordinates": [-41.73345975386276, -5.654522926443324]}}]}