{"type": "FeatureCollection", "features": [{"type": "Feature", "properties": {"Climate_Cl": "S", "votes": 3, "cluster_size": 4, "tie": false, "status": "majority", "member_ids": "76,78,80,81"}, "geometry": {"type": "Point", "coordinates": [-5.308048556751611, 1.5812508679283126]}}, {"type": "Feature", "properties": {"Climate_Cl": "H", "votes": 2, "cluster_size": 2, "tie": false, "status": "majority", "member_ids": "84,87"}, "geometry": {"type": "Point", "coordinates": [-3.9874815739247635, 1.5846696468021282]}}, {"type": "Feature", "properties": {"Climate_Cl": "H", "votes": 4, "cluster_size": 7, "tie": false, "status": "majority", "member_ids": "156,158,159,165,168,174,177"}, "geometry": {"type": "Point", "coordinates": [-3.6665554031445216, 7.41599418260113]}}, {"type": "Feature", "properties": {"Climate_Cl": "H", "votes": 1, "cluster_size": 3, "tie": true, "status": "tie", "member_ids": "192,193,195"}, "geometry": {"type": "Point", "coordinates": [-10.057882342615303, -35.47447256416169]}}, {"type": "Feature", "properties": {"Climate_Cl": "S", "votes": 1, "cluster_size": 3, "tie": true, "status": "tie", "member_ids": "192,193,195"}, "geometry": {"type": "Point", "coordinates": [-10.057882342615303, -35.47447256416169]}}, {"type": "Feature", "properties": {"Climate_Cl": "D", "votes": 1, "cluster_size": 3, "tie": true, "status": "tie", "member_ids": "192,193,195"}, "geometry": {"type": "Point", "coordinates": [-10.057882342615303, -35.47447256416169]}}, {"type": "Feature", "properties": {"Climate_Cl": "S", "votes": 2, "cluster_size": 2, "tie": false, "status": "majority", "member_ids": "205,229"}, "geometry": {"type": "Point", "coordinates": [-57.450827063785944, -62.377928799258385]}}, {"type": "Feature", "properties": {"Climate_Cl": "S", "votes": 1, "cluster_size": 1, "tie": false, "status": "majority", "member_ids": "246"}, "geometry": {"type": "Point", "coordinates": [-51.39098105401263, -56.82048095202877]}}, {"type": "Feature", "properties": {"Climate_Cl": "S", "votes": 1, "cluster_size": 1, "tie": false, "status": "majority", "member_ids": "247"}, "geometry": {"type": "Point", "coordinates": [-50.78157687438837, -57.21230657138398]}}, {"type": "Feature", "properties": {"Climate_Cl": "H", "votes": 2, "cluster_size": 2, "tie": false, "status": "majority", "member_ids": "256,263"}, "geometry": {"type": "Point", "coordinates": [-53.08396945509847, -62.227287014585755]}}, {"type": "Feature", "properties": {"Climate_Cl": "H", "votes": 1, "cluster_size": 2, "tie": true, "status": "tie", "member_ids": "276,283"}, "geometry": {"type": "Point", "coordinates": [-52.07545348892863, -59.011551075346716]}}, {"type": "Feature", "properties": {"Climate_Cl": "S", "votes": 1, "cluster_size": 2, "tie": true, "status": "tie", "member_ids": "276,283"}, "geometry": {"type": "Point", "coordinates": [-52.07545348892863, -59.011551075346716]}}, {"type": "Feature", "properties": {"Climate_Cl": "D", "votes": 2, "cluster_size": 2, "tie": false, "status": "majority", "member_ids": "303,305"}, "geometry": {"type": "Point", "coordinates": [-50.81348629214794, -51.25577505275897]}}, {"type": "Feature", "properties": {"Climate_Cl": "S", "votes": 1, "cluster_size": 1, "tie": false, "status": "majority", "member_ids": "304"}, "geometry": {"type": "Point", "coordinates": [-50.34087488854492, -50.42328056782089]}}, {"type": "Feature", "properties": {"Climate_Cl": "H", "votes": 1, "cluster_size": 2, "tie": true, "status": "tie", "member_ids": "308,309"}, "geometry": {"type": "Point", "coordinates": [-51.59955851040816, -53.198314467605684]}}, {"type": "Feature", "properties": {"Climate_Cl": "S", "votes": 1, "cluster_size": 2, "tie": true, "status": "tie", "member_ids": "308,309"}, "geometry": {"type": "Point", "coordinates": [-51.59955851040816, -53.198314467605684]}}, {"type": "Feature", "properties": {"Climate_Cl": "S", "votes": 3, "cluster_size": 4, "tie": false, "status": "majority", "member_ids": "343,360,366,372"}, "geometry": {"type": "Point", "coordinates": [-39.90404236674426, -56.77791784048937]}}, {"type": "Feature", "properties": {"Climate_Cl": "S", "votes": 1, "cluster_size": 1, "tie": false, "status": "majority", "member_ids": "376"}, "geometry": {"type": "Point", "coordinates": [-44.3150614757172, -40.0524819594515]}}, {"type": "Feature", "properties": {"Climate_Cl": "S", "votes": 1, "cluster_size": 2, "tie": true, "status": "tie", "member_ids": "398,410"}, "geometry": {"type": "Point", "coordinates": [-46.27510051788516, -46.126600235749045]}}, {"type": "Feature", "properties": {"Climate_Cl": "D", "votes": 1, "cluster_size": 2, "tie": true, "status": "tie", "member_ids": "398,410"}, "geometry": {"type": "Point", "coordinates": [-46.27510051788516, -46.126600235749045]}}, {"type": "Feature", "properties": {"Climate_Cl": "H", "votes": 1, "cluster_size": 2, "tie": true, "status": "tie", "member_ids": "414,425"}, "geometry": {"type": "Point", "coordinates": [-43.00397650728809, -34.31745595395623]}}, {"type": "Feature", "properties": {"Climate_Cl": "S", "votes": 1, "cluster_size": 2, "tie": true, "status": "tie", "member_ids": "414,425"}, "geometry": {"type": "Point", "coordinates": [-43.00397650728809, -34.31745595395623]}}, {"type": "Feature", "properties": {"Climate_Cl": "H", "votes": 6, "cluster_size": 7, "tie": false, "status": "majority", "member_ids": "464,467,636,637,652,656,659"}, "geometry": {"type": "Point", "coordinates": [-12.222910178351455, -28.571408080114548]}}, {"type": "Feature", "properties": {"Climate_Cl": "S", "votes": 3, "cluster_size": 6, "tie": true, "status": "tie", "member_ids": "529,531,552,555,557,569"}, "geometry": {"type": "Point", "coordinates": [-13.714768990375058, -22.10790326284116]}}, {"type": "Feature", "properties": {"Climate_Cl": "D", "votes": 3, "cluster_size": 6, "tie": true, "status": "tie", "member_ids": "529,531,552,555,557,569"}, "geometry": {"type": "Point", "coordinates": [-13.714768990375058, -22.10790326284116]}}, {"type": "Feature", "properties": {"Climate_Cl": "D", "votes": 3, "cluster_size": 3, "tie": false, "status": "majority", "member_ids": "560,563,566"}, "geometry": {"type": "Point", "coordinates": [-14.694281188383096, -22.562148751927438]}}, {"type": "Feature", "properties": {"Climate_Cl": "S", "votes": 2, "cluster_size": 2, "tie": false, "status": "majority", "member_ids": "612,617"}, "geometry": {"type": "Point", "coordinates": [-17.588301952590857, -16.935674502916886]}}, {"type": "Feature", "properties": {"Climate_Cl": "S", "votes": 1, "cluster_size": 1, "tie": false, "status": "majority", "member_ids": "614"}, "geometry": {"type": "Point", "coordinates": [-21.0890450896952, -16.176615456744795]}}, {"type": "Feature", "properties": {"Climate_Cl": "D", "votes": 2, "cluster_size": 2, "tie": false, "status": "majority", "member_ids": "708,709"}, "geometry": {"type": "Point", "coordinates": [-14.145434966045041, -38.03763863176287]}}, {"type": "Feature", "properties": {"Climate_Cl": "D", "votes": 3, "cluster_size": 3, "tie": false, "status": "majority", "member_ids": "710,711,712"}, "geometry": {"type": "Point", "coordinates": [-13.336197946980057, -37.80422188609667]}}, {"type": "Feature", "properties": {"Climate_Cl": "H", "votes": 2, "cluster_size": 4, "tie": false, "status": "majority", "member_ids": "725,727,729,732"}, "geometry": {"type": "Point", "coordinates": [-13.200202900491966, -17.633809478476614]}}, {"type": "Feature", "properties": {"Climate_Cl": "H", "votes": 1, "cluster_size": 1, "tie": false, "status": "majority", "member_ids": "750"}, "geometry": {"type": "Point", "coordinates": [-12.019423690789619, -31.736523765548636]}}, {"type": "Feature", "properties": {"Climate_Cl": "S", "votes": 1, "cluster_size": 2, "tie": true, "status": "tie", "member_ids": "770,774"}, "geometry": {"type": "Point", "coordinates": [-11.243033873998712, -34.703528871445236]}}, {"type": "Feature", "properties": {"Climate_Cl": "D", "votes": 1, "cluster_size": 2, "tie": true, "status": "tie", "member_ids": "770,774"}, "geometry": {"type": "Point", "coordinates": [-11.243033873998712, -34.703528871445236]}}, {"type": "Feature", "properties": {"Climate_Cl": "H", "votes": 1, "cluster_size": 1, "tie": false, "status": "majority", "member_ids": "792"}, "geometry": {"type": "Point", "coordinates": [-23.350965812833238, -12.02436667278873]}}, {"type": "Feature", "properties": {"Climate_Cl": "H", "votes": 1, "cluster_size": 1, "tie": false, "status": "majority", "member_ids": "808"}, "geometry": {"type": "Point", "coordinates": [-25.07610161843697, -10.469930613876151]}}, {"type": "Feature", "properties": {"Climate_Cl": "S", "votes": 2, "cluster_size": 3, "tie": false, "status": "majority", "member_ids": "825,830,832"}, "geometry": {"type": "Point", "coordinates": [-20.163136787412462, -18.993363971863356]}}, {"type": "Feature", "properties": {"Climate_Cl": "S", "votes": 2, "cluster_size": 3, "tie": false, "status": "majority", "member_ids": "840,844,2033"}, "geometry": {"type": "Point", "coordinates": [-10.89296334353088, -27.29177478333986]}}, {"type": "Feature", "properties": {"Climate_Cl": "D", "votes": 2, "cluster_size": 3, "tie": false, "status": "majority", "member_ids": "857,2034,2035"}, "geometry": {"type": "Point", "coordinates": [-11.653441335315376, -27.561256469847535]}}, {"type": "Feature", "properties": {"Climate_Cl": "D", "votes": 2, "cluster_size": 3, "tie": false, "status": "majority", "member_ids": "861,864,867"}, "geometry": {"type": "Point", "coordinates": [-12.292857480465216, -23.841231640534208]}}, {"type": "Feature", "properties": {"Climate_Cl": "S", "votes": 2, "cluster_size": 2, "tie": false, "status": "majority", "member_ids": "880,885"}, "geometry": {"type": "Point", "coordinates": [-11.693011584155903, -23.867902762367294]}}, {"type": "Feature", "properties": {"Climate_Cl": "H", "votes": 2, "cluster_size": 4, "tie": false, "status": "majority", "member_ids": "911,913,916,918"}, "geometry": {"type": "Point", "coordinates": [-11.004138681636585, -30.182908088941282]}}, {"type": "Feature", "properties": {"Climate_Cl": "S", "votes": 1, "cluster_size": 1, "tie": false, "status": "majority", "member_ids": "927"}, "geometry": {"type": "Point", "coordinates": [-24.902733525837736, -17.023725975073756]}}, {"type": "Feature", "properties": {"Climate_Cl": "H", "votes": 1, "cluster_size": 3, "tie": true, "status": "tie", "member_ids": "954,957,961"}, "geometry": {"type": "Point", "coordinates": [-13.081653063521694, -32.78664799842445]}}, {"type": "Feature", "properties": {"Climate_Cl": "S", "votes": 1, "cluster_size": 3, "tie": true, "status": "tie", "member_ids": "954,957,961"}, "geometry": {"type": "Point", "coordinates": [-13.081653063521694, -32.78664799842445]}}, {"type": "Feature", "properties": {"Climate_Cl": "D", "votes": 1, "cluster_size": 3, "tie": true, "status": "tie", "member_ids": "954,957,961"}, "geometry": {"type": "Point", "coordinates": [-13.081653063521694, -32.78664799842445]}}, {"type": "Feature", "properties": {"Climate_Cl": "S", "votes": 1, "cluster_size": 1, "tie": false, "status": "majority", "member_ids": "991"}, "geometry": {"type": "Point", "coordinates": [-19.71808867712919, -14.984806805990264]}}, {"type": "Feature", "properties": {"Climate_Cl": "D", "votes": 1, "cluster_size": 1, "tie": false, "status": "majority", "member_ids": "1006"}, "geometry": {"type": "Point", "coordinates": [-29.677825246852034, -37.96359418204821]}}, {"type": "Feature", "properties": {"Climate_Cl": "D", "votes": 2, "cluster_size": 2, "tie": false, "status": "majority", "member_ids": "1010,1014"}, "geometry": {"type": "Point", "coordinates": [-28.61459325618879, -38.76485780578255]}}, {"type": "Feature", "properties": {"Climate_Cl": "D", "votes": 2, "cluster_size": 2, "tie": false, "status": "majority", "member_ids": "1067,1068"}, "geometry": {"type": "Point", "coordinates": [-32.62717207534808, -26.873150925697256]}}, {"type": "Feature", "properties": {"Climate_Cl": "S", "votes": 1, "cluster_size": 1, "tie": false, "status": "majority", "member_ids": "1070"}, "geometry": {"type": "Point", "coordinates": [-18.528307816515724, -20.9611836317295]}}, {"type": "Feature", "properties": {"Climate_Cl": "S", "votes": 2, "cluster_size": 2, "tie": false, "status": "majority", "member_ids": "1077,1080"}, "geometry": {"type": "Point", "coordinates": [-18.519444050965966, -18.9603440549041]}}, {"type": "Feature", "properties": {"Climate_Cl": "S", "votes": 1, "cluster_size": 1, "tie": false, "status": "majority", "member_ids": "1078"}, "geometry": {"type": "Point", "coordinates": [-17.35497133116539, -18.92997094069173]}}, {"type": "Feature", "properties": {"Climate_Cl": "S", "votes": 1, "cluster_size": 1, "tie": false, "status": "majority", "member_ids": "1079"}, "geometry": {"type": "Point", "coordinates": [-20.821147995538798, -21.003549011884196]}}, {"type": "Feature", "properties": {"Climate_Cl": "S", "votes": 1, "cluster_size": 1, "tie": false, "status": "majority", "member_ids": "1081"}, "geometry": {"type": "Point", "coordinates": [-15.850628351103447, -53.91100455368534]}}, {"type": "Feature", "properties": {"Climate_Cl": "S", "votes": 1, "cluster_size": 1, "tie": false, "status": "majority", "member_ids": "1136"}, "geometry": {"type": "Point", "coordinates": [-12.902661617070931, -43.7952661845956]}}, {"type": "Feature", "properties": {"Climate_Cl": "S", "votes": 1, "cluster_size": 1, "tie": false, "status": "majority", "member_ids": "1270"}, "geometry": {"type": "Point", "coordinates": [-10.224051026690825, -17.616004818972947]}}, {"type": "Feature", "properties": {"Climate_Cl": "S", "votes": 1, "cluster_size": 1, "tie": false, "status": "majority", "member_ids": "1276"}, "geometry": {"type": "Point", "coordinates": [-10.724472030850418, -19.90512055942285]}}, {"type": "Feature", "properties": {"Climate_Cl": "S", "votes": 3, "cluster_size": 4, "tie": false, "status": "majority", "member_ids": "1278,1283,1298,1300"}, "geometry": {"type": "Point", "coordinates": [-12.304612764789969, -27.243369133178057]}}, {"type": "Feature", "properties": {"Climate_Cl": "S", "votes": 6, "cluster_size": 11, "tie": false, "status": "majority", "member_ids": "1328,1329,1330,1333,1340,1341,1359,1360,1361,1362,1363"}, "geometry": {"type": "Point", "coordinates": [-12.521329591766413, -21.56034850643717]}}, {"type": "Feature", "properties": {"Climate_Cl": "S", "votes": 12, "cluster_size": 22, "tie": false, "status": "majority", "member_ids": "1364,1365,1366,1367,1368,1369,1370,1371,1372,1373,1454,1455,1458,1459,1460,1461,1462,1463,1464,1465,1513,1514"}, "geometry": {"type": "Point", "coordinates": [-20.604434551382052, -33.001920046581084]}}, {"type": "Feature", "properties": {"Climate_Cl": "S", "votes": 2, "cluster_size": 2, "tie": false, "status": "majority", "member_ids": "1456,1457"}, "geometry": {"type": "Point", "coordinates": [-20.705054182513337, -34.00348759733615]}}, {"type": "Feature", "properties": {"Climate_Cl": "S", "votes": 1, "cluster_size": 1, "tie": false, "status": "majority", "member_ids": "1516"}, "geometry": {"type": "Point", "coordinates": [-16.00280653969265, -40.90312041306936]}}, {"type": "Feature", "properties": {"Climate_Cl": "S", "votes": 1, "cluster_size": 1, "tie": false, "status": "majority", "member_ids": "1518"}, "geometry": {"type": "Point", "coordinates": [-18.78974452384815, -40.473110725720666]}}, {"type": "Feature", "properties": {"Climate_Cl": "H", "votes": 1, "cluster_size": 1, "tie": false, "status": "majority", "member_ids": "1548"}, "geometry": {"type": "Point", "coordinates": [-20.624304984960016, -17.240338886935998]}}, {"type": "Feature", "properties": {"Climate_Cl": "S", "votes": 3, "cluster_size": 4, "tie": false, "status": "majority", "member_ids": "1591,1609,1620,1631"}, "geometry": {"type": "Point", "coordinates": [-9.13340287640381, -25.567096869690317]}}, {"type": "Feature", "properties": {"Climate_Cl": "H", "votes": 2, "cluster_size": 2, "tie": false, "status": "majority", "member_ids": "1639,1640"}, "geometry": {"type": "Point", "coordinates": [-40.99350194633738, -19.41365330189725]}}, {"type": "Feature", "properties": {"Climate_Cl": "H", "votes": 1, "cluster_size": 1, "tie": false, "status": "majority", "member_ids": "1641"}, "geometry": {"type": "Point", "coordinates": [-37.830256263707994, -19.619957940907952]}}, {"type": "Feature", "properties": {"Climate_Cl": "S", "votes": 1, "cluster_size": 2, "tie": true, "status": "tie", "member_ids": "1696,1701"}, "geometry": {"type": "Point", "coordinates": [-12.453091700635033, -24.746932887645194]}}, {"type": "Feature", "properties": {"Climate_Cl": "D", "votes": 1, "cluster_size": 2, "tie": true, "status": "tie", "member_ids": "1696,1701"}, "geometry": {"type": "Point", "coordinates": [-12.453091700635033, -24.746932887645194]}}, {"type": "Feature", "properties": {"Climate_Cl": "H", "votes": 1, "cluster_size": 2, "tie": true, "status": "tie", "member_ids": "1707,1714"}, "geometry": {"type": "Point", "coordinates": [-7.405271034972903, -21.84983297790824]}}, {"type": "Feature", "properties": {"Climate_Cl": "S", "votes": 1, "cluster_size": 2, "tie": true, "status": "tie", "member_ids": "1707,1714"}, "geometry": {"type": "Point", "coordinates": [-7.405271034972903, -21.84983297790824]}}, {"type": "Feature", "properties": {"Climate_Cl": "H", "votes": 25, "cluster_size": 48, "tie": false, "status": "majority", "member_ids": "1726,1729,1733,1737,1741,1745,1749,1752,1753,1756,1757,1761,1765,1769,1773,1777,1781,1785,1789,1793,1797,1801,1804,1806,1809,1813,2139,2140,2141,2142,2143,2144,2145,2146,2147,2148,2149,2150,2151,2152,2153,2154,2155,2156,2157,2158,2159,2160"}, "geometry": {"type": "Point", "coordinates": [-7.019345666178043, -20.539449250391144]}}, {"type": "Feature", "properties": {"Climate_Cl": "S", "votes": 3, "cluster_size": 3, "tie": false, "status": "majority", "member_ids": "1839,1843,1849"}, "geometry": {"type": "Point", "coordinates": [-1.0222679317510195, -18.722339249039525]}}, {"type": "Feature", "properties": {"Climate_Cl": "S", "votes": 1, "cluster_size": 1, "tie": false, "status": "majority", "member_ids": "1850"}, "geometry": {"type": "Point", "coordinates": [5.155837203960983, -21.135948146297938]}}, {"type": "Feature", "properties": {"Climate_Cl": "S", "votes": 2, "cluster_size": 2, "tie": false, "status": "majority", "member_ids": "1880,1882"}, "geometry": {"type": "Point", "coordinates": [-49.04294615211374, -41.85629009335257]}}, {"type": "Feature", "properties": {"Climate_Cl": "S", "votes": 1, "cluster_size": 1, "tie": false, "status": "majority", "member_ids": "2006"}, "geometry": {"type": "Point", "coordinates": [-54.35767077589372, -16.07054060430349]}}, {"type": "Feature", "properties": {"Climate_Cl": "S", "votes": 1, "cluster_size": 1, "tie": false, "status": "majority", "member_ids": "2045"}, "geometry": {"type": "Point", "coordinates": [-14.610356758149745, -17.302977833722387]}}, {"type": "Feature", "properties": {"Climate_Cl": "H", "votes": 1, "cluster_size": 1, "tie": false, "status": "majority", "member_ids": "2110"}, "geometry": {"type": "Point", "coordinates": [5.081624645463102, 2.493145356024769]}}, {"type": "Feature", "properties": {"Climate_Cl": "S", "votes": 4, "cluster_size": 4, "tie": false, "status": "majority", "member_ids": "2205,2206,2207,2208"}, "geometry": {"type": "Point", "coordinates": [-11.902586140736837, 9.121534653772994]}}, {"type": "Feature", "properties": {"Climate_Cl": "S", "votes": 1, "cluster_size": 2, "tie": true, "status": "tie", "member_ids": "2221,2223"}, "geometry": {"type": "Point", "coordinates": [-9.971413497738167, 9.326379722422324]}}, {"type": "Feature", "properties": {"Climate_Cl": "D", "votes": 1, "cluster_size": 2, "tie": true, "status": "tie", "member_ids": "2221,2223"}, "geometry": {"type": "Point", "coordinates": [-9.971413497738167, 9.326379722422324]}}, {"type": "Feature", "properties": {"Climate_Cl": "S", "votes": 1, "cluster_size": 1, "tie": false, "status": "majority", "member_ids": "2249"}, "geometry": {"type": "Point", "coordinates": [-14.264823226469602, -39.90822852943737]}}, {"type": "Feature", "properties": {"Climate_Cl": "S", "votes": 1, "cluster_size": 1, "tie": false, "status": "majority", "member_ids": "2266"}, "geometry": {"type": "Point", "coordinates": [-4.570338252882625, -9.655645617865865]}}, {"type": "Feature", "properties": {"Climate_Cl": "H", "votes": 12, "cluster_size": 12, "tie": false, "status": "majority", "member_ids": "2275,2279,2283,2287,2291,2295,2299,2303,2307,2311,2315,2319"}, "geometry": {"type": "Point", "coordinates": [-2.8334582899570933, -17.191756356518216]}}, {"type": "Feature", "properties": {"Climate_Cl": "S", "votes": 1, "cluster_size": 1, "tie": false, "status": "majority", "member_ids": "2326"}, "geometry": {"type": "Point", "coordinates": [-3.170639830887403, -18.148958083279606]}}, {"type": "Feature", "properties": {"Climate_Cl": "H", "votes": 1, "cluster_size": 1, "tie": false, "status": "majority", "member_ids": "2401"}, "geometry": {"type": "Point", "coordinates": [-49.3887910017982, -29.736362132438856]}}, {"type": "Feature", "properties": {"Climate_Cl": "S", "votes": 1, "cluster_size": 2, "tie": true, "status": "tie", "member_ids": "2415,2416"}, "geometry": {"type": "Point", "coordinates": [-53.535311797489435, -23.232309372235157]}}, {"type": "Feature", "properties": {"Climate_Cl": "D", "votes": 1, "cluster_size": 2, "tie": true, "status": "tie", "member_ids": "2415,2416"}, "geometry": {"type": "Point", "coordinates": [-53.535311797489435, -23.232309372235157]}}, {"type": "Feature", "properties": {"Climate_Cl": "H", "votes": 1, "cluster_size": 1, "tie": false, "status": "majority", "member_ids": "2443"}, "geometry": {"type": "Point", "coordinates": [-54.049824153303966, -24.178790222645315]}}, {"type": "Feature", "properties": {"Climate_Cl": "H", "votes": 1, "cluster_size": 1, "tie": false, "status": "majority", "member_ids": "2459"}, "geometry": {"type": "Point", "coordinates": [-52.8807912262955, -19.277803381397657]}}, {"type": "Feature", "properties": {"Climate_Cl": "H", "votes": 1, "cluster_size": 1, "tie": false, "status": "majority", "member_ids": "2487"}, "geometry": {"type": "Point", "coordinates": [-50.56968453006217, -23.571515215435518]}}, {"type": "Feature", "properties": {"Climate_Cl": "S", "votes": 1, "cluster_size": 1, "tie": false, "status": "majority", "member_ids": "2495"}, "geometry": {"type": "Point", "coordinates": [-51.100155317741695, -21.498942310330275]}}, {"type": "Feature", "properties": {"Climate_Cl": "S", "votes": 1, "cluster_size": 1, "tie": false, "status": "majority", "member_ids": "2511"}, "geometry": {"type": "Point", "coordinates": [-9.830340927826544, -31.14860274456548]}}, {"type": "Feature", "properties": {"Climate_Cl": "S", "votes": 3, "cluster_size": 4, "tie": false, "status": "majority", "member_ids": "2518,2552,2590,2616"}, "geometry": {"type": "Point", "coordinates": [-25.836538738607658, -0.8646639248206269]}}, {"type": "Feature", "properties": {"Climate_Cl": "S", "votes": 2, "cluster_size": 2, "tie": false, "status": "majority", "member_ids": "2534,2598"}, "geometry": {"type": "Point", "coordinates": [-28.401896524841284, -2.30316529775315]}}, {"type": "Feature", "properties": {"Climate_Cl": "S", "votes": 1, "cluster_size": 1, "tie": false, "status": "majority", "member_ids": "2636"}, "geometry": {"type": "Point", "coordinates": [-24.775134043325426, -60.09419244435595]}}, {"type": "Feature", "properties": {"Climate_Cl": "S", "votes": 1, "cluster_size": 1, "tie": false, "status": "majority", "member_ids": "2638"}, "geometry": {"type": "Point", "coordinates": [-24.54846619377802, -57.960101359242444]}}, {"type": "Feature", "properties": {"Climate_Cl": "H", "votes": 1, "cluster_size": 1, "tie": false, "status": "majority", "member_ids": "2648"}, "geometry": {"type": "Point", "coordinates": [-24.06681791340047, -57.27633033861849]}}, {"type": "Feature", "properties": {"Climate_Cl": "S", "votes": 10, "cluster_size": 17, "tie": false, "status": "majority", "member_ids": "2660,2676,2780,2783,2786,2789,2792,2794,2796,2797,2799,2802,2803,2806,2807,2810,2811"}, "geometry": {"type": "Point", "coordinates": [4.467666856020376, 3.7945755240741517]}}, {"type": "Feature", "properties": {"Climate_Cl": "S", "votes": 14, "cluster_size": 22, "tie": false, "status": "majority", "member_ids": "2769,2772,2775,2829,2831,2842,2843,2844,2845,2846,2848,2849,2851,2854,2855,2856,2876,2884,2888,2893,2894,2896"}, "geometry": {"type": "Point", "coordinates": [4.514586742670967, 5.810167199621353]}}, {"type": "Feature", "properties": {"Climate_Cl": "S", "votes": 2, "cluster_size": 2, "tie": false, "status": "majority", "member_ids": "2777,2892"}, "geometry": {"type": "Point", "coordinates": [3.63894919152087, 5.769794990794296]}}, {"type": "Feature", "properties": {"Climate_Cl": "D", "votes": 1, "cluster_size": 1, "tie": false, "status": "majority", "member_ids": "2886"}, "geometry": {"type": "Point", "coordinates": [-0.298187252897216, 7.327737833383102]}}, {"type": "Feature", "properties": {"Climate_Cl": "S", "votes": 1, "cluster_size": 1, "tie": false, "status": "majority", "member_ids": "2981"}, "geometry": {"type": "Point", "coordinates": [-31.271207395139037, -49.93228988591686]}}, {"type": "Feature", "properties": {"Climate_Cl": "H", "votes": 1, "cluster_size": 1, "tie": false, "status": "majority", "member_ids": "3034"}, "geometry": {"type": "Point", "coordinates": [-37.763007232033914, -4.949864176736024]}}, {"type": "Feature", "properties": {"Climate_Cl": "H", "votes": 2, "cluster_size": 2, "tie": false, "status": "majority", "member_ids": "3035,3049"}, "geometry": {"type": "Point", "coordinates": [-38.34765452457192, -4.837502744870113]}}, {"type": "Feature", "properties": {"Climate_Cl": "H", "votes": 1, "cluster_size": 1, "tie": false, "status": "majority", "member_ids": "3036"}, "geometry": {"type": "Point", "coordinates": [-39.0710444730904, -4.154860592131768]}}, {"type": "Feature", "properties": {"Climate_Cl": "S", "votes": 2, "cluster_size": 2, "tie": false, "status": "majority", "member_ids": "3080,3081"}, "geometry": {"type": "Point", "coordinates": [-48.546972392719546, -4.993224825608978]}}]}