{"type": "FeatureCollection", "features": [{"type": "Feature", "properties": {"ID": "371", "Country": "Argentina", "Basin_Sub_": "Rawson", "Group": " ", "Formation": "Syn-rift sequence III", "Member": null, "Well name/ outcrop": "Ayra x-1 well", "Latitude": "-42.17", "Longitude": "-60.83", "Dating evidence": "Seismic correlations; Authigenic illite radiometric ages: 109 ?18 Ma", "REF(Authors, Year)": "Continanzia et al., 2011", "Show_on_Ma": "125", "Lithology, structures, paleowind": "Reddish to brownish sandstones and mudstones; red beds", "Paleoenvironment": "Arid fluvial; alluvial fans; floodplains", "REF (Authors, Year)": "Continanzia et al., 2011", "Fossil occurrences": null, "REF (Authors, Year)_1": null, "Geochemistry data": null, "REF (Authors, Year)_2": null, "Sediment-based climate inference (hot/cold, humid/semi-arid/desert)": "Arid", "Fossil-based climate inference (hot/cold, humid/semi-arid/desert)": null, "Geochemistry-based climate inference  (hot/cold, humid/semi-arid/desert)": null, "Climate assignment leading evidence": "Arid fluvial deposits", "Climate_Cl": "D", "Weight": "2", "PlateID": "283", "Sediment-based climate inference (hot/cold, humid/S/desert)": null, "Fossil-based climate inference (hot/cold, humid/S/desert)": null, "Geochemistry-based climate inference  (hot/cold, humid/S/desert)": null, "PaleozonaCodigo": null, "layer": "125.00Ma_point", "path": "C:/Users/Leonardo Bachi/OneDrive/Desktop/ITT_OCEANEON/20_SETEMBRO_TABELA_FINAL/PONTOS_RETIFICADOS/125.00Ma.geojson", "winner": "S", "cluster_size": 4}, "geometry": {"type": "Point", "coordinates": [-38.926674171197824, -58.06971991761857]}}, {"type": "Feature", "properties": {"ID": "570", "Country": "Brazil", "Basin_Sub_": "Araripe", "Group": "Santana", "Formation": "Ipubi", "Member": "N/A", "Well name/ outcrop": "General location", "Latitude": "-7.5", "Longitude": "-39.5", "Dating evidence": "Radiometric age: Re/Os - 123 ?3.5 Ma", "REF(Authors, Year)": "Lucio et al., 2020", "Show_on_Ma": "125", "Lithology, structures, paleowind": "Evaporites (gypsum, lenticular bodies) and marly shale", "Paleoenvironment": "Coastal/lacustrine, anoxic, hypersaline; playa-lake", "REF (Authors, Year)": "Assine et al., 2007", "Fossil occurrences": "Palynomorphs - Afropollis, Araucariacites, Classopollis, Equisetosporites, Gnetaceaepollenites", "REF (Authors, Year)_1": "Goldberg et al., 2019", "Geochemistry data": "N/A", "REF (Authors, Year)_2": "N/A", "Sediment-based climate inference (hot/cold, humid/semi-arid/desert)": "Dry, hot", "Fossil-based climate inference (hot/cold, humid/semi-arid/desert)": "Dry, hot", "Geochemistry-based climate inference  (hot/cold, humid/semi-arid/desert)": "N/A", "Climate assignment leading evidence": "Playa-lakes, palynomorph assemblage", "Climate_Cl": "S", "Weight": "6", "PlateID": "201", "Sediment-based climate inference (hot/cold, humid/S/desert)": null, "Fossil-based climate inference (hot/cold, humid/S/desert)": null, "Geochemistry-based climate inference  (hot/cold, humid/S/desert)": null, "PaleozonaCodigo": null, "layer": "125.00Ma_point", "path": "C:/Users/Leonardo Bachi/OneDrive/Desktop/ITT_OCEANEON/20_SETEMBRO_TABELA_FINAL/PONTOS_RETIFICADOS/125.00Ma.geojson", "winner": "D", "cluster_size": 4}, "geometry": {"type": "Point", "coordinates": [-12.946764132214312, -23.3027040542014]}}, {"type": "Feature", "properties": {"ID": "1312", "Country": "Brazil", "Basin_Sub_": "Recôncavo", "Group": "Santo Amaro / Ilhas", "Formation": "Pojuca", "Member": "N/A", "Well name/ outcrop": "9-FBA-65-BA", "Latitude": "-12.5", "Longitude": "-38.5", "Dating evidence": "Biostratigraphy palinomorphs: Vitreisporites pallidus", "REF(Authors, Year)": "Portela, 2012", "Show_on_Ma": "125", "Lithology, structures, paleowind": "Shales and sandstones", "Paleoenvironment": "Continental: fluvial deltaic-lacustrine", "REF (Authors, Year)": "Portela, 2012", "Fossil occurrences": "Dicheiropollis etruscus, Vitreisporites pallidus", "REF (Authors, Year)_1": "Portela, 2012", "Geochemistry data": "Type II, TOC (1,5%), Pyrolysis and Rock-Eval", "REF (Authors, Year)_2": "Portela, 2012", "Sediment-based climate inference (hot/cold, humid/semi-arid/desert)": "N/A", "Fossil-based climate inference (hot/cold, humid/semi-arid/desert)": "Hot, Semi-Arid", "Geochemistry-based climate inference  (hot/cold, humid/semi-arid/desert)": "N/A", "Climate assignment leading evidence": "N/A", "Climate_Cl": "D", "Weight": "6", "PlateID": "201", "Sediment-based climate inference (hot/cold, humid/S/desert)": null, "Fossil-based climate inference (hot/cold, humid/S/desert)": null, "Geochemistry-based climate inference  (hot/cold, humid/S/desert)": null, "PaleozonaCodigo": null, "layer": "125.00Ma_point", "path": "C:/Users/Leonardo Bachi/OneDrive/Desktop/ITT_OCEANEON/20_SETEMBRO_TABELA_FINAL/PONTOS_RETIFICADOS/125.00Ma.geojson", "winner": "S", "cluster_size": 6}, "geometry": {"type": "Point", "coordinates": [-11.480387434552048, -28.224797361950177]}}, {"type": "Feature", "properties": {"ID": "1325", "Country": "Brazil", "Basin_Sub_": "Rio do Peixe", "Group": "Rio do Peixe", "Formation": "Antenor Navarro", "Member": null, "Well name/ outcrop": null, "Latitude": "-6.75", "Longitude": "-38.333333", "Dating evidence": "Palynomorphs", "REF(Authors, Year)": "Lima and Coelho (1987)", "Show_on_Ma": "125", "Lithology, structures, paleowind": "Conglomerates, coarse sandstones, sandstones interbedded with silstones", "Paleoenvironment": "Fan deltas, alluvial fans, fluvial (braided)", "REF (Authors, Year)": "Carvalho et al., 2013", "Fossil occurrences": "Ichnofossils: theropod trackways", "REF (Authors, Year)_1": "Carvalho et al., 2013", "Geochemistry data": null, "REF (Authors, Year)_2": null, "Sediment-based climate inference (hot/cold, humid/semi-arid/desert)": "Coarser sediments suggest drier climates with occasional periods of flash floods", "Fossil-based climate inference (hot/cold, humid/semi-arid/desert)": "Poorly preserved footprints indicate drier environments, with the footprints being created in coarser sediments during periods of occasional floods", "Geochemistry-based climate inference  (hot/cold, humid/semi-arid/desert)": null, "Climate assignment leading evidence": "Badly preserved trackways, coarser sediments", "Climate_Cl": "D", "Weight": "2", "PlateID": "201", "Sediment-based climate inference (hot/cold, humid/S/desert)": null, "Fossil-based climate inference (hot/cold, humid/S/desert)": null, "Geochemistry-based climate inference  (hot/cold, humid/S/desert)": null, "PaleozonaCodigo": null, "layer": "125.00Ma_point", "path": "C:/Users/Leonardo Bachi/OneDrive/Desktop/ITT_OCEANEON/20_SETEMBRO_TABELA_FINAL/PONTOS_RETIFICADOS/125.00Ma.geojson", "winner": "S", "cluster_size": 11}, "geometry": {"type": "Point", "coordinates": [-11.746971358881064, -22.47749194262574]}}, {"type": "Feature", "properties": {"ID": "1326", "Country": "Brazil", "Basin_Sub_": "Rio do Peixe", "Group": "Rio do Peixe", "Formation": "Antenor Navarro", "Member": null, "Well name/ outcrop": "S?io Salguinho", "Latitude": "-6.75", "Longitude": "-38.483333", "Dating evidence": "Palynomorphs", "REF(Authors, Year)": "Lima and Coelho (1987)", "Show_on_Ma": "125", "Lithology, structures, paleowind": "Coarse arkoses and conglomeratic lithic sandstones with trough-cross bedding", "Paleoenvironment": "Braided rivers in distal alluvial fans", "REF (Authors, Year)": "Carvalho et al., 2017", "Fossil occurrences": "Ichnofossils: arthropods: Taenidium barreti, Phycodes isp.", "REF (Authors, Year)_1": "Carvalho et al., 2017", "Geochemistry data": null, "REF (Authors, Year)_2": null, "Sediment-based climate inference (hot/cold, humid/semi-arid/desert)": "Coarser sediments suggest drier climates with occasional periods of flash floods", "Fossil-based climate inference (hot/cold, humid/semi-arid/desert)": "Mostly dry environment subjected to occasional torrential floods.", "Geochemistry-based climate inference  (hot/cold, humid/semi-arid/desert)": null, "Climate assignment leading evidence": "Monospecific trace fossil assemblages on top of sandy bars and channel banks", "Climate_Cl": "D", "Weight": "3", "PlateID": "201", "Sediment-based climate inference (hot/cold, humid/S/desert)": null, "Fossil-based climate inference (hot/cold, humid/S/desert)": null, "Geochemistry-based climate inference  (hot/cold, humid/S/desert)": null, "PaleozonaCodigo": null, "layer": "125.00Ma_point", "path": "C:/Users/Leonardo Bachi/OneDrive/Desktop/ITT_OCEANEON/20_SETEMBRO_TABELA_FINAL/PONTOS_RETIFICADOS/125.00Ma.geojson", "winner": "S", "cluster_size": 11}, "geometry": {"type": "Point", "coordinates": [-11.907802390275947, -22.487742526827624]}}, {"type": "Feature", "properties": {"ID": "1327", "Country": "Brazil", "Basin_Sub_": "Rio do Peixe", "Group": "Rio do Peixe", "Formation": "Antenor Navarro", "Member": null, "Well name/ outcrop": "S?io Saco", "Latitude": "-6.56", "Longitude": "-38.571056", "Dating evidence": "Biostratigraphy: ostracods and palinomorphs", "REF(Authors, Year)": "C?doba et al., 2008", "Show_on_Ma": "125", "Lithology, structures, paleowind": null, "Paleoenvironment": null, "REF (Authors, Year)": "Ribeiro, 2020", "Fossil occurrences": null, "REF (Authors, Year)_1": null, "Geochemistry data": null, "REF (Authors, Year)_2": null, "Sediment-based climate inference (hot/cold, humid/semi-arid/desert)": "Arid, dry", "Fossil-based climate inference (hot/cold, humid/semi-arid/desert)": null, "Geochemistry-based climate inference  (hot/cold, humid/semi-arid/desert)": null, "Climate assignment leading evidence": "presence of carbonate facies as suggesting an hypersaline context and saturated under an arid climate, corroborated by the presence of braided fluvial system with unstable margins due to poorly developed soil and sparse vegetation. The presence of linsen heterolothic structures indicates tide action in the area.", "Climate_Cl": "D", "Weight": "1", "PlateID": "201", "Sediment-based climate inference (hot/cold, humid/S/desert)": null, "Fossil-based climate inference (hot/cold, humid/S/desert)": null, "Geochemistry-based climate inference  (hot/cold, humid/S/desert)": null, "PaleozonaCodigo": null, "layer": "125.00Ma_point", "path": "C:/Users/Leonardo Bachi/OneDrive/Desktop/ITT_OCEANEON/20_SETEMBRO_TABELA_FINAL/PONTOS_RETIFICADOS/125.00Ma.geojson", "winner": "S", "cluster_size": 11}, "geometry": {"type": "Point", "coordinates": [-12.01583075931753, -22.304123522260408]}}, {"type": "Feature", "properties": {"ID": "1339", "Country": "Brazil", "Basin_Sub_": "Rio do Peixe", "Group": "Rio do Peixe", "Formation": "Rio Piranhas", "Member": null, "Well name/ outcrop": null, "Latitude": "-6.75", "Longitude": "-38.333333", "Dating evidence": "Palynomorphs", "REF(Authors, Year)": "Lima and Coelho (1987)", "Show_on_Ma": "125", "Lithology, structures, paleowind": "Conglomerates, coarse sandstones, sandstones interbedded with silstones", "Paleoenvironment": "Fan deltas, alluvial fans, fluvial (braided)", "REF (Authors, Year)": "Carvalho et al., 2013", "Fossil occurrences": "Ichnofossils: theropod trackways", "REF (Authors, Year)_1": "Carvalho et al., 2013", "Geochemistry data": null, "REF (Authors, Year)_2": null, "Sediment-based climate inference (hot/cold, humid/semi-arid/desert)": "Coarser sediments suggest drier climates with occasional periods of flash floods", "Fossil-based climate inference (hot/cold, humid/semi-arid/desert)": "Poorly preserved footprints indicate drier environments, with the footprints being created in coarser sediments during periods of occasional floods", "Geochemistry-based climate inference  (hot/cold, humid/semi-arid/desert)": null, "Climate assignment leading evidence": "Badly preserved trackways, coarser sediments", "Climate_Cl": "D", "Weight": "2", "PlateID": "201", "Sediment-based climate inference (hot/cold, humid/S/desert)": null, "Fossil-based climate inference (hot/cold, humid/S/desert)": null, "Geochemistry-based climate inference  (hot/cold, humid/S/desert)": null, "PaleozonaCodigo": null, "layer": "125.00Ma_point", "path": "C:/Users/Leonardo Bachi/OneDrive/Desktop/ITT_OCEANEON/20_SETEMBRO_TABELA_FINAL/PONTOS_RETIFICADOS/125.00Ma.geojson", "winner": "S", "cluster_size": 11}, "geometry": {"type": "Point", "coordinates": [-11.746971358881064, -22.47749194262574]}}, {"type": "Feature", "properties": {"ID": "1355", "Country": "Brazil", "Basin_Sub_": "Rio do Peixe", "Group": "Rio do Peixe", "Formation": "Sousa", "Member": null, "Well name/ outcrop": null, "Latitude": "-6.75", "Longitude": "-38.333333", "Dating evidence": "Palynomorphs", "REF(Authors, Year)": "Lima and Coelho (1987)", "Show_on_Ma": "125", "Lithology, structures, paleowind": "Clastic rocks with occasional carbonate cimentation", "Paleoenvironment": "Alluvial fans in the borders of the basin, meadering fluvial system with lakes in its inundation plain in the center of the basin", "REF (Authors, Year)": "Carvalho, 2014", "Fossil occurrences": "Conchostracean: Palaeolimnadiopsis reali, Palaeolimnadiopsis freybergi, Estheriella brasiliensis, Estheriella lualabensis, Cyzicus brauni, Cyzicus cassambensis", "REF (Authors, Year)_1": "Carvalho, 2014", "Geochemistry data": null, "REF (Authors, Year)_2": null, "Sediment-based climate inference (hot/cold, humid/semi-arid/desert)": null, "Fossil-based climate inference (hot/cold, humid/semi-arid/desert)": null, "Geochemistry-based climate inference  (hot/cold, humid/semi-arid/desert)": null, "Climate assignment leading evidence": " conchostracean Palaeolimnadiopsis reali", "Climate_Cl": "H", "Weight": "3", "PlateID": "201", "Sediment-based climate inference (hot/cold, humid/S/desert)": null, "Fossil-based climate inference (hot/cold, humid/S/desert)": null, "Geochemistry-based climate inference  (hot/cold, humid/S/desert)": null, "PaleozonaCodigo": null, "layer": "125.00Ma_point", "path": "C:/Users/Leonardo Bachi/OneDrive/Desktop/ITT_OCEANEON/20_SETEMBRO_TABELA_FINAL/PONTOS_RETIFICADOS/125.00Ma.geojson", "winner": "S", "cluster_size": 11}, "geometry": {"type": "Point", "coordinates": [-11.746971358881064, -22.47749194262574]}}, {"type": "Feature", "properties": {"ID": "1700", "Country": "Brazil", "Basin_Sub_": "Tucano", "Group": "MassacaráS? Sebasti?", "Formation": null, "Member": null, "Well name/ outcrop": null, "Latitude": "-10", "Longitude": "-38.5", "Dating evidence": "Biostratigraphy: non-marine ostracods?ocal zones", "REF(Authors, Year)": "Costa et al 2007; Almeira-Lima et al 2022", "Show_on_Ma": "125", "Lithology, structures, paleowind": "Sandstones, mudstones", "Paleoenvironment": "Continental: eolian, fluvial", "REF (Authors, Year)": "Costa et al., 2007", "Fossil occurrences": "Palynomorphs and non-marine ostracods", "REF (Authors, Year)_1": "Viana et al 1971; Almeida-Lima et al 2022", "Geochemistry data": null, "REF (Authors, Year)_2": null, "Sediment-based climate inference (hot/cold, humid/semi-arid/desert)": "Hot, dry with wet phases", "Fossil-based climate inference (hot/cold, humid/semi-arid/desert)": null, "Geochemistry-based climate inference  (hot/cold, humid/semi-arid/desert)": null, "Climate assignment leading evidence": "Eolian", "Climate_Cl": "D", "Weight": "4", "PlateID": "201", "Sediment-based climate inference (hot/cold, humid/S/desert)": null, "Fossil-based climate inference (hot/cold, humid/S/desert)": null, "Geochemistry-based climate inference  (hot/cold, humid/S/desert)": null, "PaleozonaCodigo": null, "layer": "125.00Ma_point", "path": "C:/Users/Leonardo Bachi/OneDrive/Desktop/ITT_OCEANEON/20_SETEMBRO_TABELA_FINAL/PONTOS_RETIFICADOS/125.00Ma.geojson", "winner": "S", "cluster_size": 3}, "geometry": {"type": "Point", "coordinates": [-11.679226456377553, -25.73108358377561]}}, {"type": "Feature", "properties": {"ID": "1728", "Country": "Cameroon", "Basin_Sub_": "Manfe", "Group": "Manfe", "Formation": "Cross River/Ikom-Munaya", "Member": "N/A", "Well name/ outcrop": "Bakwelle (Bkw) ", "Latitude": "5.687778", "Longitude": "9.151667", "Dating evidence": "Palinology", "REF(Authors, Year)": "Bilobe et al 2021", "Show_on_Ma": "125", "Lithology, structures, paleowind": "sandstones interbedded with sandy mudstones", "Paleoenvironment": "Continental: fluvial ", "REF (Authors, Year)": "Bilobe et al 2021", "Fossil occurrences": "Opaque phytoclasts and a low diversity palynomorph assemblage. Classopollis spp. and some Araucariacites spp., some trilete spores, including Cicatricosisporites venustus, and a few single grains of angiosperm pollen indet. Other palynomorphs include Deltoidospora spp., Echinatisporis spp., Callialasporites and Matonisporites spp.", "REF (Authors, Year)_1": "Bilobe et al 2021", "Geochemistry data": "N/A", "REF (Authors, Year)_2": "N/A", "Sediment-based climate inference (hot/cold, humid/semi-arid/desert)": null, "Fossil-based climate inference (hot/cold, humid/semi-arid/desert)": "(warm) semi arid to Arid/Humid to semi-humid", "Geochemistry-based climate inference  (hot/cold, humid/semi-arid/desert)": "N/A", "Climate assignment leading evidence": "palynoflora (low-diversity palynomorph assemblage dominated by Classopollis spp.)", "Climate_Cl": "S", "Weight": "3", "PlateID": "701", "Sediment-based climate inference (hot/cold, humid/S/desert)": null, "Fossil-based climate inference (hot/cold, humid/S/desert)": null, "Geochemistry-based climate inference  (hot/cold, humid/S/desert)": null, "PaleozonaCodigo": null, "layer": "125.00Ma_point", "path": "C:/Users/Leonardo Bachi/OneDrive/Desktop/ITT_OCEANEON/20_SETEMBRO_TABELA_FINAL/PONTOS_RETIFICADOS/125.00Ma.geojson", "winner": "H", "cluster_size": 40}, "geometry": {"type": "Point", "coordinates": [-7.18567530742173, -21.92719362240756]}}, {"type": "Feature", "properties": {"ID": "1736", "Country": "Cameroon", "Basin_Sub_": "Manfe", "Group": "Manfe", "Formation": "Cross River/Ikom-Munaya", "Member": "N/A", "Well name/ outcrop": "Akwen (Akw)", "Latitude": "5.761667", "Longitude": "9.059722", "Dating evidence": "Palinology", "REF(Authors, Year)": "Bilobe et al 2021", "Show_on_Ma": "125", "Lithology, structures, paleowind": "sandstones interbedded with sandy mudstones", "Paleoenvironment": "Continental: fluvial ", "REF (Authors, Year)": "Bilobe et al 2021", "Fossil occurrences": "palynomorphs, including Classopollis spp., Araucariacites spp., Cicatricosisporites venustus, Deltoidospora spp. and trilete spore indet", "REF (Authors, Year)_1": "Bilobe et al 2021", "Geochemistry data": "N/A", "REF (Authors, Year)_2": "N/A", "Sediment-based climate inference (hot/cold, humid/semi-arid/desert)": null, "Fossil-based climate inference (hot/cold, humid/semi-arid/desert)": "(warm) semi arid to Arid/Humid to semi-humid", "Geochemistry-based climate inference  (hot/cold, humid/semi-arid/desert)": "N/A", "Climate assignment leading evidence": "palynoflora (Classopollis spp)", "Climate_Cl": "S", "Weight": "3", "PlateID": "701", "Sediment-based climate inference (hot/cold, humid/S/desert)": null, "Fossil-based climate inference (hot/cold, humid/S/desert)": null, "Geochemistry-based climate inference  (hot/cold, humid/S/desert)": null, "PaleozonaCodigo": null, "layer": "125.00Ma_point", "path": "C:/Users/Leonardo Bachi/OneDrive/Desktop/ITT_OCEANEON/20_SETEMBRO_TABELA_FINAL/PONTOS_RETIFICADOS/125.00Ma.geojson", "winner": "H", "cluster_size": 40}, "geometry": {"type": "Point", "coordinates": [-7.23849043036598, -21.82029602313284]}}, {"type": "Feature", "properties": {"ID": "1744", "Country": "Cameroon", "Basin_Sub_": "Manfe", "Group": "Manfe", "Formation": "Baso", "Member": "N/A", "Well name/ outcrop": "Okoyong (Oky)", "Latitude": "5.723056", "Longitude": "9.341944", "Dating evidence": "Palinology", "REF(Authors, Year)": "Bilobe et al 2021", "Show_on_Ma": "125", "Lithology, structures, paleowind": "cross-stratified pebble sandstones interfingered with thinly bedded clayshale and mudstones", "Paleoenvironment": "Continental: Fluvio-lacustrine ", "REF (Authors, Year)": "Bilobe et al 2021", "Fossil occurrences": "Palynomorphs consist of gymnosperm pollen, mainly Classopollis spp. and some Araucariacites spp., some trilete spores, including Cicatricosisporites venustus, and some angiosperm pollen. The two samples contain Afropollis spp., the topmost sample (Oky2) contains additionally Trisectoris reticulatus, Echinatisporis spp., trilete spore indet, Concavisporites spp., Classopollis spp. (tetrads), Callialasporites spp., Crybelosporites spp., Deltoidospora spp. and Matonisporites spp.", "REF (Authors, Year)_1": "Bilobe et al 2021", "Geochemistry data": "N/A", "REF (Authors, Year)_2": "N/A", "Sediment-based climate inference (hot/cold, humid/semi-arid/desert)": null, "Fossil-based climate inference (hot/cold, humid/semi-arid/desert)": "(warm) semi arid to Arid/Humid to semi-humid", "Geochemistry-based climate inference  (hot/cold, humid/semi-arid/desert)": "N/A", "Climate assignment leading evidence": "palynoflora (Classopollis spp., Callialasporites spp.)", "Climate_Cl": "S", "Weight": "3", "PlateID": "701", "Sediment-based climate inference (hot/cold, humid/S/desert)": null, "Fossil-based climate inference (hot/cold, humid/S/desert)": null, "Geochemistry-based climate inference  (hot/cold, humid/S/desert)": null, "PaleozonaCodigo": null, "layer": "125.00Ma_point", "path": "C:/Users/Leonardo Bachi/OneDrive/Desktop/ITT_OCEANEON/20_SETEMBRO_TABELA_FINAL/PONTOS_RETIFICADOS/125.00Ma.geojson", "winner": "H", "cluster_size": 40}, "geometry": {"type": "Point", "coordinates": [-6.985896751076643, -21.979718528116713]}}, {"type": "Feature", "properties": {"ID": "1764", "Country": "Cameroon", "Basin_Sub_": "Manfe", "Group": "Manfe", "Formation": "Nfaitok", "Member": "N/A", "Well name/ outcrop": "Nchemba II (Nch)", "Latitude": "5.700611", "Longitude": "9.520278", "Dating evidence": "Palinology", "REF(Authors, Year)": "Bilobe et al 2021", "Show_on_Ma": "125", "Lithology, structures, paleowind": "siliceous and carbonate sandstones, siltstones and shales. ", "Paleoenvironment": "Continental: lacustrine to fluvio-deltaic", "REF (Authors, Year)": "Bilobe et al 2021", "Fossil occurrences": "tridactyl dinosaur footprints. Opaque phytoclasts, a few palynomorphs including Classopollis spp., Callialasporites spp., Cicatricosisporites venustus, Araucariacites australis", "REF (Authors, Year)_1": "Bilobe et al 2021", "Geochemistry data": "N/A", "REF (Authors, Year)_2": "N/A", "Sediment-based climate inference (hot/cold, humid/semi-arid/desert)": "Humid (coaly)", "Fossil-based climate inference (hot/cold, humid/semi-arid/desert)": "(warm) semi arid to Arid/Humid to semi-humid", "Geochemistry-based climate inference  (hot/cold, humid/semi-arid/desert)": "N/A", "Climate assignment leading evidence": "palynoflora (Classopollis spp.)", "Climate_Cl": "S", "Weight": "3", "PlateID": "701", "Sediment-based climate inference (hot/cold, humid/S/desert)": null, "Fossil-based climate inference (hot/cold, humid/S/desert)": null, "Geochemistry-based climate inference  (hot/cold, humid/S/desert)": null, "PaleozonaCodigo": null, "layer": "125.00Ma_point", "path": "C:/Users/Leonardo Bachi/OneDrive/Desktop/ITT_OCEANEON/20_SETEMBRO_TABELA_FINAL/PONTOS_RETIFICADOS/125.00Ma.geojson", "winner": "H", "cluster_size": 40}, "geometry": {"type": "Point", "coordinates": [-6.825007150706489, -22.078450307352405]}}, {"type": "Feature", "properties": {"ID": "1772", "Country": "Cameroon", "Basin_Sub_": "Manfe", "Group": "Manfe", "Formation": "Nfaitok", "Member": "N/A", "Well name/ outcrop": "Nfaitok (NFE)", "Latitude": "5.726667", "Longitude": "9.507778", "Dating evidence": "Palinology", "REF(Authors, Year)": "Bilobe et al 2021", "Show_on_Ma": "125", "Lithology, structures, paleowind": "siliceous and carbonate sandstones, siltstones and shales.", "Paleoenvironment": "Continental: lacustrine to fluvio-deltaic", "REF (Authors, Year)": "Bilobe et al 2021", "Fossil occurrences": "tridactyl dinosaur footprints. Opaque phytoclasts and/or amorphous organic matter (AOM). Classopollis spp., Classopollis spp. (tetrad) a few Araucariacites spp., Cicatricosisporites venustus, and abundant fungal remains", "REF (Authors, Year)_1": "Bilobe et al 2021", "Geochemistry data": "N/A", "REF (Authors, Year)_2": "N/A", "Sediment-based climate inference (hot/cold, humid/semi-arid/desert)": "Humid (coaly)", "Fossil-based climate inference (hot/cold, humid/semi-arid/desert)": "(warm) semi arid to Arid/Humid to semi-humid", "Geochemistry-based climate inference  (hot/cold, humid/semi-arid/desert)": "N/A", "Climate assignment leading evidence": "palynoflora (Classopollis spp., Classopollis spp. tetrad)", "Climate_Cl": "S", "Weight": "3", "PlateID": "701", "Sediment-based climate inference (hot/cold, humid/S/desert)": null, "Fossil-based climate inference (hot/cold, humid/S/desert)": null, "Geochemistry-based climate inference  (hot/cold, humid/S/desert)": null, "PaleozonaCodigo": null, "layer": "125.00Ma_point", "path": "C:/Users/Leonardo Bachi/OneDrive/Desktop/ITT_OCEANEON/20_SETEMBRO_TABELA_FINAL/PONTOS_RETIFICADOS/125.00Ma.geojson", "winner": "H", "cluster_size": 40}, "geometry": {"type": "Point", "coordinates": [-6.824605234587527, -22.049580293225322]}}, {"type": "Feature", "properties": {"ID": "1780", "Country": "Cameroon", "Basin_Sub_": "Manfe", "Group": "Manfe", "Formation": "Nfaitok", "Member": "N/A", "Well name/ outcrop": "Mamfe: John Hault (Jh)", "Latitude": "5.753889", "Longitude": "9.300378", "Dating evidence": "Palinology", "REF(Authors, Year)": "Bilobe et al 2021", "Show_on_Ma": "125", "Lithology, structures, paleowind": "siliceous and carbonate sandstones, limestones, black shales with carbonate nodules, volcanoclastics and coal beds ", "Paleoenvironment": "Continental: lacustrine to fluvio-deltaic", "REF (Authors, Year)": "Bilobe et al 2021", "Fossil occurrences": "low diversity sporomorph assemblage. Most abundant taxa are gymnosperm pollen, especially Classopollis classoides and Classopopllis spp. (tetrad), in some samples, Araucariacites spp., Concavisporites spp., Exesipollenites spp., Callialasporites spp., Equisetosporites spp. and few fungal remains were also recorded. Trilete spores are represented mainly by Deltoidospora spp. and Cicatricosisporites venustus. In two samples (Jh5 and Jh12), a few single specimens of Afropollis spp.are recorded.", "REF (Authors, Year)_1": "Bilobe et al 2021", "Geochemistry data": "N/A", "REF (Authors, Year)_2": "N/A", "Sediment-based climate inference (hot/cold, humid/semi-arid/desert)": "Humid (coaly)", "Fossil-based climate inference (hot/cold, humid/semi-arid/desert)": "(warm) semi arid to Arid/Humid to semi-humid", "Geochemistry-based climate inference  (hot/cold, humid/semi-arid/desert)": "N/A", "Climate assignment leading evidence": "palynoflora (Classopollis spp., Classopollis classoides, Classopollis spp. tetrad)", "Climate_Cl": "S", "Weight": "3", "PlateID": "701", "Sediment-based climate inference (hot/cold, humid/S/desert)": null, "Fossil-based climate inference (hot/cold, humid/S/desert)": null, "Geochemistry-based climate inference  (hot/cold, humid/S/desert)": null, "PaleozonaCodigo": null, "layer": "125.00Ma_point", "path": "C:/Users/Leonardo Bachi/OneDrive/Desktop/ITT_OCEANEON/20_SETEMBRO_TABELA_FINAL/PONTOS_RETIFICADOS/125.00Ma.geojson", "winner": "H", "cluster_size": 40}, "geometry": {"type": "Point", "coordinates": [-7.01110779782159, -21.933735961784347]}}, {"type": "Feature", "properties": {"ID": "1788", "Country": "Cameroon", "Basin_Sub_": "Manfe", "Group": "Manfe", "Formation": "Nfaitok", "Member": "N/A", "Well name/ outcrop": "Mamfe: Below Satom Bridge (Sat)", "Latitude": "5.695833", "Longitude": "9.046111", "Dating evidence": "Palinology", "REF(Authors, Year)": "Bilobe et al 2021", "Show_on_Ma": "125", "Lithology, structures, paleowind": "siliceous and carbonate sandstones, limestones, black shales with carbonate nodules, volcanoclastics and coal beds", "Paleoenvironment": "Continental: lacustrine to fluvio-deltaic", "REF (Authors, Year)": "Bilobe et al 2021", "Fossil occurrences": "Opaque phytoclasts and some amorphous organic matter (AOM). sporomorph assemblage, slightly brighter and well preserved, low diversity with Classopollis spp. Araucariacites spp.,  Cicatricosisporites venustus, Cyathidites spp., Deltoidospora spp. and Exesipollenites spp", "REF (Authors, Year)_1": "Bilobe et al 2021", "Geochemistry data": "N/A", "REF (Authors, Year)_2": "N/A", "Sediment-based climate inference (hot/cold, humid/semi-arid/desert)": "Humid (coaly)", "Fossil-based climate inference (hot/cold, humid/semi-arid/desert)": "(warm) semi arid to Arid/Humid to semi-humid", "Geochemistry-based climate inference  (hot/cold, humid/semi-arid/desert)": "N/A", "Climate assignment leading evidence": "palynoflora (Classopollis spp.)", "Climate_Cl": "S", "Weight": "3", "PlateID": "701", "Sediment-based climate inference (hot/cold, humid/S/desert)": null, "Fossil-based climate inference (hot/cold, humid/S/desert)": null, "Geochemistry-based climate inference  (hot/cold, humid/S/desert)": null, "PaleozonaCodigo": null, "layer": "125.00Ma_point", "path": "C:/Users/Leonardo Bachi/OneDrive/Desktop/ITT_OCEANEON/20_SETEMBRO_TABELA_FINAL/PONTOS_RETIFICADOS/125.00Ma.geojson", "winner": "H", "cluster_size": 40}, "geometry": {"type": "Point", "coordinates": [-7.283162154196693, -21.873195041858256]}}, {"type": "Feature", "properties": {"ID": "1796", "Country": "Cameroon", "Basin_Sub_": "Manfe", "Group": "Manfe", "Formation": "Nfaitok", "Member": "N/A", "Well name/ outcrop": "Besongabang: Bakiep River (Bes)", "Latitude": "5.699444", "Longitude": "9.304722", "Dating evidence": "Palinology", "REF(Authors, Year)": "Bilobe et al 2021", "Show_on_Ma": "125", "Lithology, structures, paleowind": "siliceous and carbonate sandstones, limestones, black shales with carbonate nodules, volcanoclastics and coal beds", "Paleoenvironment": "Continental: lacustrine to fluvio-deltaic", "REF (Authors, Year)": "Bilobe et al 2021", "Fossil occurrences": "dominated by amorphous organic matter (AOM). The most abundant taxa are gymnosperm pollen, especially Classopollis spp. Araucariacites spp., Concavisporites spp., Callialasporites spp., Eucommiidites spp. and Equisetosporites spp. Trilete spores are represented by Deltoidospora spp. and Cicatricosisporites venustus. In one of the samples (Bes5) a few specimens of Afropollis spp.", "REF (Authors, Year)_1": "Bilobe et al 2021", "Geochemistry data": "N/A", "REF (Authors, Year)_2": "N/A", "Sediment-based climate inference (hot/cold, humid/semi-arid/desert)": "Humid (coaly)", "Fossil-based climate inference (hot/cold, humid/semi-arid/desert)": "(warm) semi arid to Arid/Humid to semi-humid", "Geochemistry-based climate inference  (hot/cold, humid/semi-arid/desert)": "N/A", "Climate assignment leading evidence": "palynoflora (Classopollis spp.)", "Climate_Cl": "S", "Weight": "3", "PlateID": "701", "Sediment-based climate inference (hot/cold, humid/S/desert)": null, "Fossil-based climate inference (hot/cold, humid/S/desert)": null, "Geochemistry-based climate inference  (hot/cold, humid/S/desert)": null, "PaleozonaCodigo": null, "layer": "125.00Ma_point", "path": "C:/Users/Leonardo Bachi/OneDrive/Desktop/ITT_OCEANEON/20_SETEMBRO_TABELA_FINAL/PONTOS_RETIFICADOS/125.00Ma.geojson", "winner": "H", "cluster_size": 40}, "geometry": {"type": "Point", "coordinates": [-7.032989224232308, -21.98444193764361]}}, {"type": "Feature", "properties": {"ID": "1808", "Country": "Cameroon", "Basin_Sub_": "Manfe", "Group": "Manfe", "Formation": "Ngeme", "Member": "N/A", "Well name/ outcrop": "Etoko (Etk)", "Latitude": "5.704722", "Longitude": "9.556389", "Dating evidence": "Palinology", "REF(Authors, Year)": "Bilobe et al 2021", "Show_on_Ma": "125", "Lithology, structures, paleowind": "sandstones and clast-supported conglomerates", "Paleoenvironment": "Continental: fluvial", "REF (Authors, Year)": "Bilobe et al 2021", "Fossil occurrences": "Classopollis spp., rich in AOM, Cicatricosisporites venustus, Cicatricosisporites spp, Araucariacites spp", "REF (Authors, Year)_1": "Bilobe et al 2021", "Geochemistry data": "N/A", "REF (Authors, Year)_2": "N/A", "Sediment-based climate inference (hot/cold, humid/semi-arid/desert)": "Humid (coaly)", "Fossil-based climate inference (hot/cold, humid/semi-arid/desert)": "(warm) semi arid to Arid/Humid to semi-humid", "Geochemistry-based climate inference  (hot/cold, humid/semi-arid/desert)": "N/A", "Climate assignment leading evidence": "palynoflora (Classopollis spp.)", "Climate_Cl": "S", "Weight": "3", "PlateID": "701", "Sediment-based climate inference (hot/cold, humid/S/desert)": null, "Fossil-based climate inference (hot/cold, humid/S/desert)": null, "Geochemistry-based climate inference  (hot/cold, humid/S/desert)": null, "PaleozonaCodigo": null, "layer": "125.00Ma_point", "path": "C:/Users/Leonardo Bachi/OneDrive/Desktop/ITT_OCEANEON/20_SETEMBRO_TABELA_FINAL/PONTOS_RETIFICADOS/125.00Ma.geojson", "winner": "H", "cluster_size": 40}, "geometry": {"type": "Point", "coordinates": [-6.78826599366479, -22.09065424536752]}}, {"type": "Feature", "properties": {"ID": "2119", "Country": "Manfe", "Basin_Sub_": "Mamfe", "Group": "Cross River/Ikom-Munaya", "Formation": "N/A", "Member": null, "Well name/ outcrop": null, "Latitude": "6", "Longitude": "9.151", "Dating evidence": null, "REF(Authors, Year)": null, "Show_on_Ma": "125", "Lithology, structures, paleowind": null, "Paleoenvironment": null, "REF (Authors, Year)": null, "Fossil occurrences": null, "REF (Authors, Year)_1": null, "Geochemistry data": null, "REF (Authors, Year)_2": null, "Sediment-based climate inference (hot/cold, humid/semi-arid/desert)": null, "Fossil-based climate inference (hot/cold, humid/semi-arid/desert)": null, "Geochemistry-based climate inference  (hot/cold, humid/semi-arid/desert)": null, "Climate assignment leading evidence": null, "Climate_Cl": "S", "Weight": "3", "PlateID": "701", "Sediment-based climate inference (hot/cold, humid/S/desert)": null, "Fossil-based climate inference (hot/cold, humid/S/desert)": null, "Geochemistry-based climate inference  (hot/cold, humid/S/desert)": null, "PaleozonaCodigo": null, "layer": "125.00Ma_point", "path": "C:/Users/Leonardo Bachi/OneDrive/Desktop/ITT_OCEANEON/20_SETEMBRO_TABELA_FINAL/PONTOS_RETIFICADOS/125.00Ma.geojson", "winner": "H", "cluster_size": 40}, "geometry": {"type": "Point", "coordinates": [-7.036809512205776, -21.647238343286215]}}, {"type": "Feature", "properties": {"ID": "2121", "Country": "Manfe", "Basin_Sub_": "Mamfe", "Group": "Cross River/Ikom-Munaya", "Formation": "N/A", "Member": null, "Well name/ outcrop": null, "Latitude": "6", "Longitude": "9.059", "Dating evidence": null, "REF(Authors, Year)": null, "Show_on_Ma": "125", "Lithology, structures, paleowind": null, "Paleoenvironment": null, "REF (Authors, Year)": null, "Fossil occurrences": null, "REF (Authors, Year)_1": null, "Geochemistry data": null, "REF (Authors, Year)_2": null, "Sediment-based climate inference (hot/cold, humid/semi-arid/desert)": null, "Fossil-based climate inference (hot/cold, humid/semi-arid/desert)": null, "Geochemistry-based climate inference  (hot/cold, humid/semi-arid/desert)": null, "Climate assignment leading evidence": null, "Climate_Cl": "S", "Weight": "3", "PlateID": "701", "Sediment-based climate inference (hot/cold, humid/S/desert)": null, "Fossil-based climate inference (hot/cold, humid/S/desert)": null, "Geochemistry-based climate inference  (hot/cold, humid/S/desert)": null, "PaleozonaCodigo": null, "layer": "125.00Ma_point", "path": "C:/Users/Leonardo Bachi/OneDrive/Desktop/ITT_OCEANEON/20_SETEMBRO_TABELA_FINAL/PONTOS_RETIFICADOS/125.00Ma.geojson", "winner": "H", "cluster_size": 40}, "geometry": {"type": "Point", "coordinates": [-7.124974462792031, -21.606564842670636]}}, {"type": "Feature", "properties": {"ID": "2123", "Country": "Manfe", "Basin_Sub_": "Mamfe", "Group": "Baso", "Formation": "N/A", "Member": null, "Well name/ outcrop": null, "Latitude": "6", "Longitude": "9.341", "Dating evidence": null, "REF(Authors, Year)": null, "Show_on_Ma": "125", "Lithology, structures, paleowind": null, "Paleoenvironment": null, "REF (Authors, Year)": null, "Fossil occurrences": null, "REF (Authors, Year)_1": null, "Geochemistry data": null, "REF (Authors, Year)_2": null, "Sediment-based climate inference (hot/cold, humid/semi-arid/desert)": null, "Fossil-based climate inference (hot/cold, humid/semi-arid/desert)": null, "Geochemistry-based climate inference  (hot/cold, humid/semi-arid/desert)": null, "Climate assignment leading evidence": null, "Climate_Cl": "S", "Weight": "3", "PlateID": "701", "Sediment-based climate inference (hot/cold, humid/S/desert)": null, "Fossil-based climate inference (hot/cold, humid/S/desert)": null, "Geochemistry-based climate inference  (hot/cold, humid/S/desert)": null, "PaleozonaCodigo": null, "layer": "125.00Ma_point", "path": "C:/Users/Leonardo Bachi/OneDrive/Desktop/ITT_OCEANEON/20_SETEMBRO_TABELA_FINAL/PONTOS_RETIFICADOS/125.00Ma.geojson", "winner": "H", "cluster_size": 40}, "geometry": {"type": "Point", "coordinates": [-6.854549256514708, -21.731046937103937]}}, {"type": "Feature", "properties": {"ID": "2125", "Country": "Manfe", "Basin_Sub_": "Mamfe", "Group": "Nfaitok", "Formation": "N/A", "Member": null, "Well name/ outcrop": null, "Latitude": "6", "Longitude": "9.65", "Dating evidence": null, "REF(Authors, Year)": null, "Show_on_Ma": "125", "Lithology, structures, paleowind": null, "Paleoenvironment": null, "REF (Authors, Year)": null, "Fossil occurrences": null, "REF (Authors, Year)_1": null, "Geochemistry data": null, "REF (Authors, Year)_2": null, "Sediment-based climate inference (hot/cold, humid/semi-arid/desert)": null, "Fossil-based climate inference (hot/cold, humid/semi-arid/desert)": null, "Geochemistry-based climate inference  (hot/cold, humid/semi-arid/desert)": null, "Climate assignment leading evidence": null, "Climate_Cl": "S", "Weight": "3", "PlateID": "701", "Sediment-based climate inference (hot/cold, humid/S/desert)": null, "Fossil-based climate inference (hot/cold, humid/S/desert)": null, "Geochemistry-based climate inference  (hot/cold, humid/S/desert)": null, "PaleozonaCodigo": null, "layer": "125.00Ma_point", "path": "C:/Users/Leonardo Bachi/OneDrive/Desktop/ITT_OCEANEON/20_SETEMBRO_TABELA_FINAL/PONTOS_RETIFICADOS/125.00Ma.geojson", "winner": "H", "cluster_size": 40}, "geometry": {"type": "Point", "coordinates": [-6.557616179882586, -21.86679380352103]}}, {"type": "Feature", "properties": {"ID": "2127", "Country": "Manfe", "Basin_Sub_": "Mamfe", "Group": "Nfaitok", "Formation": "N/A", "Member": null, "Well name/ outcrop": null, "Latitude": "6", "Longitude": "9.52", "Dating evidence": null, "REF(Authors, Year)": null, "Show_on_Ma": "125", "Lithology, structures, paleowind": null, "Paleoenvironment": null, "REF (Authors, Year)": null, "Fossil occurrences": null, "REF (Authors, Year)_1": null, "Geochemistry data": null, "REF (Authors, Year)_2": null, "Sediment-based climate inference (hot/cold, humid/semi-arid/desert)": null, "Fossil-based climate inference (hot/cold, humid/semi-arid/desert)": null, "Geochemistry-based climate inference  (hot/cold, humid/semi-arid/desert)": null, "Climate assignment leading evidence": null, "Climate_Cl": "S", "Weight": "3", "PlateID": "701", "Sediment-based climate inference (hot/cold, humid/S/desert)": null, "Fossil-based climate inference (hot/cold, humid/S/desert)": null, "Geochemistry-based climate inference  (hot/cold, humid/S/desert)": null, "PaleozonaCodigo": null, "layer": "125.00Ma_point", "path": "C:/Users/Leonardo Bachi/OneDrive/Desktop/ITT_OCEANEON/20_SETEMBRO_TABELA_FINAL/PONTOS_RETIFICADOS/125.00Ma.geojson", "winner": "H", "cluster_size": 40}, "geometry": {"type": "Point", "coordinates": [-6.682618102856572, -21.80976708271546]}}, {"type": "Feature", "properties": {"ID": "2129", "Country": "Manfe", "Basin_Sub_": "Mamfe", "Group": "Nfaitok", "Formation": "N/A", "Member": null, "Well name/ outcrop": null, "Latitude": "6", "Longitude": "9.507", "Dating evidence": null, "REF(Authors, Year)": null, "Show_on_Ma": "125", "Lithology, structures, paleowind": null, "Paleoenvironment": null, "REF (Authors, Year)": null, "Fossil occurrences": null, "REF (Authors, Year)_1": null, "Geochemistry data": null, "REF (Authors, Year)_2": null, "Sediment-based climate inference (hot/cold, humid/semi-arid/desert)": null, "Fossil-based climate inference (hot/cold, humid/semi-arid/desert)": null, "Geochemistry-based climate inference  (hot/cold, humid/semi-arid/desert)": null, "Climate assignment leading evidence": null, "Climate_Cl": "S", "Weight": "3", "PlateID": "701", "Sediment-based climate inference (hot/cold, humid/S/desert)": null, "Fossil-based climate inference (hot/cold, humid/S/desert)": null, "Geochemistry-based climate inference  (hot/cold, humid/S/desert)": null, "PaleozonaCodigo": null, "layer": "125.00Ma_point", "path": "C:/Users/Leonardo Bachi/OneDrive/Desktop/ITT_OCEANEON/20_SETEMBRO_TABELA_FINAL/PONTOS_RETIFICADOS/125.00Ma.geojson", "winner": "H", "cluster_size": 40}, "geometry": {"type": "Point", "coordinates": [-6.695112010847284, -21.804057722114916]}}, {"type": "Feature", "properties": {"ID": "2131", "Country": "Manfe", "Basin_Sub_": "Mamfe", "Group": "Nfaitok", "Formation": "N/A", "Member": null, "Well name/ outcrop": null, "Latitude": "6", "Longitude": "9.3", "Dating evidence": null, "REF(Authors, Year)": null, "Show_on_Ma": "125", "Lithology, structures, paleowind": null, "Paleoenvironment": null, "REF (Authors, Year)": null, "Fossil occurrences": null, "REF (Authors, Year)_1": null, "Geochemistry data": null, "REF (Authors, Year)_2": null, "Sediment-based climate inference (hot/cold, humid/semi-arid/desert)": null, "Fossil-based climate inference (hot/cold, humid/semi-arid/desert)": null, "Geochemistry-based climate inference  (hot/cold, humid/semi-arid/desert)": null, "Climate assignment leading evidence": null, "Climate_Cl": "S", "Weight": "3", "PlateID": "701", "Sediment-based climate inference (hot/cold, humid/S/desert)": null, "Fossil-based climate inference (hot/cold, humid/S/desert)": null, "Geochemistry-based climate inference  (hot/cold, humid/S/desert)": null, "PaleozonaCodigo": null, "layer": "125.00Ma_point", "path": "C:/Users/Leonardo Bachi/OneDrive/Desktop/ITT_OCEANEON/20_SETEMBRO_TABELA_FINAL/PONTOS_RETIFICADOS/125.00Ma.geojson", "winner": "H", "cluster_size": 40}, "geometry": {"type": "Point", "coordinates": [-6.893899693678777, -21.71298374761465]}}, {"type": "Feature", "properties": {"ID": "2133", "Country": "Manfe", "Basin_Sub_": "Mamfe", "Group": "Nfaitok", "Formation": "N/A", "Member": null, "Well name/ outcrop": null, "Latitude": "6", "Longitude": "9.046", "Dating evidence": null, "REF(Authors, Year)": null, "Show_on_Ma": "125", "Lithology, structures, paleowind": null, "Paleoenvironment": null, "REF (Authors, Year)": null, "Fossil occurrences": null, "REF (Authors, Year)_1": null, "Geochemistry data": null, "REF (Authors, Year)_2": null, "Sediment-based climate inference (hot/cold, humid/semi-arid/desert)": null, "Fossil-based climate inference (hot/cold, humid/semi-arid/desert)": null, "Geochemistry-based climate inference  (hot/cold, humid/semi-arid/desert)": null, "Climate assignment leading evidence": null, "Climate_Cl": "S", "Weight": "3", "PlateID": "701", "Sediment-based climate inference (hot/cold, humid/S/desert)": null, "Fossil-based climate inference (hot/cold, humid/S/desert)": null, "Geochemistry-based climate inference  (hot/cold, humid/S/desert)": null, "PaleozonaCodigo": null, "layer": "125.00Ma_point", "path": "C:/Users/Leonardo Bachi/OneDrive/Desktop/ITT_OCEANEON/20_SETEMBRO_TABELA_FINAL/PONTOS_RETIFICADOS/125.00Ma.geojson", "winner": "H", "cluster_size": 40}, "geometry": {"type": "Point", "coordinates": [-7.137427960597164, -21.60081264526106]}}, {"type": "Feature", "properties": {"ID": "2135", "Country": "Manfe", "Basin_Sub_": "Mamfe", "Group": "Nfaitok", "Formation": "N/A", "Member": null, "Well name/ outcrop": null, "Latitude": "6", "Longitude": "9.304", "Dating evidence": null, "REF(Authors, Year)": null, "Show_on_Ma": "125", "Lithology, structures, paleowind": null, "Paleoenvironment": null, "REF (Authors, Year)": null, "Fossil occurrences": null, "REF (Authors, Year)_1": null, "Geochemistry data": null, "REF (Authors, Year)_2": null, "Sediment-based climate inference (hot/cold, humid/semi-arid/desert)": null, "Fossil-based climate inference (hot/cold, humid/semi-arid/desert)": null, "Geochemistry-based climate inference  (hot/cold, humid/semi-arid/desert)": null, "Climate assignment leading evidence": null, "Climate_Cl": "S", "Weight": "3", "PlateID": "701", "Sediment-based climate inference (hot/cold, humid/S/desert)": null, "Fossil-based climate inference (hot/cold, humid/S/desert)": null, "Geochemistry-based climate inference  (hot/cold, humid/S/desert)": null, "PaleozonaCodigo": null, "layer": "125.00Ma_point", "path": "C:/Users/Leonardo Bachi/OneDrive/Desktop/ITT_OCEANEON/20_SETEMBRO_TABELA_FINAL/PONTOS_RETIFICADOS/125.00Ma.geojson", "winner": "H", "cluster_size": 40}, "geometry": {"type": "Point", "coordinates": [-6.890061125774174, -21.714746539352628]}}, {"type": "Feature", "properties": {"ID": "2137", "Country": "Manfe", "Basin_Sub_": "Mamfe", "Group": "Ngeme", "Formation": "N/A", "Member": null, "Well name/ outcrop": null, "Latitude": "6", "Longitude": "9.556", "Dating evidence": null, "REF(Authors, Year)": null, "Show_on_Ma": "125", "Lithology, structures, paleowind": null, "Paleoenvironment": null, "REF (Authors, Year)": null, "Fossil occurrences": null, "REF (Authors, Year)_1": null, "Geochemistry data": null, "REF (Authors, Year)_2": null, "Sediment-based climate inference (hot/cold, humid/semi-arid/desert)": null, "Fossil-based climate inference (hot/cold, humid/semi-arid/desert)": null, "Geochemistry-based climate inference  (hot/cold, humid/semi-arid/desert)": null, "Climate assignment leading evidence": null, "Climate_Cl": "S", "Weight": "3", "PlateID": "701", "Sediment-based climate inference (hot/cold, humid/S/desert)": null, "Fossil-based climate inference (hot/cold, humid/S/desert)": null, "Geochemistry-based climate inference  (hot/cold, humid/S/desert)": null, "PaleozonaCodigo": null, "layer": "125.00Ma_point", "path": "C:/Users/Leonardo Bachi/OneDrive/Desktop/ITT_OCEANEON/20_SETEMBRO_TABELA_FINAL/PONTOS_RETIFICADOS/125.00Ma.geojson", "winner": "H", "cluster_size": 40}, "geometry": {"type": "Point", "coordinates": [-6.64801362703284, -21.825571277857932]}}, {"type": "Feature", "properties": {"ID": "2779", "Country": "Tunisia", "Basin_Sub_": "N/A", "Group": "N/A", "Formation": "Bouhedma", "Member": "N/A", "Well name/ outcrop": "Jebel Bouhedma", "Latitude": "32.839", "Longitude": "10.453", "Dating evidence": "Biostratigraphy: Ostracod assemblage", "REF(Authors, Year)": "Boukhalfa etal. 2015", "Show_on_Ma": "125", "Lithology, structures, paleowind": "bioclastic limestones, laminated dolomites, variegated shales, anhydrite, gypsum and fine\u0002grained sandstone", "Paleoenvironment": "N/A", "REF (Authors, Year)": "N/A", "Fossil occurrences": "Ostracod assemblage: Antepaijenborchella cf. menarica, A. praealta, Cytherelloidea ghabounensis, Hechticythere cf. hechti, Metacytheropteron? Grosdidieri, Protocythere aff. Triplicata, Schuleridea bullata, S. aff. Bilobata, Veeniacythereis ghabounensisghabounensis,  V. ghabounensis insueta, V. ghabounensis variesculpta", "REF (Authors, Year)_1": "Boukhalfa etal. 2015", "Geochemistry data": "N/A", "REF (Authors, Year)_2": "N/A", "Sediment-based climate inference (hot/cold, humid/semi-arid/desert)": "Hot,semi-arid", "Fossil-based climate inference (hot/cold, humid/semi-arid/desert)": "N/A", "Geochemistry-based climate inference  (hot/cold, humid/semi-arid/desert)": "N/A", "Climate assignment leading evidence": "Anhydrite and gypsum ", "Climate_Cl": "S", "Weight": "1", "PlateID": "715", "Sediment-based climate inference (hot/cold, humid/S/desert)": null, "Fossil-based climate inference (hot/cold, humid/S/desert)": null, "Geochemistry-based climate inference  (hot/cold, humid/S/desert)": null, "PaleozonaCodigo": null, "layer": "125.00Ma_point", "path": "C:/Users/Leonardo Bachi/OneDrive/Desktop/ITT_OCEANEON/20_SETEMBRO_TABELA_FINAL/PONTOS_RETIFICADOS/125.00Ma.geojson", "winner": "H", "cluster_size": 10}, "geometry": {"type": "Point", "coordinates": [5.15847781040188, 2.104753231085588]}}, {"type": "Feature", "properties": {"ID": "2782", "Country": "Tunisia", "Basin_Sub_": "Tataouine", "Group": "N/A", "Formation": "Boulouha", "Member": "N/A", "Well name/ outcrop": "N/A", "Latitude": "32.839", "Longitude": "10.453", "Dating evidence": "N/A", "REF(Authors, Year)": "N/A", "Show_on_Ma": "125", "Lithology, structures, paleowind": "Mixed siliciclastic carbonate protected bay or lagoon", "Paleoenvironment": "Coastal to marine: lagoonal to shallow-marine", "REF (Authors, Year)": "Hamed et al. 2014", "Fossil occurrences": "reptile tracks", "REF (Authors, Year)_1": "Hamed et al. 2014", "Geochemistry data": "N/A", "REF (Authors, Year)_2": "N/A", "Sediment-based climate inference (hot/cold, humid/semi-arid/desert)": "Hot, semi-arid?", "Fossil-based climate inference (hot/cold, humid/semi-arid/desert)": "N/A", "Geochemistry-based climate inference  (hot/cold, humid/semi-arid/desert)": "N/A", "Climate assignment leading evidence": "Carbonates", "Climate_Cl": "S", "Weight": "1", "PlateID": "715", "Sediment-based climate inference (hot/cold, humid/S/desert)": null, "Fossil-based climate inference (hot/cold, humid/S/desert)": null, "Geochemistry-based climate inference  (hot/cold, humid/S/desert)": null, "PaleozonaCodigo": null, "layer": "125.00Ma_point", "path": "C:/Users/Leonardo Bachi/OneDrive/Desktop/ITT_OCEANEON/20_SETEMBRO_TABELA_FINAL/PONTOS_RETIFICADOS/125.00Ma.geojson", "winner": "H", "cluster_size": 10}, "geometry": {"type": "Point", "coordinates": [5.15847781040188, 2.104753231085588]}}, {"type": "Feature", "properties": {"ID": "2785", "Country": "Tunisia", "Basin_Sub_": "Tataouine", "Group": "Asfer", "Formation": "Boulouha", "Member": "N/A", "Well name/ outcrop": "jebel Merbah", "Latitude": "32.839", "Longitude": "10.453", "Dating evidence": "N/A", "REF(Authors, Year)": "Ouaja et al 2002", "Show_on_Ma": "125", "Lithology, structures, paleowind": "Wine-colored clay, sands,  carbonate bars, dolomies fines", "Paleoenvironment": "Coastal: fluvial, sabkha subject to  marine flooding", "REF (Authors, Year)": "Ouaja et al 2002", "Fossil occurrences": "brachiopod: Loriolithyris russillensis", "REF (Authors, Year)_1": "Ouaja et al., 2002", "Geochemistry data": "N/A", "REF (Authors, Year)_2": "N/A", "Sediment-based climate inference (hot/cold, humid/semi-arid/desert)": "humid (lowermost portion) / smi-arid", "Fossil-based climate inference (hot/cold, humid/semi-arid/desert)": "N/A", "Geochemistry-based climate inference  (hot/cold, humid/semi-arid/desert)": "N/A", "Climate assignment leading evidence": "Sabkha", "Climate_Cl": "S", "Weight": "2", "PlateID": "715", "Sediment-based climate inference (hot/cold, humid/S/desert)": null, "Fossil-based climate inference (hot/cold, humid/S/desert)": null, "Geochemistry-based climate inference  (hot/cold, humid/S/desert)": null, "PaleozonaCodigo": null, "layer": "125.00Ma_point", "path": "C:/Users/Leonardo Bachi/OneDrive/Desktop/ITT_OCEANEON/20_SETEMBRO_TABELA_FINAL/PONTOS_RETIFICADOS/125.00Ma.geojson", "winner": "H", "cluster_size": 10}, "geometry": {"type": "Point", "coordinates": [5.15847781040188, 2.104753231085588]}}, {"type": "Feature", "properties": {"ID": "2788", "Country": "Tunisia", "Basin_Sub_": "N/A", "Group": "Asfer", "Formation": "Boulouha", "Member": "N/A", "Well name/ outcrop": "collines du Jebel Merbah el Asfer", "Latitude": "32.839", "Longitude": "10.453", "Dating evidence": "Biostratigraphy: brachiopod", "REF(Authors, Year)": "Barale&Ouaja 2002", "Show_on_Ma": "125", "Lithology, structures, paleowind": "Level of red, wine-colored clays,  Carbonate bars,  dolomite", "Paleoenvironment": "Coastal: marginal-marine with  continental influence.", "REF (Authors, Year)": "Barale&Ouaja 2002", "Fossil occurrences": "brachiopod: Loriolithyris russillensis; Plant: Selaginellites sp., Plant: Onychiopsis psilotoides, Daharia tunisiensis, Brachyphyllum sp., Podozamites sp., Araucarites sp.", "REF (Authors, Year)_1": "Barale&Ouaja 2002", "Geochemistry data": "N/A", "REF (Authors, Year)_2": "N/A", "Sediment-based climate inference (hot/cold, humid/semi-arid/desert)": "hot", "Fossil-based climate inference (hot/cold, humid/semi-arid/desert)": "humid", "Geochemistry-based climate inference  (hot/cold, humid/semi-arid/desert)": "N/A", "Climate assignment leading evidence": "Tropical with periods of drought and humidity.", "Climate_Cl": "S", "Weight": "1", "PlateID": "715", "Sediment-based climate inference (hot/cold, humid/S/desert)": null, "Fossil-based climate inference (hot/cold, humid/S/desert)": null, "Geochemistry-based climate inference  (hot/cold, humid/S/desert)": null, "PaleozonaCodigo": null, "layer": "125.00Ma_point", "path": "C:/Users/Leonardo Bachi/OneDrive/Desktop/ITT_OCEANEON/20_SETEMBRO_TABELA_FINAL/PONTOS_RETIFICADOS/125.00Ma.geojson", "winner": "H", "cluster_size": 10}, "geometry": {"type": "Point", "coordinates": [5.15847781040188, 2.104753231085588]}}]}