{"type": "FeatureCollection", "features": [{"type": "Feature", "properties": {"Climate_Cl": "H", "votes": 3, "cluster_size": 6, "tie": true, "status": "tie", "member_ids": "66,70,74,75,77,79"}, "geometry": {"type": "Point", "coordinates": [-4.874456802074796, 0.10639927785068566]}}, {"type": "Feature", "properties": {"Climate_Cl": "S", "votes": 3, "cluster_size": 6, "tie": true, "status": "tie", "member_ids": "66,70,74,75,77,79"}, "geometry": {"type": "Point", "coordinates": [-4.874456802074796, 0.10639927785068566]}}, {"type": "Feature", "properties": {"Climate_Cl": "H", "votes": 2, "cluster_size": 2, "tie": false, "status": "majority", "member_ids": "167,176"}, "geometry": {"type": "Point", "coordinates": [-3.0724049784583984, 5.807857987768978]}}, {"type": "Feature", "properties": {"Climate_Cl": "S", "votes": 1, "cluster_size": 1, "tie": false, "status": "majority", "member_ids": "194"}, "geometry": {"type": "Point", "coordinates": [-10.515470834473145, -36.733273256623676]}}, {"type": "Feature", "properties": {"Climate_Cl": "S", "votes": 1, "cluster_size": 1, "tie": false, "status": "majority", "member_ids": "228"}, "geometry": {"type": "Point", "coordinates": [-57.09804138902728, -63.79016357115571]}}, {"type": "Feature", "properties": {"Climate_Cl": "H", "votes": 1, "cluster_size": 1, "tie": false, "status": "majority", "member_ids": "235"}, "geometry": {"type": "Point", "coordinates": [-55.84749263258822, -62.09491891777207]}}, {"type": "Feature", "properties": {"Climate_Cl": "S", "votes": 1, "cluster_size": 1, "tie": false, "status": "majority", "member_ids": "245"}, "geometry": {"type": "Point", "coordinates": [-50.2015800816902, -58.58388095911222]}}, {"type": "Feature", "properties": {"Climate_Cl": "H", "votes": 1, "cluster_size": 2, "tie": true, "status": "tie", "member_ids": "275,282"}, "geometry": {"type": "Point", "coordinates": [-51.51446569453774, -60.3893115973171]}}, {"type": "Feature", "properties": {"Climate_Cl": "S", "votes": 1, "cluster_size": 2, "tie": true, "status": "tie", "member_ids": "275,282"}, "geometry": {"type": "Point", "coordinates": [-51.51446569453774, -60.3893115973171]}}, {"type": "Feature", "properties": {"Climate_Cl": "S", "votes": 2, "cluster_size": 2, "tie": false, "status": "majority", "member_ids": "287,302"}, "geometry": {"type": "Point", "coordinates": [-49.772230522903754, -51.74585844740566]}}, {"type": "Feature", "properties": {"Climate_Cl": "H", "votes": 1, "cluster_size": 2, "tie": true, "status": "tie", "member_ids": "307,322"}, "geometry": {"type": "Point", "coordinates": [-51.0346515579985, -54.45119326829302]}}, {"type": "Feature", "properties": {"Climate_Cl": "S", "votes": 1, "cluster_size": 2, "tie": true, "status": "tie", "member_ids": "307,322"}, "geometry": {"type": "Point", "coordinates": [-51.0346515579985, -54.45119326829302]}}, {"type": "Feature", "properties": {"Climate_Cl": "S", "votes": 3, "cluster_size": 4, "tie": false, "status": "majority", "member_ids": "342,359,365,371"}, "geometry": {"type": "Point", "coordinates": [-38.926674171197824, -58.06971991761857]}}, {"type": "Feature", "properties": {"Climate_Cl": "S", "votes": 1, "cluster_size": 1, "tie": false, "status": "majority", "member_ids": "375"}, "geometry": {"type": "Point", "coordinates": [-43.75758774143761, -41.36245114366024]}}, {"type": "Feature", "properties": {"Climate_Cl": "S", "votes": 1, "cluster_size": 2, "tie": true, "status": "tie", "member_ids": "397,409"}, "geometry": {"type": "Point", "coordinates": [-45.716463851840274, -47.44401392032517]}}, {"type": "Feature", "properties": {"Climate_Cl": "D", "votes": 1, "cluster_size": 2, "tie": true, "status": "tie", "member_ids": "397,409"}, "geometry": {"type": "Point", "coordinates": [-45.716463851840274, -47.44401392032517]}}, {"type": "Feature", "properties": {"Climate_Cl": "H", "votes": 1, "cluster_size": 1, "tie": false, "status": "majority", "member_ids": "424"}, "geometry": {"type": "Point", "coordinates": [-42.46437669078361, -35.621629754981775]}}, {"type": "Feature", "properties": {"Climate_Cl": "H", "votes": 1, "cluster_size": 2, "tie": true, "status": "tie", "member_ids": "458,459"}, "geometry": {"type": "Point", "coordinates": [-9.09392470497506, -25.29594265818376]}}, {"type": "Feature", "properties": {"Climate_Cl": "D", "votes": 1, "cluster_size": 2, "tie": true, "status": "tie", "member_ids": "458,459"}, "geometry": {"type": "Point", "coordinates": [-9.09392470497506, -25.29594265818376]}}, {"type": "Feature", "properties": {"Climate_Cl": "H", "votes": 6, "cluster_size": 6, "tie": false, "status": "majority", "member_ids": "463,466,634,635,655,658"}, "geometry": {"type": "Point", "coordinates": [-11.37081949473725, -29.551333256438696]}}, {"type": "Feature", "properties": {"Climate_Cl": "D", "votes": 10, "cluster_size": 18, "tie": false, "status": "majority", "member_ids": "553,556,558,561,564,567,570,1325,1326,1327,1332,1338,1339,1354,1355,1356,1357,1358"}, "geometry": {"type": "Point", "coordinates": [-12.44666789953871, -22.835205105825747]}}, {"type": "Feature", "properties": {"Climate_Cl": "S", "votes": 4, "cluster_size": 4, "tie": false, "status": "majority", "member_ids": "713,716,717,718"}, "geometry": {"type": "Point", "coordinates": [-12.51301758550261, -38.819780182532504]}}, {"type": "Feature", "properties": {"Climate_Cl": "S", "votes": 2, "cluster_size": 2, "tie": false, "status": "majority", "member_ids": "714,715"}, "geometry": {"type": "Point", "coordinates": [-12.447442958650566, -36.85297351351568]}}, {"type": "Feature", "properties": {"Climate_Cl": "H", "votes": 1, "cluster_size": 1, "tie": false, "status": "majority", "member_ids": "749"}, "geometry": {"type": "Point", "coordinates": [-11.097458446709929, -32.71269012829102]}}, {"type": "Feature", "properties": {"Climate_Cl": "S", "votes": 1, "cluster_size": 1, "tie": false, "status": "majority", "member_ids": "773"}, "geometry": {"type": "Point", "coordinates": [-10.243660159563069, -35.66671168274057]}}, {"type": "Feature", "properties": {"Climate_Cl": "H", "votes": 1, "cluster_size": 1, "tie": false, "status": "majority", "member_ids": "791"}, "geometry": {"type": "Point", "coordinates": [-22.845418544206776, -13.162027776257174]}}, {"type": "Feature", "properties": {"Climate_Cl": "H", "votes": 1, "cluster_size": 1, "tie": false, "status": "majority", "member_ids": "807"}, "geometry": {"type": "Point", "coordinates": [-24.5968366412128, -11.628070476702078]}}, {"type": "Feature", "properties": {"Climate_Cl": "S", "votes": 2, "cluster_size": 2, "tie": false, "status": "majority", "member_ids": "829,831"}, "geometry": {"type": "Point", "coordinates": [-19.544046565954847, -20.090015654875092]}}, {"type": "Feature", "properties": {"Climate_Cl": "S", "votes": 5, "cluster_size": 8, "tie": false, "status": "majority", "member_ids": "843,859,1280,1282,1287,1291,1310,1312"}, "geometry": {"type": "Point", "coordinates": [-11.213035721239182, -28.232232896867732]}}, {"type": "Feature", "properties": {"Climate_Cl": "S", "votes": 2, "cluster_size": 2, "tie": false, "status": "majority", "member_ids": "879,884"}, "geometry": {"type": "Point", "coordinates": [-10.930134047412851, -24.840150684583573]}}, {"type": "Feature", "properties": {"Climate_Cl": "H", "votes": 1, "cluster_size": 2, "tie": true, "status": "tie", "member_ids": "915,917"}, "geometry": {"type": "Point", "coordinates": [-10.106053325046584, -31.143059223094543]}}, {"type": "Feature", "properties": {"Climate_Cl": "S", "votes": 1, "cluster_size": 2, "tie": true, "status": "tie", "member_ids": "915,917"}, "geometry": {"type": "Point", "coordinates": [-10.106053325046584, -31.143059223094543]}}, {"type": "Feature", "properties": {"Climate_Cl": "S", "votes": 1, "cluster_size": 1, "tie": false, "status": "majority", "member_ids": "926"}, "geometry": {"type": "Point", "coordinates": [-24.341879936785755, -18.179401151698265]}}, {"type": "Feature", "properties": {"Climate_Cl": "H", "votes": 1, "cluster_size": 2, "tie": true, "status": "tie", "member_ids": "956,960"}, "geometry": {"type": "Point", "coordinates": [-12.147937738073805, -33.779351600039874]}}, {"type": "Feature", "properties": {"Climate_Cl": "S", "votes": 1, "cluster_size": 2, "tie": true, "status": "tie", "member_ids": "956,960"}, "geometry": {"type": "Point", "coordinates": [-12.147937738073805, -33.779351600039874]}}, {"type": "Feature", "properties": {"Climate_Cl": "D", "votes": 2, "cluster_size": 2, "tie": false, "status": "majority", "member_ids": "1065,1066"}, "geometry": {"type": "Point", "coordinates": [-32.0155494352104, -28.107080739397357]}}, {"type": "Feature", "properties": {"Climate_Cl": "S", "votes": 1, "cluster_size": 1, "tie": false, "status": "majority", "member_ids": "1069"}, "geometry": {"type": "Point", "coordinates": [-17.86743288126783, -22.03554451741092]}}, {"type": "Feature", "properties": {"Climate_Cl": "S", "votes": 1, "cluster_size": 1, "tie": false, "status": "majority", "member_ids": "1275"}, "geometry": {"type": "Point", "coordinates": [-10.029548813816287, -20.862391784973134]}}, {"type": "Feature", "properties": {"Climate_Cl": "S", "votes": 7, "cluster_size": 7, "tie": false, "status": "majority", "member_ids": "1448,1450,1451,1452,1453,1511,1512"}, "geometry": {"type": "Point", "coordinates": [-19.761160908895363, -34.10300287924097]}}, {"type": "Feature", "properties": {"Climate_Cl": "S", "votes": 1, "cluster_size": 1, "tie": false, "status": "majority", "member_ids": "1449"}, "geometry": {"type": "Point", "coordinates": [-19.83927220120734, -35.10563852233916]}}, {"type": "Feature", "properties": {"Climate_Cl": "S", "votes": 1, "cluster_size": 1, "tie": false, "status": "majority", "member_ids": "1535"}, "geometry": {"type": "Point", "coordinates": [-14.871101804345374, -40.430102360836706]}}, {"type": "Feature", "properties": {"Climate_Cl": "S", "votes": 1, "cluster_size": 1, "tie": false, "status": "majority", "member_ids": "1619"}, "geometry": {"type": "Point", "coordinates": [-8.316984444426723, -26.49728358634293]}}, {"type": "Feature", "properties": {"Climate_Cl": "S", "votes": 2, "cluster_size": 3, "tie": false, "status": "majority", "member_ids": "1691,1695,1700"}, "geometry": {"type": "Point", "coordinates": [-11.679226456377554, -25.73108358377561]}}, {"type": "Feature", "properties": {"Climate_Cl": "S", "votes": 1, "cluster_size": 1, "tie": false, "status": "majority", "member_ids": "1713"}, "geometry": {"type": "Point", "coordinates": [-7.352912279391528, -23.18474532794459]}}, {"type": "Feature", "properties": {"Climate_Cl": "H", "votes": 21, "cluster_size": 40, "tie": false, "status": "majority", "member_ids": "1725,1728,1732,1736,1740,1744,1748,1760,1764,1768,1772,1776,1780,1784,1788,1792,1796,1800,1808,1812,2119,2120,2121,2122,2123,2124,2125,2126,2127,2128,2129,2130,2131,2132,2133,2134,2135,2136,2137,2138"}, "geometry": {"type": "Point", "coordinates": [-6.93105835942618, -21.857037734772494]}}, {"type": "Feature", "properties": {"Climate_Cl": "S", "votes": 3, "cluster_size": 3, "tie": false, "status": "majority", "member_ids": "1838,1842,1848"}, "geometry": {"type": "Point", "coordinates": [-0.82392242343289, -20.21377086594433]}}, {"type": "Feature", "properties": {"Climate_Cl": "S", "votes": 2, "cluster_size": 2, "tie": false, "status": "majority", "member_ids": "1876,1877"}, "geometry": {"type": "Point", "coordinates": [-48.57256623103552, -43.181692196136126]}}, {"type": "Feature", "properties": {"Climate_Cl": "H", "votes": 1, "cluster_size": 1, "tie": false, "status": "majority", "member_ids": "2109"}, "geometry": {"type": "Point", "coordinates": [5.651237705791081, 0.823350133018358]}}, {"type": "Feature", "properties": {"Climate_Cl": "S", "votes": 1, "cluster_size": 1, "tie": false, "status": "majority", "member_ids": "2274"}, "geometry": {"type": "Point", "coordinates": [-4.192080811992835, -11.156939061963474]}}, {"type": "Feature", "properties": {"Climate_Cl": "S", "votes": 1, "cluster_size": 1, "tie": false, "status": "majority", "member_ids": "2325"}, "geometry": {"type": "Point", "coordinates": [-2.908081655236889, -19.668676222849296]}}, {"type": "Feature", "properties": {"Climate_Cl": "H", "votes": 1, "cluster_size": 1, "tie": false, "status": "majority", "member_ids": "2400"}, "geometry": {"type": "Point", "coordinates": [-48.96648288946314, -31.062577552735444]}}, {"type": "Feature", "properties": {"Climate_Cl": "D", "votes": 1, "cluster_size": 1, "tie": false, "status": "majority", "member_ids": "2414"}, "geometry": {"type": "Point", "coordinates": [-53.17343682682911, -24.56387207542853]}}, {"type": "Feature", "properties": {"Climate_Cl": "H", "votes": 1, "cluster_size": 1, "tie": false, "status": "majority", "member_ids": "2442"}, "geometry": {"type": "Point", "coordinates": [-53.69301819836494, -25.510523140129006]}}, {"type": "Feature", "properties": {"Climate_Cl": "H", "votes": 1, "cluster_size": 1, "tie": false, "status": "majority", "member_ids": "2458"}, "geometry": {"type": "Point", "coordinates": [-52.51537845674576, -20.608993875433494]}}, {"type": "Feature", "properties": {"Climate_Cl": "H", "votes": 1, "cluster_size": 1, "tie": false, "status": "majority", "member_ids": "2486"}, "geometry": {"type": "Point", "coordinates": [-50.17647131153435, -24.89998247342632]}}, {"type": "Feature", "properties": {"Climate_Cl": "S", "votes": 2, "cluster_size": 2, "tie": false, "status": "majority", "member_ids": "2512,2513"}, "geometry": {"type": "Point", "coordinates": [-10.115389032644254, -32.415765332734324]}}, {"type": "Feature", "properties": {"Climate_Cl": "H", "votes": 1, "cluster_size": 2, "tie": true, "status": "tie", "member_ids": "2592,2615"}, "geometry": {"type": "Point", "coordinates": [-25.243995512423396, -2.0091308775772503]}}, {"type": "Feature", "properties": {"Climate_Cl": "S", "votes": 1, "cluster_size": 2, "tie": true, "status": "tie", "member_ids": "2592,2615"}, "geometry": {"type": "Point", "coordinates": [-25.243995512423396, -2.0091308775772503]}}, {"type": "Feature", "properties": {"Climate_Cl": "S", "votes": 2, "cluster_size": 2, "tie": false, "status": "majority", "member_ids": "2596,2597"}, "geometry": {"type": "Point", "coordinates": [-27.942186727110624, -3.352443184238265]}}, {"type": "Feature", "properties": {"Climate_Cl": "S", "votes": 1, "cluster_size": 1, "tie": false, "status": "majority", "member_ids": "2637"}, "geometry": {"type": "Point", "coordinates": [-27.326531706604584, -60.88934065357674]}}, {"type": "Feature", "properties": {"Climate_Cl": "S", "votes": 1, "cluster_size": 1, "tie": false, "status": "majority", "member_ids": "2639"}, "geometry": {"type": "Point", "coordinates": [-26.830268906721976, -58.76665428658796]}}, {"type": "Feature", "properties": {"Climate_Cl": "S", "votes": 11, "cluster_size": 17, "tie": false, "status": "majority", "member_ids": "2768,2771,2774,2776,2779,2782,2785,2788,2791,2793,2795,2801,2805,2809,2875,2891,2895"}, "geometry": {"type": "Point", "coordinates": [5.047454964490119, 2.9624730022669437]}}, {"type": "Feature", "properties": {"Climate_Cl": "D", "votes": 1, "cluster_size": 1, "tie": false, "status": "majority", "member_ids": "2972"}, "geometry": {"type": "Point", "coordinates": [-31.230019435732064, -48.13394890144437]}}, {"type": "Feature", "properties": {"Climate_Cl": "S", "votes": 1, "cluster_size": 1, "tie": false, "status": "majority", "member_ids": "2980"}, "geometry": {"type": "Point", "coordinates": [-30.27116672899443, -51.1522289696179]}}, {"type": "Feature", "properties": {"Climate_Cl": "H", "votes": 2, "cluster_size": 2, "tie": false, "status": "majority", "member_ids": "3032,3033"}, "geometry": {"type": "Point", "coordinates": [-38.32563401956006, -5.776957952933149]}}]}