{"type": "FeatureCollection", "features": [{"type": "Feature", "properties": {"Climate_Cl": "H", "votes": 1, "cluster_size": 1, "tie": false, "status": "majority", "member_ids": "65"}, "geometry": {"type": "Point", "coordinates": [-4.180781143347649, -1.709723310055524]}}, {"type": "Feature", "properties": {"Climate_Cl": "H", "votes": 1, "cluster_size": 1, "tie": false, "status": "majority", "member_ids": "69"}, "geometry": {"type": "Point", "coordinates": [-4.250209428448887, -1.268284345231682]}}, {"type": "Feature", "properties": {"Climate_Cl": "H", "votes": 1, "cluster_size": 1, "tie": false, "status": "majority", "member_ids": "73"}, "geometry": {"type": "Point", "coordinates": [-4.620336039684441, -1.191778292882011]}}, {"type": "Feature", "properties": {"Climate_Cl": "S", "votes": 2, "cluster_size": 2, "tie": false, "status": "majority", "member_ids": "161,170"}, "geometry": {"type": "Point", "coordinates": [-2.4598945754562593, 4.440613471815761]}}, {"type": "Feature", "properties": {"Climate_Cl": "S", "votes": 1, "cluster_size": 1, "tie": false, "status": "majority", "member_ids": "198"}, "geometry": {"type": "Point", "coordinates": [-11.007331024408092, -37.97519918958763]}}, {"type": "Feature", "properties": {"Climate_Cl": "S", "votes": 1, "cluster_size": 1, "tie": false, "status": "majority", "member_ids": "227"}, "geometry": {"type": "Point", "coordinates": [-58.5112624425699, -64.6073423517752]}}, {"type": "Feature", "properties": {"Climate_Cl": "H", "votes": 1, "cluster_size": 1, "tie": false, "status": "majority", "member_ids": "234"}, "geometry": {"type": "Point", "coordinates": [-57.25820654234749, -62.90720658554531]}}, {"type": "Feature", "properties": {"Climate_Cl": "S", "votes": 1, "cluster_size": 1, "tie": false, "status": "majority", "member_ids": "262"}, "geometry": {"type": "Point", "coordinates": [-53.468008212208474, -64.05494301638733]}}, {"type": "Feature", "properties": {"Climate_Cl": "S", "votes": 1, "cluster_size": 1, "tie": false, "status": "majority", "member_ids": "281"}, "geometry": {"type": "Point", "coordinates": [-52.640540797112905, -62.4874559084146]}}, {"type": "Feature", "properties": {"Climate_Cl": "D", "votes": 1, "cluster_size": 1, "tie": false, "status": "majority", "member_ids": "285"}, "geometry": {"type": "Point", "coordinates": [-51.859933542107484, -53.33729404013694]}}, {"type": "Feature", "properties": {"Climate_Cl": "D", "votes": 1, "cluster_size": 1, "tie": false, "status": "majority", "member_ids": "286"}, "geometry": {"type": "Point", "coordinates": [-51.97994669583832, -54.38415044868807]}}, {"type": "Feature", "properties": {"Climate_Cl": "S", "votes": 1, "cluster_size": 1, "tie": false, "status": "majority", "member_ids": "321"}, "geometry": {"type": "Point", "coordinates": [-52.36472735724912, -55.147034589644335]}}, {"type": "Feature", "properties": {"Climate_Cl": "S", "votes": 3, "cluster_size": 4, "tie": false, "status": "majority", "member_ids": "341,358,364,370"}, "geometry": {"type": "Point", "coordinates": [-40.05364758439327, -58.87379025432115]}}, {"type": "Feature", "properties": {"Climate_Cl": "S", "votes": 1, "cluster_size": 1, "tie": false, "status": "majority", "member_ids": "374"}, "geometry": {"type": "Point", "coordinates": [-44.58990006568188, -41.979393358655344]}}, {"type": "Feature", "properties": {"Climate_Cl": "S", "votes": 1, "cluster_size": 2, "tie": true, "status": "tie", "member_ids": "396,408"}, "geometry": {"type": "Point", "coordinates": [-46.91124439118586, -48.00032120350106]}}, {"type": "Feature", "properties": {"Climate_Cl": "D", "votes": 1, "cluster_size": 2, "tie": true, "status": "tie", "member_ids": "396,408"}, "geometry": {"type": "Point", "coordinates": [-46.91124439118586, -48.00032120350106]}}, {"type": "Feature", "properties": {"Climate_Cl": "H", "votes": 1, "cluster_size": 1, "tie": false, "status": "majority", "member_ids": "423"}, "geometry": {"type": "Point", "coordinates": [-43.01927070316046, -36.278665051389474]}}, {"type": "Feature", "properties": {"Climate_Cl": "H", "votes": 1, "cluster_size": 2, "tie": true, "status": "tie", "member_ids": "456,457"}, "geometry": {"type": "Point", "coordinates": [-8.96098100085062, -26.728729280553004]}}, {"type": "Feature", "properties": {"Climate_Cl": "D", "votes": 1, "cluster_size": 2, "tie": true, "status": "tie", "member_ids": "456,457"}, "geometry": {"type": "Point", "coordinates": [-8.96098100085062, -26.728729280553004]}}, {"type": "Feature", "properties": {"Climate_Cl": "H", "votes": 4, "cluster_size": 6, "tie": false, "status": "majority", "member_ids": "462,470,632,633,654,657"}, "geometry": {"type": "Point", "coordinates": [-11.363179367578612, -30.943602354016488]}}, {"type": "Feature", "properties": {"Climate_Cl": "H", "votes": 1, "cluster_size": 1, "tie": false, "status": "majority", "member_ids": "492"}, "geometry": {"type": "Point", "coordinates": [-12.814175264491418, -24.667509546660796]}}, {"type": "Feature", "properties": {"Climate_Cl": "H", "votes": 2, "cluster_size": 2, "tie": false, "status": "majority", "member_ids": "495,498"}, "geometry": {"type": "Point", "coordinates": [-12.304857927500867, -24.48160591877966]}}, {"type": "Feature", "properties": {"Climate_Cl": "H", "votes": 1, "cluster_size": 1, "tie": false, "status": "majority", "member_ids": "748"}, "geometry": {"type": "Point", "coordinates": [-11.164186583441055, -34.10916169258683]}}, {"type": "Feature", "properties": {"Climate_Cl": "S", "votes": 1, "cluster_size": 1, "tie": false, "status": "majority", "member_ids": "772"}, "geometry": {"type": "Point", "coordinates": [-10.373610571264349, -37.07761486795421]}}, {"type": "Feature", "properties": {"Climate_Cl": "H", "votes": 1, "cluster_size": 1, "tie": false, "status": "majority", "member_ids": "790"}, "geometry": {"type": "Point", "coordinates": [-22.55408348409439, -14.326471642475791]}}, {"type": "Feature", "properties": {"Climate_Cl": "H", "votes": 1, "cluster_size": 1, "tie": false, "status": "majority", "member_ids": "806"}, "geometry": {"type": "Point", "coordinates": [-24.27659399540409, -12.753336017267424]}}, {"type": "Feature", "properties": {"Climate_Cl": "H", "votes": 1, "cluster_size": 1, "tie": false, "status": "majority", "member_ids": "842"}, "geometry": {"type": "Point", "coordinates": [-9.940730176649527, -29.543111320568162]}}, {"type": "Feature", "properties": {"Climate_Cl": "H", "votes": 1, "cluster_size": 2, "tie": true, "status": "tie", "member_ids": "858,860"}, "geometry": {"type": "Point", "coordinates": [-10.778666641079413, -29.78500783598072]}}, {"type": "Feature", "properties": {"Climate_Cl": "S", "votes": 1, "cluster_size": 2, "tie": true, "status": "tie", "member_ids": "858,860"}, "geometry": {"type": "Point", "coordinates": [-10.778666641079413, -29.78500783598072]}}, {"type": "Feature", "properties": {"Climate_Cl": "S", "votes": 2, "cluster_size": 2, "tie": false, "status": "majority", "member_ids": "878,883"}, "geometry": {"type": "Point", "coordinates": [-10.809180744724962, -26.24122466616937]}}, {"type": "Feature", "properties": {"Climate_Cl": "S", "votes": 1, "cluster_size": 1, "tie": false, "status": "majority", "member_ids": "959"}, "geometry": {"type": "Point", "coordinates": [-12.25971917426016, -35.156566399372586]}}, {"type": "Feature", "properties": {"Climate_Cl": "H", "votes": 1, "cluster_size": 1, "tie": false, "status": "majority", "member_ids": "1019"}, "geometry": {"type": "Point", "coordinates": [-25.654904573862922, -35.28582474142519]}}, {"type": "Feature", "properties": {"Climate_Cl": "H", "votes": 1, "cluster_size": 1, "tie": false, "status": "majority", "member_ids": "1021"}, "geometry": {"type": "Point", "coordinates": [-34.392604319771195, -47.18683536517299]}}, {"type": "Feature", "properties": {"Climate_Cl": "D", "votes": 1, "cluster_size": 1, "tie": false, "status": "majority", "member_ids": "1031"}, "geometry": {"type": "Point", "coordinates": [-28.47362203902922, -46.90135470608213]}}, {"type": "Feature", "properties": {"Climate_Cl": "D", "votes": 2, "cluster_size": 2, "tie": false, "status": "majority", "member_ids": "1063,1064"}, "geometry": {"type": "Point", "coordinates": [-32.20120701097381, -29.047468413890893]}}, {"type": "Feature", "properties": {"Climate_Cl": "S", "votes": 1, "cluster_size": 1, "tie": false, "status": "majority", "member_ids": "1271"}, "geometry": {"type": "Point", "coordinates": [-10.163555220225406, -22.677155370349304]}}, {"type": "Feature", "properties": {"Climate_Cl": "S", "votes": 1, "cluster_size": 1, "tie": false, "status": "majority", "member_ids": "1274"}, "geometry": {"type": "Point", "coordinates": [-9.816128396146432, -22.279943757315415]}}, {"type": "Feature", "properties": {"Climate_Cl": "S", "votes": 6, "cluster_size": 7, "tie": false, "status": "majority", "member_ids": "1279,1281,1284,1286,1290,1309,1311"}, "geometry": {"type": "Point", "coordinates": [-11.44272671433213, -29.61537744878104]}}, {"type": "Feature", "properties": {"Climate_Cl": "S", "votes": 7, "cluster_size": 12, "tie": false, "status": "majority", "member_ids": "1322,1323,1324,1331,1336,1337,1348,1349,1350,1351,1352,1353"}, "geometry": {"type": "Point", "coordinates": [-11.641033426887239, -23.926201480103344]}}, {"type": "Feature", "properties": {"Climate_Cl": "S", "votes": 2, "cluster_size": 2, "tie": false, "status": "majority", "member_ids": "1509,1510"}, "geometry": {"type": "Point", "coordinates": [-20.177117506217535, -35.329655753073844]}}, {"type": "Feature", "properties": {"Climate_Cl": "S", "votes": 1, "cluster_size": 1, "tie": false, "status": "majority", "member_ids": "1534"}, "geometry": {"type": "Point", "coordinates": [-15.234831315320697, -41.75387195893611]}}, {"type": "Feature", "properties": {"Climate_Cl": "S", "votes": 1, "cluster_size": 1, "tie": false, "status": "majority", "member_ids": "1536"}, "geometry": {"type": "Point", "coordinates": [-16.675439806922267, -43.019961986137204]}}, {"type": "Feature", "properties": {"Climate_Cl": "S", "votes": 1, "cluster_size": 1, "tie": false, "status": "majority", "member_ids": "1580"}, "geometry": {"type": "Point", "coordinates": [-8.199516422919107, -27.94287621718351]}}, {"type": "Feature", "properties": {"Climate_Cl": "S", "votes": 3, "cluster_size": 4, "tie": false, "status": "majority", "member_ids": "1688,1690,1694,1699"}, "geometry": {"type": "Point", "coordinates": [-11.586777638252064, -27.1185918590175]}}, {"type": "Feature", "properties": {"Climate_Cl": "S", "votes": 3, "cluster_size": 3, "tie": false, "status": "majority", "member_ids": "1837,1844,1847"}, "geometry": {"type": "Point", "coordinates": [-0.6375608455148677, -21.70519705233301]}}, {"type": "Feature", "properties": {"Climate_Cl": "H", "votes": 1, "cluster_size": 1, "tie": false, "status": "majority", "member_ids": "1870"}, "geometry": {"type": "Point", "coordinates": [-61.27699164769583, -66.42462926352842]}}, {"type": "Feature", "properties": {"Climate_Cl": "S", "votes": 6, "cluster_size": 8, "tie": false, "status": "majority", "member_ids": "1874,1875,1884,1885,1886,1887,1890,1891"}, "geometry": {"type": "Point", "coordinates": [-49.539791001026394, -43.65912996355648]}}, {"type": "Feature", "properties": {"Climate_Cl": "S", "votes": 1, "cluster_size": 2, "tie": true, "status": "tie", "member_ids": "2031,2032"}, "geometry": {"type": "Point", "coordinates": [-11.365683670681484, -30.003710807233663]}}, {"type": "Feature", "properties": {"Climate_Cl": "D", "votes": 1, "cluster_size": 2, "tie": true, "status": "tie", "member_ids": "2031,2032"}, "geometry": {"type": "Point", "coordinates": [-11.365683670681484, -30.003710807233663]}}, {"type": "Feature", "properties": {"Climate_Cl": "H", "votes": 1, "cluster_size": 1, "tie": false, "status": "majority", "member_ids": "2108"}, "geometry": {"type": "Point", "coordinates": [6.211364033763259, -0.851049457148778]}}, {"type": "Feature", "properties": {"Climate_Cl": "S", "votes": 1, "cluster_size": 1, "tie": false, "status": "majority", "member_ids": "2273"}, "geometry": {"type": "Point", "coordinates": [-3.827243942811718, -12.661753148138837]}}, {"type": "Feature", "properties": {"Climate_Cl": "H", "votes": 1, "cluster_size": 1, "tie": false, "status": "majority", "member_ids": "2399"}, "geometry": {"type": "Point", "coordinates": [-49.37281500401493, -31.53670162618873]}}, {"type": "Feature", "properties": {"Climate_Cl": "D", "votes": 1, "cluster_size": 1, "tie": false, "status": "majority", "member_ids": "2413"}, "geometry": {"type": "Point", "coordinates": [-53.349021913036665, -24.918310298354413]}}, {"type": "Feature", "properties": {"Climate_Cl": "H", "votes": 1, "cluster_size": 1, "tie": false, "status": "majority", "member_ids": "2441"}, "geometry": {"type": "Point", "coordinates": [-53.90399251356489, -25.84909930787847]}}, {"type": "Feature", "properties": {"Climate_Cl": "H", "votes": 1, "cluster_size": 1, "tie": false, "status": "majority", "member_ids": "2457"}, "geometry": {"type": "Point", "coordinates": [-52.552287856075324, -20.984855317195688]}}, {"type": "Feature", "properties": {"Climate_Cl": "S", "votes": 1, "cluster_size": 1, "tie": false, "status": "majority", "member_ids": "2488"}, "geometry": {"type": "Point", "coordinates": [-52.19572421920241, -26.098805137610412]}}, {"type": "Feature", "properties": {"Climate_Cl": "S", "votes": 2, "cluster_size": 2, "tie": false, "status": "majority", "member_ids": "2594,2595"}, "geometry": {"type": "Point", "coordinates": [-27.499684327228522, -4.40942075425005]}}, {"type": "Feature", "properties": {"Climate_Cl": "S", "votes": 2, "cluster_size": 2, "tie": false, "status": "majority", "member_ids": "2770,2773"}, "geometry": {"type": "Point", "coordinates": [5.780036578121162, 2.545921621972737]}}, {"type": "Feature", "properties": {"Climate_Cl": "S", "votes": 4, "cluster_size": 5, "tie": false, "status": "majority", "member_ids": "2778,2781,2784,2787,2790"}, "geometry": {"type": "Point", "coordinates": [5.739819416933314, 0.438250941007351]}}, {"type": "Feature", "properties": {"Climate_Cl": "D", "votes": 1, "cluster_size": 1, "tie": false, "status": "majority", "member_ids": "2971"}, "geometry": {"type": "Point", "coordinates": [-32.263283387326986, -49.08353464519232]}}, {"type": "Feature", "properties": {"Climate_Cl": "S", "votes": 1, "cluster_size": 1, "tie": false, "status": "majority", "member_ids": "2979"}, "geometry": {"type": "Point", "coordinates": [-31.4716428915555, -52.1237565084381]}}]}