{"type": "FeatureCollection", "features": [{"type": "Feature", "properties": {"ID": "370", "Country": "Argentina", "Basin_Sub_": "Rawson", "Group": " ", "Formation": "Syn-rift sequence III", "Member": null, "Well name/ outcrop": "Ayra x-1 well", "Latitude": "-42.17", "Longitude": "-60.83", "Dating evidence": "Seismic correlations; Authigenic illite radiometric ages: 109 ?18 Ma", "REF(Authors, Year)": "Continanzia et al., 2011", "Show_on_Ma": "130", "Lithology, structures, paleowind": "Reddish to brownish sandstones and mudstones; red beds", "Paleoenvironment": "Arid fluvial; alluvial fans; floodplains", "REF (Authors, Year)": "Continanzia et al., 2011", "Fossil occurrences": null, "REF (Authors, Year)_1": null, "Geochemistry data": null, "REF (Authors, Year)_2": null, "Sediment-based climate inference (hot/cold, humid/semi-arid/desert)": "Arid", "Fossil-based climate inference (hot/cold, humid/semi-arid/desert)": null, "Geochemistry-based climate inference  (hot/cold, humid/semi-arid/desert)": null, "Climate assignment leading evidence": "Arid fluvial deposits", "Climate_Cl": "D", "Weight": "2", "PlateID": "283", "Sediment-based climate inference (hot/cold, humid/S/desert)": null, "Fossil-based climate inference (hot/cold, humid/S/desert)": null, "Geochemistry-based climate inference  (hot/cold, humid/S/desert)": null, "PaleozonaCodigo": null, "layer": "130.00Ma_point", "path": "C:/Users/Leonardo Bachi/OneDrive/Desktop/ITT_OCEANEON/20_SETEMBRO_TABELA_FINAL/PONTOS_RETIFICADOS/130.00Ma.geojson", "winner": "S", "cluster_size": 4}, "geometry": {"type": "Point", "coordinates": [-40.05364758439327, -58.87379025432115]}}, {"type": "Feature", "properties": {"ID": "462", "Country": "Brazil", "Basin_Sub_": "Camamu", "Group": "Almada", "Formation": "Rio de Contas", "Member": "N/A", "Well name/ outcrop": "N/A", "Latitude": "-13.83", "Longitude": "-38.5", "Dating evidence": "Stratigraphic relationships", "REF(Authors, Year)": "Caixeta et al. 2007; Gontijo et al. 2007", "Show_on_Ma": "130", "Lithology, structures, paleowind": "Sandstones, shales and minor carbonates", "Paleoenvironment": "Lacustrine with fresh to brackish water", "REF (Authors, Year)": "Gon?lves et al. 1997", "Fossil occurrences": "N/A", "REF (Authors, Year)_1": "N/A", "Geochemistry data": "Organic matter rich in oxygen (IO)  and poorer in hydrogen (IH). The oxygen isotope ratio of carbonates (18OCARB) shows a general trend of enrichment in 16O.", "REF (Authors, Year)_2": "Gon?lves et al. 1997", "Sediment-based climate inference (hot/cold, humid/semi-arid/desert)": "N/A", "Fossil-based climate inference (hot/cold, humid/semi-arid/desert)": "N/A", "Geochemistry-based climate inference  (hot/cold, humid/semi-arid/desert)": "Humid", "Climate assignment leading evidence": "Decrease of 18OCARB  values", "Climate_Cl": "H", "Weight": "5", "PlateID": "201", "Sediment-based climate inference (hot/cold, humid/S/desert)": null, "Fossil-based climate inference (hot/cold, humid/S/desert)": null, "Geochemistry-based climate inference  (hot/cold, humid/S/desert)": null, "PaleozonaCodigo": null, "layer": "130.00Ma_point", "path": "C:/Users/Leonardo Bachi/OneDrive/Desktop/ITT_OCEANEON/20_SETEMBRO_TABELA_FINAL/PONTOS_RETIFICADOS/130.00Ma.geojson", "winner": "S", "cluster_size": 18}, "geometry": {"type": "Point", "coordinates": [-11.363179367578612, -30.943602354016488]}}, {"type": "Feature", "properties": {"ID": "470", "Country": "Brazil", "Basin_Sub_": "Camamu", "Group": "Almada", "Formation": "Morro do Barro", "Member": "N/A", "Well name/ outcrop": "Northern Cammamu basin. ~10 km to the east of the NNE-SSW trending rift border fault.", "Latitude": "-13.83", "Longitude": "-38.5", "Dating evidence": "Non-marine Ostracods", "REF(Authors, Year)": "Viana et al., 1971; Picarelli and Grillo, 1996    apud Gon?lves et al., 2001; 2002 .", "Show_on_Ma": "130", "Lithology, structures, paleowind": "Dark-gray to brown\nshales, carbonates and minor sandstones", "Paleoenvironment": "Lacustrine with fresh to brackish water", "REF (Authors, Year)": "Gon?lves et al. 2002", "Fossil occurrences": "Palynology", "REF (Authors, Year)_1": "  Picarelli et al. 1993; Picarelli and grilo, 1996 apud Gon?lves et al., 2020 .", "Geochemistry data": "18OCARB (Highest values)", "REF (Authors, Year)_2": "Gon?lves et al. 2002", "Sediment-based climate inference (hot/cold, humid/semi-arid/desert)": "Desert", "Fossil-based climate inference (hot/cold, humid/semi-arid/desert)": "Arid", "Geochemistry-based climate inference  (hot/cold, humid/semi-arid/desert)": "Arid", "Climate assignment leading evidence": "18OCARB  (Highest values) and deposition of carbonates and marls, result from increasing evaporation associated with aridity.", "Climate_Cl": "D", "Weight": "5", "PlateID": "201", "Sediment-based climate inference (hot/cold, humid/S/desert)": null, "Fossil-based climate inference (hot/cold, humid/S/desert)": null, "Geochemistry-based climate inference  (hot/cold, humid/S/desert)": null, "PaleozonaCodigo": null, "layer": "130.00Ma_point", "path": "C:/Users/Leonardo Bachi/OneDrive/Desktop/ITT_OCEANEON/20_SETEMBRO_TABELA_FINAL/PONTOS_RETIFICADOS/130.00Ma.geojson", "winner": "S", "cluster_size": 18}, "geometry": {"type": "Point", "coordinates": [-11.363179367578612, -30.943602354016488]}}, {"type": "Feature", "properties": {"ID": "632", "Country": "Brazil", "Basin_Sub_": "Camamu", "Group": " ", "Formation": "Morro do Barro", "Member": null, "Well name/ outcrop": "Northern Cammamu basin. ~10 km to the east of the NNE-SSW trending rift border fault.", "Latitude": "-13.83", "Longitude": "-38.5", "Dating evidence": "Non-marine Ostracods", "REF(Authors, Year)": "Viana et al., 1971; Picarelli and Grillo, 1996    apud Gon?lves et al., 2001; 2002 .", "Show_on_Ma": "130", "Lithology, structures, paleowind": "Dark-gray to brown\nshales, carbonates and minor sandstones", "Paleoenvironment": "Lacustrine with fresh to brackish water", "REF (Authors, Year)": "Gon?lves et al. 2002", "Fossil occurrences": "Palynology", "REF (Authors, Year)_1": "  Picarelli et al. 1993; Picarelli and grilo, 1996 apud Gon?lves et al., 2020 .", "Geochemistry data": "18OCARB (Highest values)", "REF (Authors, Year)_2": "Gon?lves et al. 2002", "Sediment-based climate inference (hot/cold, humid/semi-arid/desert)": "Desert", "Fossil-based climate inference (hot/cold, humid/semi-arid/desert)": "Arid", "Geochemistry-based climate inference  (hot/cold, humid/semi-arid/desert)": "Arid", "Climate assignment leading evidence": "18OCARB  (Highest values) and deposition of carbonates and marls, result from increasing evaporation associated with aridity.", "Climate_Cl": "D", "Weight": "5", "PlateID": "201", "Sediment-based climate inference (hot/cold, humid/S/desert)": null, "Fossil-based climate inference (hot/cold, humid/S/desert)": null, "Geochemistry-based climate inference  (hot/cold, humid/S/desert)": null, "PaleozonaCodigo": null, "layer": "130.00Ma_point", "path": "C:/Users/Leonardo Bachi/OneDrive/Desktop/ITT_OCEANEON/20_SETEMBRO_TABELA_FINAL/PONTOS_RETIFICADOS/130.00Ma.geojson", "winner": "S", "cluster_size": 18}, "geometry": {"type": "Point", "coordinates": [-11.363179367578612, -30.943602354016488]}}, {"type": "Feature", "properties": {"ID": "633", "Country": "Brazil", "Basin_Sub_": "Camamu", "Group": " ", "Formation": "Rio de Contas", "Member": null, "Well name/ outcrop": null, "Latitude": "-13.83", "Longitude": "-38.5", "Dating evidence": "Stratigraphic relationships", "REF(Authors, Year)": "Caixeta et al. 2007; Gontijo et al. 2007", "Show_on_Ma": "130", "Lithology, structures, paleowind": "Sandstones, shales and minor carbonates", "Paleoenvironment": "Lacustrine with fresh to brackish water", "REF (Authors, Year)": "Gon?lves et al. 1997", "Fossil occurrences": null, "REF (Authors, Year)_1": null, "Geochemistry data": "Organic matter rich in oxygen (IO)  and poorer in hydrogen (IH). The oxygen isotope ratio of carbonates (18OCARB) shows a general trend of enrichment in 16O.", "REF (Authors, Year)_2": "Gon?lves et al. 1997", "Sediment-based climate inference (hot/cold, humid/semi-arid/desert)": null, "Fossil-based climate inference (hot/cold, humid/semi-arid/desert)": null, "Geochemistry-based climate inference  (hot/cold, humid/semi-arid/desert)": "Humid", "Climate assignment leading evidence": "Decrease of 18OCARB  values", "Climate_Cl": "H", "Weight": "5", "PlateID": "201", "Sediment-based climate inference (hot/cold, humid/S/desert)": null, "Fossil-based climate inference (hot/cold, humid/S/desert)": null, "Geochemistry-based climate inference  (hot/cold, humid/S/desert)": null, "PaleozonaCodigo": null, "layer": "130.00Ma_point", "path": "C:/Users/Leonardo Bachi/OneDrive/Desktop/ITT_OCEANEON/20_SETEMBRO_TABELA_FINAL/PONTOS_RETIFICADOS/130.00Ma.geojson", "winner": "S", "cluster_size": 18}, "geometry": {"type": "Point", "coordinates": [-11.363179367578612, -30.943602354016488]}}, {"type": "Feature", "properties": {"ID": "654", "Country": "Brazil", "Basin_Sub_": "Camamu/Almada", "Group": "Almada", "Formation": "Rio de Contas", "Member": "MutáN/A", "Well name/ outcrop": null, "Latitude": "-13.83", "Longitude": "-38.5", "Dating evidence": "Stratigraphic relationships", "REF(Authors, Year)": "Caixeta et al. 2007; Gontijo et al. 2007", "Show_on_Ma": "130", "Lithology, structures, paleowind": "Conglomeratic, dolomitic, fine to medium grained, white-grey sandstones", "Paleoenvironment": "Fluvial/Alluvial fans", "REF (Authors, Year)": "Caixeta et al. 2007; Gontijo et al. 2007", "Fossil occurrences": "N/A", "REF (Authors, Year)_1": "N/A", "Geochemistry data": "N/A", "REF (Authors, Year)_2": "N/A", "Sediment-based climate inference (hot/cold, humid/semi-arid/desert)": "Humid?", "Fossil-based climate inference (hot/cold, humid/semi-arid/desert)": "N/A", "Geochemistry-based climate inference  (hot/cold, humid/semi-arid/desert)": "N/A", "Climate assignment leading evidence": "Contemporaneous sedimentation with the Ilh?s Member", "Climate_Cl": "H", "Weight": "1", "PlateID": "201", "Sediment-based climate inference (hot/cold, humid/S/desert)": null, "Fossil-based climate inference (hot/cold, humid/S/desert)": null, "Geochemistry-based climate inference  (hot/cold, humid/S/desert)": null, "PaleozonaCodigo": null, "layer": "130.00Ma_point", "path": "C:/Users/Leonardo Bachi/OneDrive/Desktop/ITT_OCEANEON/20_SETEMBRO_TABELA_FINAL/PONTOS_RETIFICADOS/130.00Ma.geojson", "winner": "S", "cluster_size": 18}, "geometry": {"type": "Point", "coordinates": [-11.363179367578612, -30.943602354016488]}}, {"type": "Feature", "properties": {"ID": "657", "Country": "Brazil", "Basin_Sub_": "Camamu/Almada", "Group": "Almada", "Formation": "Rio de Contas", "Member": "Ilh?s", "Well name/ outcrop": "N/A", "Latitude": "-13.83", "Longitude": "-38.5", "Dating evidence": "Stratigraphic relationships", "REF(Authors, Year)": "Caixeta et al. 2007; Gontijo et al. 2007", "Show_on_Ma": "130", "Lithology, structures, paleowind": "Green-gray, dark gray, brown shales, associated with very fine sandstones", "Paleoenvironment": "Lacustrine/fluvio-deltaic", "REF (Authors, Year)": "Caixeta et al. 2007; Gontijo et al. 2007", "Fossil occurrences": "N/A", "REF (Authors, Year)_1": "N/A", "Geochemistry data": "N/A", "REF (Authors, Year)_2": "N/A", "Sediment-based climate inference (hot/cold, humid/semi-arid/desert)": "Humid?", "Fossil-based climate inference (hot/cold, humid/semi-arid/desert)": "N/A", "Geochemistry-based climate inference  (hot/cold, humid/semi-arid/desert)": "N/A", "Climate assignment leading evidence": "Lithology", "Climate_Cl": "H", "Weight": "2", "PlateID": "201", "Sediment-based climate inference (hot/cold, humid/S/desert)": null, "Fossil-based climate inference (hot/cold, humid/S/desert)": null, "Geochemistry-based climate inference  (hot/cold, humid/S/desert)": null, "PaleozonaCodigo": null, "layer": "130.00Ma_point", "path": "C:/Users/Leonardo Bachi/OneDrive/Desktop/ITT_OCEANEON/20_SETEMBRO_TABELA_FINAL/PONTOS_RETIFICADOS/130.00Ma.geojson", "winner": "S", "cluster_size": 18}, "geometry": {"type": "Point", "coordinates": [-11.363179367578612, -30.943602354016488]}}, {"type": "Feature", "properties": {"ID": "842", "Country": "Brazil", "Basin_Sub_": "Jacuípe", "Group": "Almada", "Formation": "Rio de Contas", "Member": "N/A", "Well name/ outcrop": "N/A", "Latitude": "-12.5", "Longitude": "-37.16", "Dating evidence": "Stratigraphic relationships", "REF(Authors, Year)": "Graddi et al. 2007", "Show_on_Ma": "130", "Lithology, structures, paleowind": "Conglomerates, sandstones, shales", "Paleoenvironment": "Continental (lacustrine, alluvial fans)", "REF (Authors, Year)": "Graddi et al. 2007", "Fossil occurrences": "N/A", "REF (Authors, Year)_1": "N/A", "Geochemistry data": "N/A", "REF (Authors, Year)_2": "N/A", "Sediment-based climate inference (hot/cold, humid/semi-arid/desert)": "Humid?", "Fossil-based climate inference (hot/cold, humid/semi-arid/desert)": "N/A", "Geochemistry-based climate inference  (hot/cold, humid/semi-arid/desert)": "N/A", "Climate assignment leading evidence": "Perennial lacustrine deposits", "Climate_Cl": "H", "Weight": "2", "PlateID": "201", "Sediment-based climate inference (hot/cold, humid/S/desert)": null, "Fossil-based climate inference (hot/cold, humid/S/desert)": null, "Geochemistry-based climate inference  (hot/cold, humid/S/desert)": null, "PaleozonaCodigo": null, "layer": "130.00Ma_point", "path": "C:/Users/Leonardo Bachi/OneDrive/Desktop/ITT_OCEANEON/20_SETEMBRO_TABELA_FINAL/PONTOS_RETIFICADOS/130.00Ma.geojson", "winner": "S", "cluster_size": 18}, "geometry": {"type": "Point", "coordinates": [-9.940730176649527, -29.543111320568162]}}, {"type": "Feature", "properties": {"ID": "858", "Country": "Brazil", "Basin_Sub_": "Jacuípe", "Group": "Almada", "Formation": "Rio de Contas", "Member": "Rift 2", "Well name/ outcrop": "Well 1", "Latitude": "-12.7", "Longitude": "-37.919", "Dating evidence": "N/A", "REF(Authors, Year)": "N/A", "Show_on_Ma": "130", "Lithology, structures, paleowind": "Shales interbedded with sandstones; locally limestones", "Paleoenvironment": "Deep lacustrine setting with fluvio-deltaic input", "REF (Authors, Year)": "Nunes and Holz, 2019", "Fossil occurrences": "N/A", "REF (Authors, Year)_1": "N/A", "Geochemistry data": "N/A", "REF (Authors, Year)_2": "N/A", "Sediment-based climate inference (hot/cold, humid/semi-arid/desert)": "H?", "Fossil-based climate inference (hot/cold, humid/semi-arid/desert)": "N/A", "Geochemistry-based climate inference  (hot/cold, humid/semi-arid/desert)": "N/A", "Climate assignment leading evidence": "Deep lacustrine  with fluvio-deltaic input", "Climate_Cl": "H", "Weight": "2", "PlateID": "201", "Sediment-based climate inference (hot/cold, humid/S/desert)": null, "Fossil-based climate inference (hot/cold, humid/S/desert)": null, "Geochemistry-based climate inference  (hot/cold, humid/S/desert)": null, "PaleozonaCodigo": null, "layer": "130.00Ma_point", "path": "C:/Users/Leonardo Bachi/OneDrive/Desktop/ITT_OCEANEON/20_SETEMBRO_TABELA_FINAL/PONTOS_RETIFICADOS/130.00Ma.geojson", "winner": "S", "cluster_size": 18}, "geometry": {"type": "Point", "coordinates": [-10.778666641079413, -29.78500783598072]}}, {"type": "Feature", "properties": {"ID": "1311", "Country": "Brazil", "Basin_Sub_": "Recôncavo", "Group": "Santo Amaro / Ilhas", "Formation": "Pojuca", "Member": "N/A", "Well name/ outcrop": "9-FBA-65-BA", "Latitude": "-12.5", "Longitude": "-38.5", "Dating evidence": "Biostratigraphy palinomorphs: Vitreisporites pallidus", "REF(Authors, Year)": "Portela, 2012", "Show_on_Ma": "130", "Lithology, structures, paleowind": "Shales and sandstones", "Paleoenvironment": "Continental: fluvial deltaic-lacustrine", "REF (Authors, Year)": "Portela, 2012", "Fossil occurrences": "Dicheiropollis etruscus, Vitreisporites pallidus", "REF (Authors, Year)_1": "Portela, 2012", "Geochemistry data": "Type II, TOC (1,5%), Pyrolysis and Rock-Eval", "REF (Authors, Year)_2": "Portela, 2012", "Sediment-based climate inference (hot/cold, humid/semi-arid/desert)": "N/A", "Fossil-based climate inference (hot/cold, humid/semi-arid/desert)": "Hot, Semi-Arid", "Geochemistry-based climate inference  (hot/cold, humid/semi-arid/desert)": "N/A", "Climate assignment leading evidence": "N/A", "Climate_Cl": "D", "Weight": "6", "PlateID": "201", "Sediment-based climate inference (hot/cold, humid/S/desert)": null, "Fossil-based climate inference (hot/cold, humid/S/desert)": null, "Geochemistry-based climate inference  (hot/cold, humid/S/desert)": null, "PaleozonaCodigo": null, "layer": "130.00Ma_point", "path": "C:/Users/Leonardo Bachi/OneDrive/Desktop/ITT_OCEANEON/20_SETEMBRO_TABELA_FINAL/PONTOS_RETIFICADOS/130.00Ma.geojson", "winner": "S", "cluster_size": 18}, "geometry": {"type": "Point", "coordinates": [-11.44272671433213, -29.61537744878104]}}, {"type": "Feature", "properties": {"ID": "2031", "Country": "Gabon", "Basin_Sub_": "South Gabon subbasin", "Group": "Kango", "Formation": "Kissenda ", "Member": "N/A", "Well name/ outcrop": "well a", "Latitude": "-2.05", "Longitude": "9.083", "Dating evidence": "Biostratigraphy: palynomorphs; ostracods", "REF(Authors, Year)": "Doyle et al., 1977, 1982; 1992; Grosdidier et al 1996; Bate et al 1999; Poropat & Coolin 2012", "Show_on_Ma": "130", "Lithology, structures, paleowind": "mudstone dominated", "Paleoenvironment": "Continental: lacustrine", "REF (Authors, Year)": "Eldrett et al 2023", "Fossil occurrences": "ostracods, palynomorphs", "REF (Authors, Year)_1": "Eldrett et al 2023", "Geochemistry data": "Mean d13C values of ~ -26?are recorded in the Kissenda Fm. (1190?300 m), with a ~3?increase in the lowermost part of the section reaching peak values of ~ -23?at 1235 m", "REF (Authors, Year)_2": "Eldrett et al 2023", "Sediment-based climate inference (hot/cold, humid/semi-arid/desert)": "N/A", "Fossil-based climate inference (hot/cold, humid/semi-arid/desert)": "S-D", "Geochemistry-based climate inference  (hot/cold, humid/semi-arid/desert)": "N/A", "Climate assignment leading evidence": "microflora (william)/ Abundant (>50%) content of Classopollis pollen (Romulo)", "Climate_Cl": "D", "Weight": "3", "PlateID": "701", "Sediment-based climate inference (hot/cold, humid/S/desert)": null, "Fossil-based climate inference (hot/cold, humid/S/desert)": null, "Geochemistry-based climate inference  (hot/cold, humid/S/desert)": null, "PaleozonaCodigo": null, "layer": "130.00Ma_point", "path": "C:/Users/Leonardo Bachi/OneDrive/Desktop/ITT_OCEANEON/20_SETEMBRO_TABELA_FINAL/PONTOS_RETIFICADOS/130.00Ma.geojson", "winner": "S", "cluster_size": 18}, "geometry": {"type": "Point", "coordinates": [-11.365683670681484, -30.003710807233663]}}, {"type": "Feature", "properties": {"ID": "492", "Country": "Brazil", "Basin_Sub_": "Araripe", "Group": "Vale do Cariri", "Formation": "Abaiara", "Member": "N/A", "Well name/ outcrop": "General location", "Latitude": "-7.5", "Longitude": "-39.5", "Dating evidence": "Biostratigraphy: palynomorphs - Base: Cypridea Zone (Morininoides) candeiensis (NRT?03); Top: Base of Paracypridea brasiliensis Zone (NRT?04), or Paracypridea obovata obovata Zone (NRT?05)", "REF(Authors, Year)": "Assine et al., 2007", "Show_on_Ma": "130", "Lithology, structures, paleowind": "Sandstones with tangential cross stratification and convolute bedding; associated shales and conglomerates", "Paleoenvironment": "Deltaic plains, fluvial (meandering)", "REF (Authors, Year)": "Costa et al., 2014", "Fossil occurrences": "Palynomorphs - Classopollis, Dicheiropolis etruscus", "REF (Authors, Year)_1": "Silva-Telles Jr. et al, 1991", "Geochemistry data": "N/A", "REF (Authors, Year)_2": "N/A", "Sediment-based climate inference (hot/cold, humid/semi-arid/desert)": "Semi-arid? Humid?", "Fossil-based climate inference (hot/cold, humid/semi-arid/desert)": "Semi-arid? Humid?", "Geochemistry-based climate inference  (hot/cold, humid/semi-arid/desert)": "N/A", "Climate assignment leading evidence": "Fluvial (meandering), palynomorph assemblage", "Climate_Cl": "H", "Weight": "4", "PlateID": "201", "Sediment-based climate inference (hot/cold, humid/S/desert)": null, "Fossil-based climate inference (hot/cold, humid/S/desert)": null, "Geochemistry-based climate inference  (hot/cold, humid/S/desert)": null, "PaleozonaCodigo": null, "layer": "130.00Ma_point", "path": "C:/Users/Leonardo Bachi/OneDrive/Desktop/ITT_OCEANEON/20_SETEMBRO_TABELA_FINAL/PONTOS_RETIFICADOS/130.00Ma.geojson", "winner": "S", "cluster_size": 15}, "geometry": {"type": "Point", "coordinates": [-12.814175264491418, -24.667509546660796]}}, {"type": "Feature", "properties": {"ID": "495", "Country": "Brazil", "Basin_Sub_": "Araripe", "Group": "Vale do Cariri", "Formation": "Abaiara", "Member": "N/A", "Well name/ outcrop": "Scherer et al 2014 log 1", "Latitude": "-7.25", "Longitude": "-39.04", "Dating evidence": "Biostratigraphy: palynomorphs - Base: Cypridea Zone (Morininoides) candeiensis (NRT?03); Top: Base of Paracypridea brasiliensis Zone (NRT?04), or Paracypridea obovata obovata Zone (NRT?05)", "REF(Authors, Year)": "Assine et al., 2007", "Show_on_Ma": "130", "Lithology, structures, paleowind": "Coarsening up cycles of mudstones and very fine sandstones with soft sediment deformation and laminations and ripples; tabular sandstones with sometimes bimodal grain distribution, calcareous concretions, and sandstones with accretionary features and cross stratifications.  Paleocurrents towards SE", "Paleoenvironment": "Prodelta/deltaic front, distributary fluvial channels, overbank, and meandering fluvial channels ", "REF (Authors, Year)": "Scherer et al 2014", "Fossil occurrences": "Palynomorphs - Classopollis, Dicheiropolis etruscus", "REF (Authors, Year)_1": "Silva-Telles Jr. et al, 1991", "Geochemistry data": "N/A", "REF (Authors, Year)_2": "N/A", "Sediment-based climate inference (hot/cold, humid/semi-arid/desert)": "Semi-arid? Humid?", "Fossil-based climate inference (hot/cold, humid/semi-arid/desert)": "Semi-arid? Humid?", "Geochemistry-based climate inference  (hot/cold, humid/semi-arid/desert)": "N/A", "Climate assignment leading evidence": "Deltaic and fluvial meandering channels", "Climate_Cl": "H", "Weight": "4", "PlateID": "201", "Sediment-based climate inference (hot/cold, humid/S/desert)": null, "Fossil-based climate inference (hot/cold, humid/S/desert)": null, "Geochemistry-based climate inference  (hot/cold, humid/S/desert)": null, "PaleozonaCodigo": null, "layer": "130.00Ma_point", "path": "C:/Users/Leonardo Bachi/OneDrive/Desktop/ITT_OCEANEON/20_SETEMBRO_TABELA_FINAL/PONTOS_RETIFICADOS/130.00Ma.geojson", "winner": "S", "cluster_size": 15}, "geometry": {"type": "Point", "coordinates": [-12.325487387830744, -24.397380973793364]}}, {"type": "Feature", "properties": {"ID": "498", "Country": "Brazil", "Basin_Sub_": "Araripe", "Group": "Vale do Cariri", "Formation": "Abaiara", "Member": "N/A", "Well name/ outcrop": "Outcrop location from paper (Fambrini et al., 2019)", "Latitude": "-7.42", "Longitude": "-39.01", "Dating evidence": "Biostratigraphy: palynomorphs - Base: Cypridea Zone (Morininoides) candeiensis (NRT?03); Top: Base of Paracypridea brasiliensis Zone (NRT?04), or Paracypridea obovata obovata Zone (NRT?05)", "REF(Authors, Year)": "Assine et al., 2007", "Show_on_Ma": "130", "Lithology, structures, paleowind": "Reddish to purple shales and laminated siltstones with lenticular, fine, planar to cross-stratified sandstones, and carbonatic claystones. Towards the top green shales occur with frequent intercalations of lenses of conglomerates and conglomeratic sandstones, with through cross stratification, and decimetric fine to medium sandstones with planar cross stratification and convolute bedding.", "Paleoenvironment": "Transition from braided fluvial to lacustrine deltaic to meandering fluvial environment", "REF (Authors, Year)": "Fambrini et al., 2019", "Fossil occurrences": "Palynomorphs - Classopollis, Dicheiropolis etruscus", "REF (Authors, Year)_1": "Silva-Telles Jr. et al, 1991", "Geochemistry data": "N/A", "REF (Authors, Year)_2": "N/A", "Sediment-based climate inference (hot/cold, humid/semi-arid/desert)": "Semi-arid? Humid?", "Fossil-based climate inference (hot/cold, humid/semi-arid/desert)": "Semi-arid? Humid?", "Geochemistry-based climate inference  (hot/cold, humid/semi-arid/desert)": "N/A", "Climate assignment leading evidence": "Fluvial and deltaic environments, palynomorph assemblage", "Climate_Cl": "H", "Weight": "4", "PlateID": "201", "Sediment-based climate inference (hot/cold, humid/S/desert)": null, "Fossil-based climate inference (hot/cold, humid/S/desert)": null, "Geochemistry-based climate inference  (hot/cold, humid/S/desert)": null, "PaleozonaCodigo": null, "layer": "130.00Ma_point", "path": "C:/Users/Leonardo Bachi/OneDrive/Desktop/ITT_OCEANEON/20_SETEMBRO_TABELA_FINAL/PONTOS_RETIFICADOS/130.00Ma.geojson", "winner": "S", "cluster_size": 15}, "geometry": {"type": "Point", "coordinates": [-12.28422846717099, -24.565830863765957]}}, {"type": "Feature", "properties": {"ID": "1322", "Country": "Brazil", "Basin_Sub_": "Rio do Peixe", "Group": "Rio do Peixe", "Formation": "Antenor Navarro", "Member": null, "Well name/ outcrop": null, "Latitude": "-6.75", "Longitude": "-38.333333", "Dating evidence": "Palynomorphs", "REF(Authors, Year)": "Lima and Coelho (1987)", "Show_on_Ma": "130", "Lithology, structures, paleowind": "Conglomerates, coarse sandstones, sandstones interbedded with silstones", "Paleoenvironment": "Fan deltas, alluvial fans, fluvial (braided)", "REF (Authors, Year)": "Carvalho et al., 2013", "Fossil occurrences": "Ichnofossils: theropod trackways", "REF (Authors, Year)_1": "Carvalho et al., 2013", "Geochemistry data": null, "REF (Authors, Year)_2": null, "Sediment-based climate inference (hot/cold, humid/semi-arid/desert)": "Coarser sediments suggest drier climates with occasional periods of flash floods", "Fossil-based climate inference (hot/cold, humid/semi-arid/desert)": "Poorly preserved footprints indicate drier environments, with the footprints being created in coarser sediments during periods of occasional floods", "Geochemistry-based climate inference  (hot/cold, humid/semi-arid/desert)": null, "Climate assignment leading evidence": "Badly preserved trackways, coarser sediments", "Climate_Cl": "D", "Weight": "2", "PlateID": "201", "Sediment-based climate inference (hot/cold, humid/S/desert)": null, "Fossil-based climate inference (hot/cold, humid/S/desert)": null, "Geochemistry-based climate inference  (hot/cold, humid/S/desert)": null, "PaleozonaCodigo": null, "layer": "130.00Ma_point", "path": "C:/Users/Leonardo Bachi/OneDrive/Desktop/ITT_OCEANEON/20_SETEMBRO_TABELA_FINAL/PONTOS_RETIFICADOS/130.00Ma.geojson", "winner": "S", "cluster_size": 15}, "geometry": {"type": "Point", "coordinates": [-11.584000927118028, -23.864413843639873]}}, {"type": "Feature", "properties": {"ID": "1323", "Country": "Brazil", "Basin_Sub_": "Rio do Peixe", "Group": "Rio do Peixe", "Formation": "Antenor Navarro", "Member": null, "Well name/ outcrop": "S?io Salguinho", "Latitude": "-6.75", "Longitude": "-38.483333", "Dating evidence": "Palynomorphs", "REF(Authors, Year)": "Lima and Coelho (1987)", "Show_on_Ma": "130", "Lithology, structures, paleowind": "Coarse arkoses and conglomeratic lithic sandstones with trough-cross bedding", "Paleoenvironment": "Braided rivers in distal alluvial fans", "REF (Authors, Year)": "Carvalho et al., 2017", "Fossil occurrences": "Ichnofossils: arthropods: Taenidium barreti, Phycodes isp.", "REF (Authors, Year)_1": "Carvalho et al., 2017", "Geochemistry data": null, "REF (Authors, Year)_2": null, "Sediment-based climate inference (hot/cold, humid/semi-arid/desert)": "Coarser sediments suggest drier climates with occasional periods of flash floods", "Fossil-based climate inference (hot/cold, humid/semi-arid/desert)": "Mostly dry environment subjected to occasional torrential floods.", "Geochemistry-based climate inference  (hot/cold, humid/semi-arid/desert)": null, "Climate assignment leading evidence": "Monospecific trace fossil assemblages on top of sandy bars and channel banks", "Climate_Cl": "D", "Weight": "3", "PlateID": "201", "Sediment-based climate inference (hot/cold, humid/S/desert)": null, "Fossil-based climate inference (hot/cold, humid/S/desert)": null, "Geochemistry-based climate inference  (hot/cold, humid/S/desert)": null, "PaleozonaCodigo": null, "layer": "130.00Ma_point", "path": "C:/Users/Leonardo Bachi/OneDrive/Desktop/ITT_OCEANEON/20_SETEMBRO_TABELA_FINAL/PONTOS_RETIFICADOS/130.00Ma.geojson", "winner": "S", "cluster_size": 15}, "geometry": {"type": "Point", "coordinates": [-11.746693744009535, -23.871755538673725]}}, {"type": "Feature", "properties": {"ID": "1324", "Country": "Brazil", "Basin_Sub_": "Rio do Peixe", "Group": "Rio do Peixe", "Formation": "Antenor Navarro", "Member": null, "Well name/ outcrop": "S?io Saco", "Latitude": "-6.56", "Longitude": "-38.571056", "Dating evidence": "Biostratigraphy: ostracods and palinomorphs", "REF(Authors, Year)": "C?doba et al., 2008", "Show_on_Ma": "130", "Lithology, structures, paleowind": null, "Paleoenvironment": null, "REF (Authors, Year)": "Ribeiro, 2020", "Fossil occurrences": null, "REF (Authors, Year)_1": null, "Geochemistry data": null, "REF (Authors, Year)_2": null, "Sediment-based climate inference (hot/cold, humid/semi-arid/desert)": "Arid, dry", "Fossil-based climate inference (hot/cold, humid/semi-arid/desert)": null, "Geochemistry-based climate inference  (hot/cold, humid/semi-arid/desert)": null, "Climate assignment leading evidence": "presence of carbonate facies as suggesting an hypersaline context and saturated under an arid climate, corroborated by the presence of braided fluvial system with unstable margins due to poorly developed soil and sparse vegetation. The presence of linsen heterolothic structures indicates tide action in the area.", "Climate_Cl": "D", "Weight": "1", "PlateID": "201", "Sediment-based climate inference (hot/cold, humid/S/desert)": null, "Fossil-based climate inference (hot/cold, humid/S/desert)": null, "Geochemistry-based climate inference  (hot/cold, humid/S/desert)": null, "PaleozonaCodigo": null, "layer": "130.00Ma_point", "path": "C:/Users/Leonardo Bachi/OneDrive/Desktop/ITT_OCEANEON/20_SETEMBRO_TABELA_FINAL/PONTOS_RETIFICADOS/130.00Ma.geojson", "winner": "S", "cluster_size": 15}, "geometry": {"type": "Point", "coordinates": [-11.85188374950056, -23.686213209146153]}}, {"type": "Feature", "properties": {"ID": "1337", "Country": "Brazil", "Basin_Sub_": "Rio do Peixe", "Group": "Rio do Peixe", "Formation": "Rio Piranhas", "Member": null, "Well name/ outcrop": null, "Latitude": "-6.75", "Longitude": "-38.333333", "Dating evidence": "Palynomorphs", "REF(Authors, Year)": "Lima and Coelho (1987)", "Show_on_Ma": "130", "Lithology, structures, paleowind": "Conglomerates, coarse sandstones, sandstones interbedded with silstones", "Paleoenvironment": "Fan deltas, alluvial fans, fluvial (braided)", "REF (Authors, Year)": "Carvalho et al., 2013", "Fossil occurrences": "Ichnofossils: theropod trackways", "REF (Authors, Year)_1": "Carvalho et al., 2013", "Geochemistry data": null, "REF (Authors, Year)_2": null, "Sediment-based climate inference (hot/cold, humid/semi-arid/desert)": "Coarser sediments suggest drier climates with occasional periods of flash floods", "Fossil-based climate inference (hot/cold, humid/semi-arid/desert)": "Poorly preserved footprints indicate drier environments, with the footprints being created in coarser sediments during periods of occasional floods", "Geochemistry-based climate inference  (hot/cold, humid/semi-arid/desert)": null, "Climate assignment leading evidence": "Badly preserved trackways, coarser sediments", "Climate_Cl": "D", "Weight": "2", "PlateID": "201", "Sediment-based climate inference (hot/cold, humid/S/desert)": null, "Fossil-based climate inference (hot/cold, humid/S/desert)": null, "Geochemistry-based climate inference  (hot/cold, humid/S/desert)": null, "PaleozonaCodigo": null, "layer": "130.00Ma_point", "path": "C:/Users/Leonardo Bachi/OneDrive/Desktop/ITT_OCEANEON/20_SETEMBRO_TABELA_FINAL/PONTOS_RETIFICADOS/130.00Ma.geojson", "winner": "S", "cluster_size": 15}, "geometry": {"type": "Point", "coordinates": [-11.584000927118028, -23.864413843639873]}}, {"type": "Feature", "properties": {"ID": "1350", "Country": "Brazil", "Basin_Sub_": "Rio do Peixe", "Group": "Rio do Peixe", "Formation": "Sousa", "Member": null, "Well name/ outcrop": null, "Latitude": "-6.75", "Longitude": "-38.333333", "Dating evidence": "Palynomorphs", "REF(Authors, Year)": "Lima and Coelho (1987)", "Show_on_Ma": "130", "Lithology, structures, paleowind": "Clastic rocks with occasional carbonate cimentation", "Paleoenvironment": "Alluvial fans in the borders of the basin, meadering fluvial system with lakes in its inundation plain in the center of the basin", "REF (Authors, Year)": "Carvalho, 2014", "Fossil occurrences": "Conchostracean: Palaeolimnadiopsis reali, Palaeolimnadiopsis freybergi, Estheriella brasiliensis, Estheriella lualabensis, Cyzicus brauni, Cyzicus cassambensis", "REF (Authors, Year)_1": "Carvalho, 2014", "Geochemistry data": null, "REF (Authors, Year)_2": null, "Sediment-based climate inference (hot/cold, humid/semi-arid/desert)": null, "Fossil-based climate inference (hot/cold, humid/semi-arid/desert)": null, "Geochemistry-based climate inference  (hot/cold, humid/semi-arid/desert)": null, "Climate assignment leading evidence": " conchostracean Palaeolimnadiopsis reali", "Climate_Cl": "H", "Weight": "3", "PlateID": "201", "Sediment-based climate inference (hot/cold, humid/S/desert)": null, "Fossil-based climate inference (hot/cold, humid/S/desert)": null, "Geochemistry-based climate inference  (hot/cold, humid/S/desert)": null, "PaleozonaCodigo": null, "layer": "130.00Ma_point", "path": "C:/Users/Leonardo Bachi/OneDrive/Desktop/ITT_OCEANEON/20_SETEMBRO_TABELA_FINAL/PONTOS_RETIFICADOS/130.00Ma.geojson", "winner": "S", "cluster_size": 15}, "geometry": {"type": "Point", "coordinates": [-11.584000927118028, -23.864413843639873]}}, {"type": "Feature", "properties": {"ID": "1699", "Country": "Brazil", "Basin_Sub_": "Tucano", "Group": "MassacaráS? Sebasti?", "Formation": null, "Member": null, "Well name/ outcrop": null, "Latitude": "-10", "Longitude": "-38.5", "Dating evidence": "Biostratigraphy: non-marine ostracods?ocal zones", "REF(Authors, Year)": "Costa et al 2007; Almeira-Lima et al 2022", "Show_on_Ma": "130", "Lithology, structures, paleowind": "Sandstones, mudstones", "Paleoenvironment": "Continental: eolian, fluvial", "REF (Authors, Year)": "Costa et al., 2007", "Fossil occurrences": "Palynomorphs and non-marine ostracods", "REF (Authors, Year)_1": "Viana et al 1971; Almeida-Lima et al 2022", "Geochemistry data": null, "REF (Authors, Year)_2": null, "Sediment-based climate inference (hot/cold, humid/semi-arid/desert)": "Hot, dry with wet phases", "Fossil-based climate inference (hot/cold, humid/semi-arid/desert)": null, "Geochemistry-based climate inference  (hot/cold, humid/semi-arid/desert)": null, "Climate assignment leading evidence": "Eolian", "Climate_Cl": "D", "Weight": "4", "PlateID": "201", "Sediment-based climate inference (hot/cold, humid/S/desert)": null, "Fossil-based climate inference (hot/cold, humid/S/desert)": null, "Geochemistry-based climate inference  (hot/cold, humid/S/desert)": null, "PaleozonaCodigo": null, "layer": "130.00Ma_point", "path": "C:/Users/Leonardo Bachi/OneDrive/Desktop/ITT_OCEANEON/20_SETEMBRO_TABELA_FINAL/PONTOS_RETIFICADOS/130.00Ma.geojson", "winner": "S", "cluster_size": 4}, "geometry": {"type": "Point", "coordinates": [-11.586777638252064, -27.1185918590175]}}, {"type": "Feature", "properties": {"ID": "1884", "Country": "Chile", "Basin_Sub_": "Chañarcillo", "Group": "Chañarcillo", "Formation": "Nantoco", "Member": null, "Well name/ outcrop": null, "Latitude": "-28", "Longitude": "-70.061", "Dating evidence": null, "REF(Authors, Year)": null, "Show_on_Ma": "130", "Lithology, structures, paleowind": null, "Paleoenvironment": null, "REF (Authors, Year)": null, "Fossil occurrences": null, "REF (Authors, Year)_1": null, "Geochemistry data": null, "REF (Authors, Year)_2": null, "Sediment-based climate inference (hot/cold, humid/semi-arid/desert)": null, "Fossil-based climate inference (hot/cold, humid/semi-arid/desert)": null, "Geochemistry-based climate inference  (hot/cold, humid/semi-arid/desert)": null, "Climate assignment leading evidence": null, "Climate_Cl": "D", "Weight": "3", "PlateID": "202", "Sediment-based climate inference (hot/cold, humid/S/desert)": null, "Fossil-based climate inference (hot/cold, humid/S/desert)": null, "Geochemistry-based climate inference  (hot/cold, humid/S/desert)": null, "PaleozonaCodigo": null, "layer": "130.00Ma_point", "path": "C:/Users/Leonardo Bachi/OneDrive/Desktop/ITT_OCEANEON/20_SETEMBRO_TABELA_FINAL/PONTOS_RETIFICADOS/130.00Ma.geojson", "winner": "S", "cluster_size": 8}, "geometry": {"type": "Point", "coordinates": [-49.539791001026394, -43.65912996355648]}}, {"type": "Feature", "properties": {"ID": "1886", "Country": "Chile", "Basin_Sub_": "Chañarcillo", "Group": "Chañarcillo", "Formation": "Nantoco", "Member": null, "Well name/ outcrop": null, "Latitude": "-28", "Longitude": "-70.061", "Dating evidence": null, "REF(Authors, Year)": null, "Show_on_Ma": "130", "Lithology, structures, paleowind": null, "Paleoenvironment": null, "REF (Authors, Year)": null, "Fossil occurrences": null, "REF (Authors, Year)_1": null, "Geochemistry data": null, "REF (Authors, Year)_2": null, "Sediment-based climate inference (hot/cold, humid/semi-arid/desert)": null, "Fossil-based climate inference (hot/cold, humid/semi-arid/desert)": null, "Geochemistry-based climate inference  (hot/cold, humid/semi-arid/desert)": null, "Climate assignment leading evidence": null, "Climate_Cl": "D", "Weight": "1", "PlateID": "202", "Sediment-based climate inference (hot/cold, humid/S/desert)": null, "Fossil-based climate inference (hot/cold, humid/S/desert)": null, "Geochemistry-based climate inference  (hot/cold, humid/S/desert)": null, "PaleozonaCodigo": null, "layer": "130.00Ma_point", "path": "C:/Users/Leonardo Bachi/OneDrive/Desktop/ITT_OCEANEON/20_SETEMBRO_TABELA_FINAL/PONTOS_RETIFICADOS/130.00Ma.geojson", "winner": "S", "cluster_size": 8}, "geometry": {"type": "Point", "coordinates": [-49.539791001026394, -43.65912996355648]}}, {"type": "Feature", "properties": {"ID": "2790", "Country": "Tunisia", "Basin_Sub_": "N/A", "Group": "Asfer", "Formation": "Boulouha", "Member": "N/A", "Well name/ outcrop": "collines du Jebel Merbah el Asfer", "Latitude": "32.839", "Longitude": "10.453", "Dating evidence": "Biostratigraphy: brachiopod", "REF(Authors, Year)": "Barale&Ouaja 2002", "Show_on_Ma": "130", "Lithology, structures, paleowind": "Level of red, wine-colored clays,  Carbonate bars,  dolomite", "Paleoenvironment": "Coastal: marginal-marine with  continental influence.", "REF (Authors, Year)": "Barale&Ouaja 2002", "Fossil occurrences": "brachiopod: Loriolithyris russillensis; Plant: Selaginellites sp., Plant: Onychiopsis psilotoides, Daharia tunisiensis, Brachyphyllum sp., Podozamites sp., Araucarites sp.", "REF (Authors, Year)_1": "Barale&Ouaja 2002", "Geochemistry data": "N/A", "REF (Authors, Year)_2": "N/A", "Sediment-based climate inference (hot/cold, humid/semi-arid/desert)": "hot", "Fossil-based climate inference (hot/cold, humid/semi-arid/desert)": "humid", "Geochemistry-based climate inference  (hot/cold, humid/semi-arid/desert)": "N/A", "Climate assignment leading evidence": "Tropical with periods of drought and humidity.", "Climate_Cl": "H", "Weight": "2", "PlateID": "715", "Sediment-based climate inference (hot/cold, humid/S/desert)": null, "Fossil-based climate inference (hot/cold, humid/S/desert)": null, "Geochemistry-based climate inference  (hot/cold, humid/S/desert)": null, "PaleozonaCodigo": null, "layer": "130.00Ma_point", "path": "C:/Users/Leonardo Bachi/OneDrive/Desktop/ITT_OCEANEON/20_SETEMBRO_TABELA_FINAL/PONTOS_RETIFICADOS/130.00Ma.geojson", "winner": "S", "cluster_size": 5}, "geometry": {"type": "Point", "coordinates": [5.739819416933314, 0.438250941007351]}}]}