{"type": "FeatureCollection", "features": [{"type": "Feature", "properties": {"Climate_Cl": "H", "votes": 1, "cluster_size": 1, "tie": false, "status": "majority", "member_ids": "1"}, "geometry": {"type": "Point", "coordinates": [-1.192978683098091, 3.55882928481615]}}, {"type": "Feature", "properties": {"Climate_Cl": "H", "votes": 1, "cluster_size": 1, "tie": false, "status": "majority", "member_ids": "4"}, "geometry": {"type": "Point", "coordinates": [0.267455907812245, 3.877733869888639]}}, {"type": "Feature", "properties": {"Climate_Cl": "S", "votes": 2, "cluster_size": 2, "tie": false, "status": "majority", "member_ids": "28,29"}, "geometry": {"type": "Point", "coordinates": [0.157120521026067, 6.055734942606422]}}, {"type": "Feature", "properties": {"Climate_Cl": "H", "votes": 1, "cluster_size": 1, "tie": false, "status": "majority", "member_ids": "64"}, "geometry": {"type": "Point", "coordinates": [-4.337107245776991, -2.094726576084023]}}, {"type": "Feature", "properties": {"Climate_Cl": "H", "votes": 1, "cluster_size": 1, "tie": false, "status": "majority", "member_ids": "68"}, "geometry": {"type": "Point", "coordinates": [-4.402769180843267, -1.652710163714724]}}, {"type": "Feature", "properties": {"Climate_Cl": "H", "votes": 1, "cluster_size": 1, "tie": false, "status": "majority", "member_ids": "72"}, "geometry": {"type": "Point", "coordinates": [-4.772287089158749, -1.573033035656154]}}, {"type": "Feature", "properties": {"Climate_Cl": "S", "votes": 2, "cluster_size": 2, "tie": false, "status": "majority", "member_ids": "160,169"}, "geometry": {"type": "Point", "coordinates": [-2.564542640696482, 4.040865997520861]}}, {"type": "Feature", "properties": {"Climate_Cl": "S", "votes": 1, "cluster_size": 1, "tie": false, "status": "majority", "member_ids": "197"}, "geometry": {"type": "Point", "coordinates": [-11.846681785348414, -38.13167143453333]}}, {"type": "Feature", "properties": {"Climate_Cl": "S", "votes": 1, "cluster_size": 1, "tie": false, "status": "majority", "member_ids": "226"}, "geometry": {"type": "Point", "coordinates": [-58.31954567530543, -64.9905164653489]}}, {"type": "Feature", "properties": {"Climate_Cl": "H", "votes": 1, "cluster_size": 1, "tie": false, "status": "majority", "member_ids": "233"}, "geometry": {"type": "Point", "coordinates": [-57.251585315640874, -63.26419284809511]}}, {"type": "Feature", "properties": {"Climate_Cl": "S", "votes": 1, "cluster_size": 1, "tie": false, "status": "majority", "member_ids": "261"}, "geometry": {"type": "Point", "coordinates": [-53.290986238292234, -64.32353428727981]}}, {"type": "Feature", "properties": {"Climate_Cl": "H", "votes": 1, "cluster_size": 2, "tie": true, "status": "tie", "member_ids": "279,280"}, "geometry": {"type": "Point", "coordinates": [-52.63790320209897, -62.73899863211606]}}, {"type": "Feature", "properties": {"Climate_Cl": "S", "votes": 1, "cluster_size": 2, "tie": true, "status": "tie", "member_ids": "279,280"}, "geometry": {"type": "Point", "coordinates": [-52.63790320209897, -62.73899863211606]}}, {"type": "Feature", "properties": {"Climate_Cl": "H", "votes": 1, "cluster_size": 1, "tie": false, "status": "majority", "member_ids": "293"}, "geometry": {"type": "Point", "coordinates": [-52.37284399061862, -56.059597776789424]}}, {"type": "Feature", "properties": {"Climate_Cl": "H", "votes": 1, "cluster_size": 1, "tie": false, "status": "majority", "member_ids": "317"}, "geometry": {"type": "Point", "coordinates": [-52.47618272078872, -53.84159337086369]}}, {"type": "Feature", "properties": {"Climate_Cl": "H", "votes": 1, "cluster_size": 1, "tie": false, "status": "majority", "member_ids": "318"}, "geometry": {"type": "Point", "coordinates": [-52.662755708387685, -54.780684210348774]}}, {"type": "Feature", "properties": {"Climate_Cl": "S", "votes": 1, "cluster_size": 1, "tie": false, "status": "majority", "member_ids": "320"}, "geometry": {"type": "Point", "coordinates": [-52.97715208633907, -55.428317755969516]}}, {"type": "Feature", "properties": {"Climate_Cl": "H", "votes": 2, "cluster_size": 2, "tie": false, "status": "majority", "member_ids": "326,327"}, "geometry": {"type": "Point", "coordinates": [-53.051384722070054, -53.1162312739634]}}, {"type": "Feature", "properties": {"Climate_Cl": "S", "votes": 3, "cluster_size": 4, "tie": false, "status": "majority", "member_ids": "340,357,363,369"}, "geometry": {"type": "Point", "coordinates": [-40.38905269909254, -58.93153922243486]}}, {"type": "Feature", "properties": {"Climate_Cl": "S", "votes": 1, "cluster_size": 2, "tie": true, "status": "tie", "member_ids": "395,407"}, "geometry": {"type": "Point", "coordinates": [-47.7034635349958, -47.928461087666506]}}, {"type": "Feature", "properties": {"Climate_Cl": "D", "votes": 1, "cluster_size": 2, "tie": true, "status": "tie", "member_ids": "395,407"}, "geometry": {"type": "Point", "coordinates": [-47.7034635349958, -47.928461087666506]}}, {"type": "Feature", "properties": {"Climate_Cl": "H", "votes": 1, "cluster_size": 1, "tie": false, "status": "majority", "member_ids": "422"}, "geometry": {"type": "Point", "coordinates": [-43.56929201651874, -36.25258147423876]}}, {"type": "Feature", "properties": {"Climate_Cl": "H", "votes": 1, "cluster_size": 2, "tie": true, "status": "tie", "member_ids": "454,455"}, "geometry": {"type": "Point", "coordinates": [-9.312892085330184, -27.07490438587502]}}, {"type": "Feature", "properties": {"Climate_Cl": "D", "votes": 1, "cluster_size": 2, "tie": true, "status": "tie", "member_ids": "454,455"}, "geometry": {"type": "Point", "coordinates": [-9.312892085330184, -27.07490438587502]}}, {"type": "Feature", "properties": {"Climate_Cl": "D", "votes": 3, "cluster_size": 5, "tie": false, "status": "majority", "member_ids": "469,631,662,664,666"}, "geometry": {"type": "Point", "coordinates": [-11.777083882743607, -31.265833509394447]}}, {"type": "Feature", "properties": {"Climate_Cl": "H", "votes": 1, "cluster_size": 1, "tie": false, "status": "majority", "member_ids": "491"}, "geometry": {"type": "Point", "coordinates": [-13.15128094212395, -24.975569735448218]}}, {"type": "Feature", "properties": {"Climate_Cl": "H", "votes": 2, "cluster_size": 2, "tie": false, "status": "majority", "member_ids": "494,497"}, "geometry": {"type": "Point", "coordinates": [-12.638449087797659, -24.79481495684777]}}, {"type": "Feature", "properties": {"Climate_Cl": "H", "votes": 1, "cluster_size": 1, "tie": false, "status": "majority", "member_ids": "747"}, "geometry": {"type": "Point", "coordinates": [-11.621974521942473, -34.43315568945883]}}, {"type": "Feature", "properties": {"Climate_Cl": "S", "votes": 2, "cluster_size": 2, "tie": false, "status": "majority", "member_ids": "771,775"}, "geometry": {"type": "Point", "coordinates": [-10.872966158837166, -37.40923596907381]}}, {"type": "Feature", "properties": {"Climate_Cl": "H", "votes": 1, "cluster_size": 1, "tie": false, "status": "majority", "member_ids": "789"}, "geometry": {"type": "Point", "coordinates": [-22.78366283145089, -14.532786923087631]}}, {"type": "Feature", "properties": {"Climate_Cl": "H", "votes": 1, "cluster_size": 1, "tie": false, "status": "majority", "member_ids": "805"}, "geometry": {"type": "Point", "coordinates": [-24.489319232121836, -12.940947737169164]}}, {"type": "Feature", "properties": {"Climate_Cl": "S", "votes": 2, "cluster_size": 2, "tie": false, "status": "majority", "member_ids": "877,882"}, "geometry": {"type": "Point", "coordinates": [-11.160450719100046, -26.56927000477825]}}, {"type": "Feature", "properties": {"Climate_Cl": "S", "votes": 1, "cluster_size": 1, "tie": false, "status": "majority", "member_ids": "958"}, "geometry": {"type": "Point", "coordinates": [-12.73722556786939, -35.46950703512066]}}, {"type": "Feature", "properties": {"Climate_Cl": "D", "votes": 2, "cluster_size": 3, "tie": false, "status": "majority", "member_ids": "1018,1045,2964"}, "geometry": {"type": "Point", "coordinates": [-26.173676194249953, -35.4565857087797]}}, {"type": "Feature", "properties": {"Climate_Cl": "D", "votes": 2, "cluster_size": 3, "tie": false, "status": "majority", "member_ids": "1020,1047,2966"}, "geometry": {"type": "Point", "coordinates": [-35.16634939408652, -47.258022829805874]}}, {"type": "Feature", "properties": {"Climate_Cl": "D", "votes": 1, "cluster_size": 1, "tie": false, "status": "majority", "member_ids": "1023"}, "geometry": {"type": "Point", "coordinates": [-23.05180746945006, -39.38098096745658]}}, {"type": "Feature", "properties": {"Climate_Cl": "D", "votes": 1, "cluster_size": 1, "tie": false, "status": "majority", "member_ids": "1025"}, "geometry": {"type": "Point", "coordinates": [-28.50530977889212, -35.37157002253759]}}, {"type": "Feature", "properties": {"Climate_Cl": "D", "votes": 1, "cluster_size": 1, "tie": false, "status": "majority", "member_ids": "1027"}, "geometry": {"type": "Point", "coordinates": [-30.49056382909044, -42.30702410349513]}}, {"type": "Feature", "properties": {"Climate_Cl": "D", "votes": 1, "cluster_size": 1, "tie": false, "status": "majority", "member_ids": "1029"}, "geometry": {"type": "Point", "coordinates": [-30.87079690433321, -46.75488518043814]}}, {"type": "Feature", "properties": {"Climate_Cl": "D", "votes": 2, "cluster_size": 2, "tie": false, "status": "majority", "member_ids": "1033,2952"}, "geometry": {"type": "Point", "coordinates": [-26.17737827543149, -47.294933449766305]}}, {"type": "Feature", "properties": {"Climate_Cl": "D", "votes": 2, "cluster_size": 2, "tie": false, "status": "majority", "member_ids": "1035,2954"}, "geometry": {"type": "Point", "coordinates": [-32.83211843806239, -46.01069649469794]}}, {"type": "Feature", "properties": {"Climate_Cl": "D", "votes": 2, "cluster_size": 2, "tie": false, "status": "majority", "member_ids": "1037,2956"}, "geometry": {"type": "Point", "coordinates": [-34.29805002762603, -47.00191926818138]}}, {"type": "Feature", "properties": {"Climate_Cl": "D", "votes": 2, "cluster_size": 2, "tie": false, "status": "majority", "member_ids": "1039,2958"}, "geometry": {"type": "Point", "coordinates": [-33.104096970252094, -47.080946030869235]}}, {"type": "Feature", "properties": {"Climate_Cl": "D", "votes": 2, "cluster_size": 2, "tie": false, "status": "majority", "member_ids": "1041,2960"}, "geometry": {"type": "Point", "coordinates": [-32.6964713379165, -47.69679920880352]}}, {"type": "Feature", "properties": {"Climate_Cl": "D", "votes": 2, "cluster_size": 2, "tie": false, "status": "majority", "member_ids": "1043,2962"}, "geometry": {"type": "Point", "coordinates": [-32.75207778675141, -48.06698913091242]}}, {"type": "Feature", "properties": {"Climate_Cl": "D", "votes": 2, "cluster_size": 2, "tie": false, "status": "majority", "member_ids": "1061,1062"}, "geometry": {"type": "Point", "coordinates": [-32.631392598892454, -29.145463821049425]}}, {"type": "Feature", "properties": {"Climate_Cl": "S", "votes": 1, "cluster_size": 1, "tie": false, "status": "majority", "member_ids": "1273"}, "geometry": {"type": "Point", "coordinates": [-10.117651292835198, -22.618019182292844]}}, {"type": "Feature", "properties": {"Climate_Cl": "S", "votes": 2, "cluster_size": 3, "tie": false, "status": "majority", "member_ids": "1285,1289,1293"}, "geometry": {"type": "Point", "coordinates": [-11.839049050057788, -29.936903259017658]}}, {"type": "Feature", "properties": {"Climate_Cl": "S", "votes": 4, "cluster_size": 6, "tie": false, "status": "majority", "member_ids": "1320,1321,1335,1345,1346,1347"}, "geometry": {"type": "Point", "coordinates": [-12.029075512507397, -24.20411475260191]}}, {"type": "Feature", "properties": {"Climate_Cl": "S", "votes": 2, "cluster_size": 2, "tie": false, "status": "majority", "member_ids": "1507,1508"}, "geometry": {"type": "Point", "coordinates": [-20.683435477312102, -35.560118730167254]}}, {"type": "Feature", "properties": {"Climate_Cl": "S", "votes": 3, "cluster_size": 3, "tie": false, "status": "majority", "member_ids": "1579,1608,1630"}, "geometry": {"type": "Point", "coordinates": [-8.564005146188087, -28.29635795543337]}}, {"type": "Feature", "properties": {"Climate_Cl": "S", "votes": 3, "cluster_size": 4, "tie": false, "status": "majority", "member_ids": "1686,1687,1693,1698"}, "geometry": {"type": "Point", "coordinates": [-11.95120335131871, -27.43883943124021]}}, {"type": "Feature", "properties": {"Climate_Cl": "S", "votes": 3, "cluster_size": 3, "tie": false, "status": "majority", "member_ids": "1836,1841,1846"}, "geometry": {"type": "Point", "coordinates": [-1.0379145767586533, -22.06146449528499]}}, {"type": "Feature", "properties": {"Climate_Cl": "H", "votes": 1, "cluster_size": 1, "tie": false, "status": "majority", "member_ids": "1869"}, "geometry": {"type": "Point", "coordinates": [-60.883714570450785, -66.86731639092014]}}, {"type": "Feature", "properties": {"Climate_Cl": "S", "votes": 2, "cluster_size": 2, "tie": false, "status": "majority", "member_ids": "1888,1889"}, "geometry": {"type": "Point", "coordinates": [-50.22623621569303, -43.558062014483916]}}, {"type": "Feature", "properties": {"Climate_Cl": "S", "votes": 1, "cluster_size": 1, "tie": false, "status": "majority", "member_ids": "2015"}, "geometry": {"type": "Point", "coordinates": [-51.206237650196776, -16.045007175387614]}}, {"type": "Feature", "properties": {"Climate_Cl": "D", "votes": 1, "cluster_size": 1, "tie": false, "status": "majority", "member_ids": "2030"}, "geometry": {"type": "Point", "coordinates": [-11.98111619779124, -30.155441665576742]}}, {"type": "Feature", "properties": {"Climate_Cl": "S", "votes": 1, "cluster_size": 1, "tie": false, "status": "majority", "member_ids": "2272"}, "geometry": {"type": "Point", "coordinates": [-4.078572721831256, -13.049366190113982]}}, {"type": "Feature", "properties": {"Climate_Cl": "H", "votes": 1, "cluster_size": 1, "tie": false, "status": "majority", "member_ids": "2398"}, "geometry": {"type": "Point", "coordinates": [-49.83929901876396, -31.438766465825537]}}, {"type": "Feature", "properties": {"Climate_Cl": "D", "votes": 1, "cluster_size": 1, "tie": false, "status": "majority", "member_ids": "2412"}, "geometry": {"type": "Point", "coordinates": [-53.71483549623977, -24.776228443045383]}}, {"type": "Feature", "properties": {"Climate_Cl": "H", "votes": 2, "cluster_size": 3, "tie": false, "status": "majority", "member_ids": "2429,2439,2440"}, "geometry": {"type": "Point", "coordinates": [-54.281798447723396, -25.700758915746054]}}, {"type": "Feature", "properties": {"Climate_Cl": "H", "votes": 1, "cluster_size": 1, "tie": false, "status": "majority", "member_ids": "2456"}, "geometry": {"type": "Point", "coordinates": [-52.867126350788325, -20.851971263475516]}}, {"type": "Feature", "properties": {"Climate_Cl": "S", "votes": 1, "cluster_size": 1, "tie": false, "status": "majority", "member_ids": "2593"}, "geometry": {"type": "Point", "coordinates": [-27.68701844003358, -4.569005185566059]}}, {"type": "Feature", "properties": {"Climate_Cl": "H", "votes": 1, "cluster_size": 1, "tie": false, "status": "majority", "member_ids": "2649"}, "geometry": {"type": "Point", "coordinates": [-20.17355955045868, -64.8723564627754]}}, {"type": "Feature", "properties": {"Climate_Cl": "S", "votes": 1, "cluster_size": 1, "tie": false, "status": "majority", "member_ids": "2970"}, "geometry": {"type": "Point", "coordinates": [-33.082334961010304, -49.178628910698194]}}, {"type": "Feature", "properties": {"Climate_Cl": "S", "votes": 1, "cluster_size": 1, "tie": false, "status": "majority", "member_ids": "2978"}, "geometry": {"type": "Point", "coordinates": [-32.37486806561946, -52.22732795340672]}}]}