{"type": "FeatureCollection", "features": [{"type": "Feature", "properties": {"ID": "320", "Country": "Argentina", "Basin_Sub_": "Neuquén", "Group": "Mendoza", "Formation": "Pic? Leuf?", "Member": "Pic? Leuf?anticline", "Well name/ outcrop": null, "Latitude": "-39.214", "Longitude": "-70.148", "Dating evidence": "Ammonite biozones", "REF(Authors, Year)": "Leanza and Zeiss (1994), Riccardi (2008), Aguirre-Urreta et al. (2011)", "Show_on_Ma": "135", "Lithology, structures, paleowind": "green silty shales interbedded with sandstones beds and limestones beds (upper part)", "Paleoenvironment": "Marine: inner ramp to outer ramp", "REF (Authors, Year)": "Krim et al., 2017", "Fossil occurrences": "bivalves, bivalve fragments, Trigoniids, pholadomya, scarce ammonites/ammonoids, Lucinidea, scarce oysters and scarce gastropods*. / Corals**", "REF (Authors, Year)_1": "Krim et al., 2017 / Garberoglio et al 2024", "Geochemistry data": "clay-mineral assemblages", "REF (Authors, Year)_2": "Krim et al., 2017", "Sediment-based climate inference (hot/cold, humid/semi-arid/desert)": "semi-arid", "Fossil-based climate inference (hot/cold, humid/semi-arid/desert)": "semi-arid", "Geochemistry-based climate inference  (hot/cold, humid/semi-arid/desert)": "cold, semi-arid", "Climate assignment leading evidence": "the values of CIA decrease significantly (even with scattering) and range between 50?0 (arid climate condition; Nesbitt and Young, 1982, 1989)", "Climate_Cl": "S", "Weight": "8", "PlateID": "283", "Sediment-based climate inference (hot/cold, humid/S/desert)": null, "Fossil-based climate inference (hot/cold, humid/S/desert)": null, "Geochemistry-based climate inference  (hot/cold, humid/S/desert)": null, "PaleozonaCodigo": null, "layer": "135.00Ma_point", "path": "C:/Users/Leonardo Bachi/OneDrive/Desktop/ITT_OCEANEON/20_SETEMBRO_TABELA_FINAL/PONTOS_RETIFICADOS/135.00Ma.geojson", "winner": "H", "cluster_size": 6}, "geometry": {"type": "Point", "coordinates": [-52.97715208633907, -55.428317755969516]}}, {"type": "Feature", "properties": {"ID": "369", "Country": "Argentina", "Basin_Sub_": "Rawson", "Group": " ", "Formation": "Syn-rift sequence III", "Member": null, "Well name/ outcrop": "Ayra x-1 well", "Latitude": "-42.17", "Longitude": "-60.83", "Dating evidence": "Seismic correlations; Authigenic illite radiometric ages: 109 ?18 Ma", "REF(Authors, Year)": "Continanzia et al., 2011", "Show_on_Ma": "135", "Lithology, structures, paleowind": "Reddish to brownish sandstones and mudstones; red beds", "Paleoenvironment": "Arid fluvial; alluvial fans; floodplains", "REF (Authors, Year)": "Continanzia et al., 2011", "Fossil occurrences": null, "REF (Authors, Year)_1": null, "Geochemistry data": null, "REF (Authors, Year)_2": null, "Sediment-based climate inference (hot/cold, humid/semi-arid/desert)": "Arid", "Fossil-based climate inference (hot/cold, humid/semi-arid/desert)": null, "Geochemistry-based climate inference  (hot/cold, humid/semi-arid/desert)": null, "Climate assignment leading evidence": "Arid fluvial deposits", "Climate_Cl": "D", "Weight": "2", "PlateID": "283", "Sediment-based climate inference (hot/cold, humid/S/desert)": null, "Fossil-based climate inference (hot/cold, humid/S/desert)": null, "Geochemistry-based climate inference  (hot/cold, humid/S/desert)": null, "PaleozonaCodigo": null, "layer": "135.00Ma_point", "path": "C:/Users/Leonardo Bachi/OneDrive/Desktop/ITT_OCEANEON/20_SETEMBRO_TABELA_FINAL/PONTOS_RETIFICADOS/135.00Ma.geojson", "winner": "S", "cluster_size": 4}, "geometry": {"type": "Point", "coordinates": [-40.38905269909254, -58.93153922243486]}}, {"type": "Feature", "properties": {"ID": "662", "Country": "Brazil", "Basin_Sub_": "Camamu/Almada", "Group": "Almada", "Formation": "Morro do Barro", "Member": "TinharéN/A", "Well name/ outcrop": null, "Latitude": "-13.83", "Longitude": "-38.5", "Dating evidence": "Stratigraphic relationships", "REF(Authors, Year)": "Caixeta et al. 2007; Gontijo et al. 2007", "Show_on_Ma": "135", "Lithology, structures, paleowind": "Sandstones and conglomerates", "Paleoenvironment": "Alluvial fans", "REF (Authors, Year)": "Caixeta et al. 2007; Gontijo et al. 2007", "Fossil occurrences": "N/A", "REF (Authors, Year)_1": "N/A", "Geochemistry data": "N/A", "REF (Authors, Year)_2": "N/A", "Sediment-based climate inference (hot/cold, humid/semi-arid/desert)": "Semir-arid?", "Fossil-based climate inference (hot/cold, humid/semi-arid/desert)": "N/A", "Geochemistry-based climate inference  (hot/cold, humid/semi-arid/desert)": "N/A", "Climate assignment leading evidence": "Alluvial fans", "Climate_Cl": "S", "Weight": "2", "PlateID": "201", "Sediment-based climate inference (hot/cold, humid/S/desert)": null, "Fossil-based climate inference (hot/cold, humid/S/desert)": null, "Geochemistry-based climate inference  (hot/cold, humid/S/desert)": null, "PaleozonaCodigo": null, "layer": "135.00Ma_point", "path": "C:/Users/Leonardo Bachi/OneDrive/Desktop/ITT_OCEANEON/20_SETEMBRO_TABELA_FINAL/PONTOS_RETIFICADOS/135.00Ma.geojson", "winner": "D", "cluster_size": 5}, "geometry": {"type": "Point", "coordinates": [-11.777083882743607, -31.265833509394444]}}, {"type": "Feature", "properties": {"ID": "664", "Country": "Brazil", "Basin_Sub_": "Camamu/Almada", "Group": "Almada", "Formation": "Morro do Barro", "Member": "Jiribatuba", "Well name/ outcrop": "N/A", "Latitude": "-13.83", "Longitude": "-38.5", "Dating evidence": "Stratigraphic relationships", "REF(Authors, Year)": "Caixeta et al. 2007; Gontijo et al. 2007", "Show_on_Ma": "135", "Lithology, structures, paleowind": "Green-gray to dark brown shales, rich in organic matter and intercalated with sandstone", "Paleoenvironment": "Lacustrine/fluvio-deltaic", "REF (Authors, Year)": "Caixeta et al. 2007; Gontijo et al. 2007", "Fossil occurrences": "N/A", "REF (Authors, Year)_1": "N/A", "Geochemistry data": "N/A", "REF (Authors, Year)_2": "N/A", "Sediment-based climate inference (hot/cold, humid/semi-arid/desert)": "Humid?", "Fossil-based climate inference (hot/cold, humid/semi-arid/desert)": "N/A", "Geochemistry-based climate inference  (hot/cold, humid/semi-arid/desert)": "N/A", "Climate assignment leading evidence": "Lithology", "Climate_Cl": "H", "Weight": "1", "PlateID": "201", "Sediment-based climate inference (hot/cold, humid/S/desert)": null, "Fossil-based climate inference (hot/cold, humid/S/desert)": null, "Geochemistry-based climate inference  (hot/cold, humid/S/desert)": null, "PaleozonaCodigo": null, "layer": "135.00Ma_point", "path": "C:/Users/Leonardo Bachi/OneDrive/Desktop/ITT_OCEANEON/20_SETEMBRO_TABELA_FINAL/PONTOS_RETIFICADOS/135.00Ma.geojson", "winner": "D", "cluster_size": 5}, "geometry": {"type": "Point", "coordinates": [-11.777083882743607, -31.265833509394444]}}, {"type": "Feature", "properties": {"ID": "491", "Country": "Brazil", "Basin_Sub_": "Araripe", "Group": "Vale do Cariri", "Formation": "Abaiara", "Member": "N/A", "Well name/ outcrop": "General location", "Latitude": "-7.5", "Longitude": "-39.5", "Dating evidence": "Biostratigraphy: palynomorphs - Base: Cypridea Zone (Morininoides) candeiensis (NRT?03); Top: Base of Paracypridea brasiliensis Zone (NRT?04), or Paracypridea obovata obovata Zone (NRT?05)", "REF(Authors, Year)": "Assine et al., 2007", "Show_on_Ma": "135", "Lithology, structures, paleowind": "Sandstones with tangential cross stratification and convolute bedding; associated shales and conglomerates", "Paleoenvironment": "Deltaic plains, fluvial (meandering)", "REF (Authors, Year)": "Costa et al., 2014", "Fossil occurrences": "Palynomorphs - Classopollis, Dicheiropolis etruscus", "REF (Authors, Year)_1": "Silva-Telles Jr. et al, 1991", "Geochemistry data": "N/A", "REF (Authors, Year)_2": "N/A", "Sediment-based climate inference (hot/cold, humid/semi-arid/desert)": "Semi-arid? Humid?", "Fossil-based climate inference (hot/cold, humid/semi-arid/desert)": "Semi-arid? Humid?", "Geochemistry-based climate inference  (hot/cold, humid/semi-arid/desert)": "N/A", "Climate assignment leading evidence": "Fluvial (meandering), palynomorph assemblage", "Climate_Cl": "H", "Weight": "4", "PlateID": "201", "Sediment-based climate inference (hot/cold, humid/S/desert)": null, "Fossil-based climate inference (hot/cold, humid/S/desert)": null, "Geochemistry-based climate inference  (hot/cold, humid/S/desert)": null, "PaleozonaCodigo": null, "layer": "135.00Ma_point", "path": "C:/Users/Leonardo Bachi/OneDrive/Desktop/ITT_OCEANEON/20_SETEMBRO_TABELA_FINAL/PONTOS_RETIFICADOS/135.00Ma.geojson", "winner": "S", "cluster_size": 9}, "geometry": {"type": "Point", "coordinates": [-13.15128094212395, -24.975569735448218]}}, {"type": "Feature", "properties": {"ID": "494", "Country": "Brazil", "Basin_Sub_": "Araripe", "Group": "Vale do Cariri", "Formation": "Abaiara", "Member": "N/A", "Well name/ outcrop": "Scherer et al 2014 log 1", "Latitude": "-7.25", "Longitude": "-39.04", "Dating evidence": "Biostratigraphy: palynomorphs - Base: Cypridea Zone (Morininoides) candeiensis (NRT?03); Top: Base of Paracypridea brasiliensis Zone (NRT?04), or Paracypridea obovata obovata Zone (NRT?05)", "REF(Authors, Year)": "Assine et al., 2007", "Show_on_Ma": "135", "Lithology, structures, paleowind": "Coarsening up cycles of mudstones and very fine sandstones with soft sediment deformation and laminations and ripples; tabular sandstones with sometimes bimodal grain distribution, calcareous concretions, and sandstones with accretionary features and cross stratifications.  Paleocurrents towards SE", "Paleoenvironment": "Prodelta/deltaic front, distributary fluvial channels, overbank, and meandering fluvial channels ", "REF (Authors, Year)": "Scherer et al 2014", "Fossil occurrences": "Palynomorphs - Classopollis, Dicheiropolis etruscus", "REF (Authors, Year)_1": "Silva-Telles Jr. et al, 1991", "Geochemistry data": "N/A", "REF (Authors, Year)_2": "N/A", "Sediment-based climate inference (hot/cold, humid/semi-arid/desert)": "Semi-arid? Humid?", "Fossil-based climate inference (hot/cold, humid/semi-arid/desert)": "Semi-arid? Humid?", "Geochemistry-based climate inference  (hot/cold, humid/semi-arid/desert)": "N/A", "Climate assignment leading evidence": "Deltaic and fluvial meandering channels", "Climate_Cl": "H", "Weight": "4", "PlateID": "201", "Sediment-based climate inference (hot/cold, humid/S/desert)": null, "Fossil-based climate inference (hot/cold, humid/S/desert)": null, "Geochemistry-based climate inference  (hot/cold, humid/S/desert)": null, "PaleozonaCodigo": null, "layer": "135.00Ma_point", "path": "C:/Users/Leonardo Bachi/OneDrive/Desktop/ITT_OCEANEON/20_SETEMBRO_TABELA_FINAL/PONTOS_RETIFICADOS/135.00Ma.geojson", "winner": "S", "cluster_size": 9}, "geometry": {"type": "Point", "coordinates": [-12.658103251638794, -24.710387572698686]}}, {"type": "Feature", "properties": {"ID": "497", "Country": "Brazil", "Basin_Sub_": "Araripe", "Group": "Vale do Cariri", "Formation": "Abaiara", "Member": "N/A", "Well name/ outcrop": "Outcrop location from paper (Fambrini et al., 2019)", "Latitude": "-7.42", "Longitude": "-39.01", "Dating evidence": "Biostratigraphy: palynomorphs - Base: Cypridea Zone (Morininoides) candeiensis (NRT?03); Top: Base of Paracypridea brasiliensis Zone (NRT?04), or Paracypridea obovata obovata Zone (NRT?05)", "REF(Authors, Year)": "Assine et al., 2007", "Show_on_Ma": "135", "Lithology, structures, paleowind": "Reddish to purple shales and laminated siltstones with lenticular, fine, planar to cross-stratified sandstones, and carbonatic claystones. Towards the top green shales occur with frequent intercalations of lenses of conglomerates and conglomeratic sandstones, with through cross stratification, and decimetric fine to medium sandstones with planar cross stratification and convolute bedding.", "Paleoenvironment": "Transition from braided fluvial to lacustrine deltaic to meandering fluvial environment", "REF (Authors, Year)": "Fambrini et al., 2019", "Fossil occurrences": "Palynomorphs - Classopollis, Dicheiropolis etruscus", "REF (Authors, Year)_1": "Silva-Telles Jr. et al, 1991", "Geochemistry data": "N/A", "REF (Authors, Year)_2": "N/A", "Sediment-based climate inference (hot/cold, humid/semi-arid/desert)": "Semi-arid? Humid?", "Fossil-based climate inference (hot/cold, humid/semi-arid/desert)": "Semi-arid? Humid?", "Geochemistry-based climate inference  (hot/cold, humid/semi-arid/desert)": "N/A", "Climate assignment leading evidence": "Fluvial and deltaic environments, palynomorph assemblage", "Climate_Cl": "H", "Weight": "4", "PlateID": "201", "Sediment-based climate inference (hot/cold, humid/S/desert)": null, "Fossil-based climate inference (hot/cold, humid/S/desert)": null, "Geochemistry-based climate inference  (hot/cold, humid/S/desert)": null, "PaleozonaCodigo": null, "layer": "135.00Ma_point", "path": "C:/Users/Leonardo Bachi/OneDrive/Desktop/ITT_OCEANEON/20_SETEMBRO_TABELA_FINAL/PONTOS_RETIFICADOS/135.00Ma.geojson", "winner": "S", "cluster_size": 9}, "geometry": {"type": "Point", "coordinates": [-12.618794923956523, -24.879242340996853]}}, {"type": "Feature", "properties": {"ID": "1320", "Country": "Brazil", "Basin_Sub_": "Rio do Peixe", "Group": "Rio do Peixe", "Formation": "Antenor Navarro", "Member": null, "Well name/ outcrop": "S?io Salguinho", "Latitude": "-6.75", "Longitude": "-38.483333", "Dating evidence": "Palynomorphs", "REF(Authors, Year)": "Lima and Coelho (1987)", "Show_on_Ma": "135", "Lithology, structures, paleowind": "Coarse arkoses and conglomeratic lithic sandstones with trough-cross bedding", "Paleoenvironment": "Braided rivers in distal alluvial fans", "REF (Authors, Year)": "Carvalho et al., 2017", "Fossil occurrences": "Ichnofossils: arthropods: Taenidium barreti, Phycodes isp.", "REF (Authors, Year)_1": "Carvalho et al., 2017", "Geochemistry data": null, "REF (Authors, Year)_2": null, "Sediment-based climate inference (hot/cold, humid/semi-arid/desert)": "Coarser sediments suggest drier climates with occasional periods of flash floods", "Fossil-based climate inference (hot/cold, humid/semi-arid/desert)": "Mostly dry environment subjected to occasional torrential floods.", "Geochemistry-based climate inference  (hot/cold, humid/semi-arid/desert)": null, "Climate assignment leading evidence": "Monospecific trace fossil assemblages on top of sandy bars and channel banks", "Climate_Cl": "D", "Weight": "3", "PlateID": "201", "Sediment-based climate inference (hot/cold, humid/S/desert)": null, "Fossil-based climate inference (hot/cold, humid/S/desert)": null, "Geochemistry-based climate inference  (hot/cold, humid/S/desert)": null, "PaleozonaCodigo": null, "layer": "135.00Ma_point", "path": "C:/Users/Leonardo Bachi/OneDrive/Desktop/ITT_OCEANEON/20_SETEMBRO_TABELA_FINAL/PONTOS_RETIFICADOS/135.00Ma.geojson", "winner": "S", "cluster_size": 9}, "geometry": {"type": "Point", "coordinates": [-12.071552082597421, -24.190603004612566]}}, {"type": "Feature", "properties": {"ID": "1321", "Country": "Brazil", "Basin_Sub_": "Rio do Peixe", "Group": "Rio do Peixe", "Formation": "Antenor Navarro", "Member": null, "Well name/ outcrop": "S?io Saco", "Latitude": "-6.56", "Longitude": "-38.571056", "Dating evidence": "Biostratigraphy: ostracods and palinomorphs", "REF(Authors, Year)": "C?doba et al., 2008", "Show_on_Ma": "135", "Lithology, structures, paleowind": null, "Paleoenvironment": null, "REF (Authors, Year)": "Ribeiro, 2020", "Fossil occurrences": null, "REF (Authors, Year)_1": null, "Geochemistry data": null, "REF (Authors, Year)_2": null, "Sediment-based climate inference (hot/cold, humid/semi-arid/desert)": "Arid, dry", "Fossil-based climate inference (hot/cold, humid/semi-arid/desert)": null, "Geochemistry-based climate inference  (hot/cold, humid/semi-arid/desert)": null, "Climate assignment leading evidence": "presence of carbonate facies as suggesting an hypersaline context and saturated under an arid climate, corroborated by the presence of braided fluvial system with unstable margins due to poorly developed soil and sparse vegetation. The presence of linsen heterolothic structures indicates tide action in the area.", "Climate_Cl": "D", "Weight": "1", "PlateID": "201", "Sediment-based climate inference (hot/cold, humid/S/desert)": null, "Fossil-based climate inference (hot/cold, humid/S/desert)": null, "Geochemistry-based climate inference  (hot/cold, humid/S/desert)": null, "PaleozonaCodigo": null, "layer": "135.00Ma_point", "path": "C:/Users/Leonardo Bachi/OneDrive/Desktop/ITT_OCEANEON/20_SETEMBRO_TABELA_FINAL/PONTOS_RETIFICADOS/135.00Ma.geojson", "winner": "S", "cluster_size": 9}, "geometry": {"type": "Point", "coordinates": [-12.17477147201407, -24.004018482083683]}}, {"type": "Feature", "properties": {"ID": "1018", "Country": "Brazil", "Basin_Sub_": "Paraná/Serra Geral", "Group": "Torres, Vale do Sol and Palmas", "Formation": "N/A", "Member": "N/A", "Well name/ outcrop": null, "Latitude": "-18", "Longitude": "-51", "Dating evidence": "40K/39Ar geochronological data ", "REF(Authors, Year)": "Abdelmalak et al., 2025", "Show_on_Ma": "135", "Lithology, structures, paleowind": "Hawaiian-type effusions (Torres Fomration), basaltic andesites (Vale do Sol Formation), and acidic volcanic deposits (Palmas Formation), ", "Paleoenvironment": "volcanic", "REF (Authors, Year)": "Rossetti et al., 2021", "Fossil occurrences": "N/A", "REF (Authors, Year)_1": "N/A", "Geochemistry data": "N/A", "REF (Authors, Year)_2": "N/A", "Sediment-based climate inference (hot/cold, humid/semi-arid/desert)": "humid", "Fossil-based climate inference (hot/cold, humid/semi-arid/desert)": "N/A", "Geochemistry-based climate inference  (hot/cold, humid/semi-arid/desert)": "N/A", "Climate assignment leading evidence": "ponds/lakes ", "Climate_Cl": "H", "Weight": "1", "PlateID": "201", "Sediment-based climate inference (hot/cold, humid/S/desert)": null, "Fossil-based climate inference (hot/cold, humid/S/desert)": null, "Geochemistry-based climate inference  (hot/cold, humid/S/desert)": null, "PaleozonaCodigo": null, "layer": "135.00Ma_point", "path": "C:/Users/Leonardo Bachi/OneDrive/Desktop/ITT_OCEANEON/20_SETEMBRO_TABELA_FINAL/PONTOS_RETIFICADOS/135.00Ma.geojson", "winner": "D", "cluster_size": 3}, "geometry": {"type": "Point", "coordinates": [-26.173676194249957, -35.4565857087797]}}, {"type": "Feature", "properties": {"ID": "1020", "Country": "Brazil", "Basin_Sub_": "Paraná/Serra Geral", "Group": "Torres, Vale do Sol and Palmas", "Formation": "N/A", "Member": "N/A", "Well name/ outcrop": null, "Latitude": "-30.213", "Longitude": "-57.511", "Dating evidence": "40K/39Ar geochronological data ", "REF(Authors, Year)": "Abdelmalak et al., 2025", "Show_on_Ma": "135", "Lithology, structures, paleowind": "Hawaiian-type effusions (Torres Fomration), basaltic andesites (Vale do Sol Formation), and acidic volcanic deposits (Palmas Formation).", "Paleoenvironment": "volcanic", "REF (Authors, Year)": "Rossetti et al., 2021", "Fossil occurrences": "N/A", "REF (Authors, Year)_1": "N/A", "Geochemistry data": "N/A", "REF (Authors, Year)_2": "N/A", "Sediment-based climate inference (hot/cold, humid/semi-arid/desert)": "humid", "Fossil-based climate inference (hot/cold, humid/semi-arid/desert)": "N/A", "Geochemistry-based climate inference  (hot/cold, humid/semi-arid/desert)": "N/A", "Climate assignment leading evidence": "ponds/lakes ", "Climate_Cl": "H", "Weight": "1", "PlateID": "202", "Sediment-based climate inference (hot/cold, humid/S/desert)": null, "Fossil-based climate inference (hot/cold, humid/S/desert)": null, "Geochemistry-based climate inference  (hot/cold, humid/S/desert)": null, "PaleozonaCodigo": null, "layer": "135.00Ma_point", "path": "C:/Users/Leonardo Bachi/OneDrive/Desktop/ITT_OCEANEON/20_SETEMBRO_TABELA_FINAL/PONTOS_RETIFICADOS/135.00Ma.geojson", "winner": "D", "cluster_size": 5}, "geometry": {"type": "Point", "coordinates": [-35.16634939408652, -47.25802282980588]}}, {"type": "Feature", "properties": {"ID": "1293", "Country": "Brazil", "Basin_Sub_": "Recôncavo", "Group": "Santo Amaro", "Formation": "Candeias", "Member": "Gomo", "Well name/ outcrop": "N/A", "Latitude": "-12.5", "Longitude": "-38.5", "Dating evidence": "Biostratigraphy: Ostracods and palinomorphs", "REF(Authors, Year)": "Silva et al., 2007", "Show_on_Ma": "135", "Lithology, structures, paleowind": "Shales, calcilutites, sandstones", "Paleoenvironment": "Continental: lacustrine, with gravitational flows", "REF (Authors, Year)": "Silva et al., 2007", "Fossil occurrences": "N/A", "REF (Authors, Year)_1": "N/A", "Geochemistry data": "N/A", "REF (Authors, Year)_2": "N/A", "Sediment-based climate inference (hot/cold, humid/semi-arid/desert)": "N/A", "Fossil-based climate inference (hot/cold, humid/semi-arid/desert)": "N/A", "Geochemistry-based climate inference  (hot/cold, humid/semi-arid/desert)": "N/A", "Climate assignment leading evidence": "Perennial lacustrine deposits", "Climate_Cl": "H", "Weight": "2", "PlateID": "201", "Sediment-based climate inference (hot/cold, humid/S/desert)": null, "Fossil-based climate inference (hot/cold, humid/S/desert)": null, "Geochemistry-based climate inference  (hot/cold, humid/S/desert)": null, "PaleozonaCodigo": null, "layer": "135.00Ma_point", "path": "C:/Users/Leonardo Bachi/OneDrive/Desktop/ITT_OCEANEON/20_SETEMBRO_TABELA_FINAL/PONTOS_RETIFICADOS/135.00Ma.geojson", "winner": "S", "cluster_size": 4}, "geometry": {"type": "Point", "coordinates": [-11.839049050057788, -29.93690325901766]}}, {"type": "Feature", "properties": {"ID": "2030", "Country": "Gabon", "Basin_Sub_": "South Gabon subbasin", "Group": "Kango", "Formation": "Kissenda ", "Member": "N/A", "Well name/ outcrop": "well a", "Latitude": "-2.05", "Longitude": "9.083", "Dating evidence": "Biostratigraphy: palynomorphs; ostracods", "REF(Authors, Year)": "Doyle et al., 1977, 1982; 1992; Grosdidier et al 1996; Bate et al 1999; Poropat & Coolin 2012", "Show_on_Ma": "135", "Lithology, structures, paleowind": "mudstone dominated", "Paleoenvironment": "Continental: lacustrine", "REF (Authors, Year)": "Eldrett et al 2023", "Fossil occurrences": "ostracods, palynomorphs", "REF (Authors, Year)_1": "Eldrett et al 2023", "Geochemistry data": "Mean d13C values of ~ -26?are recorded in the Kissenda Fm. (1190?300 m), with a ~3?increase in the lowermost part of the section reaching peak values of ~ -23?at 1235 m", "REF (Authors, Year)_2": "Eldrett et al 2023", "Sediment-based climate inference (hot/cold, humid/semi-arid/desert)": "N/A", "Fossil-based climate inference (hot/cold, humid/semi-arid/desert)": "S-D", "Geochemistry-based climate inference  (hot/cold, humid/semi-arid/desert)": "N/A", "Climate assignment leading evidence": "microflora (william)/ Abundant (>50%) content of Classopollis pollen (Romulo)", "Climate_Cl": "D", "Weight": "3", "PlateID": "701", "Sediment-based climate inference (hot/cold, humid/S/desert)": null, "Fossil-based climate inference (hot/cold, humid/S/desert)": null, "Geochemistry-based climate inference  (hot/cold, humid/S/desert)": null, "PaleozonaCodigo": null, "layer": "135.00Ma_point", "path": "C:/Users/Leonardo Bachi/OneDrive/Desktop/ITT_OCEANEON/20_SETEMBRO_TABELA_FINAL/PONTOS_RETIFICADOS/135.00Ma.geojson", "winner": "S", "cluster_size": 4}, "geometry": {"type": "Point", "coordinates": [-11.98111619779124, -30.155441665576742]}}, {"type": "Feature", "properties": {"ID": "1698", "Country": "Brazil", "Basin_Sub_": "Tucano", "Group": "MassacaráS? Sebasti?", "Formation": null, "Member": null, "Well name/ outcrop": null, "Latitude": "-10", "Longitude": "-38.5", "Dating evidence": "Biostratigraphy: non-marine ostracods?ocal zones", "REF(Authors, Year)": "Costa et al 2007; Almeira-Lima et al 2022", "Show_on_Ma": "135", "Lithology, structures, paleowind": "Sandstones, mudstones", "Paleoenvironment": "Continental: eolian, fluvial", "REF (Authors, Year)": "Costa et al., 2007", "Fossil occurrences": "Palynomorphs and non-marine ostracods", "REF (Authors, Year)_1": "Viana et al 1971; Almeida-Lima et al 2022", "Geochemistry data": null, "REF (Authors, Year)_2": null, "Sediment-based climate inference (hot/cold, humid/semi-arid/desert)": "Hot, dry with wet phases", "Fossil-based climate inference (hot/cold, humid/semi-arid/desert)": null, "Geochemistry-based climate inference  (hot/cold, humid/semi-arid/desert)": null, "Climate assignment leading evidence": "Eolian", "Climate_Cl": "D", "Weight": "4", "PlateID": "201", "Sediment-based climate inference (hot/cold, humid/S/desert)": null, "Fossil-based climate inference (hot/cold, humid/S/desert)": null, "Geochemistry-based climate inference  (hot/cold, humid/S/desert)": null, "PaleozonaCodigo": null, "layer": "135.00Ma_point", "path": "C:/Users/Leonardo Bachi/OneDrive/Desktop/ITT_OCEANEON/20_SETEMBRO_TABELA_FINAL/PONTOS_RETIFICADOS/135.00Ma.geojson", "winner": "S", "cluster_size": 4}, "geometry": {"type": "Point", "coordinates": [-11.95120335131871, -27.43883943124021]}}, {"type": "Feature", "properties": {"ID": "2429", "Country": "Peru", "Basin_Sub_": "Huayllay", "Group": "Goyllarisquizga", "Formation": "Santa", "Member": null, "Well name/ outcrop": null, "Latitude": "-11", "Longitude": "-76.872", "Dating evidence": null, "REF(Authors, Year)": null, "Show_on_Ma": "135", "Lithology, structures, paleowind": null, "Paleoenvironment": null, "REF (Authors, Year)": null, "Fossil occurrences": null, "REF (Authors, Year)_1": null, "Geochemistry data": null, "REF (Authors, Year)_2": null, "Sediment-based climate inference (hot/cold, humid/semi-arid/desert)": null, "Fossil-based climate inference (hot/cold, humid/semi-arid/desert)": null, "Geochemistry-based climate inference  (hot/cold, humid/semi-arid/desert)": null, "Climate assignment leading evidence": null, "Climate_Cl": "S", "Weight": "3", "PlateID": "201", "Sediment-based climate inference (hot/cold, humid/S/desert)": null, "Fossil-based climate inference (hot/cold, humid/S/desert)": null, "Geochemistry-based climate inference  (hot/cold, humid/S/desert)": null, "PaleozonaCodigo": null, "layer": "135.00Ma_point", "path": "C:/Users/Leonardo Bachi/OneDrive/Desktop/ITT_OCEANEON/20_SETEMBRO_TABELA_FINAL/PONTOS_RETIFICADOS/135.00Ma.geojson", "winner": "H", "cluster_size": 3}, "geometry": {"type": "Point", "coordinates": [-54.281798447723396, -25.700758915746054]}}]}