{"type": "FeatureCollection", "features": [{"type": "Feature", "properties": {"Climate_Cl": "S", "votes": 4, "cluster_size": 4, "tie": false, "status": "majority", "member_ids": "24,25,26,27"}, "geometry": {"type": "Point", "coordinates": [0.061867150533724, 5.624639806229219]}}, {"type": "Feature", "properties": {"Climate_Cl": "H", "votes": 1, "cluster_size": 1, "tie": false, "status": "majority", "member_ids": "63"}, "geometry": {"type": "Point", "coordinates": [-4.498713208403403, -2.488394368186919]}}, {"type": "Feature", "properties": {"Climate_Cl": "H", "votes": 1, "cluster_size": 1, "tie": false, "status": "majority", "member_ids": "67"}, "geometry": {"type": "Point", "coordinates": [-4.560604008860746, -2.045832609961704]}}, {"type": "Feature", "properties": {"Climate_Cl": "H", "votes": 1, "cluster_size": 1, "tie": false, "status": "majority", "member_ids": "71"}, "geometry": {"type": "Point", "coordinates": [-4.929503937699391, -1.962988870764098]}}, {"type": "Feature", "properties": {"Climate_Cl": "S", "votes": 1, "cluster_size": 1, "tie": false, "status": "majority", "member_ids": "196"}, "geometry": {"type": "Point", "coordinates": [-12.68934624644389, -38.285776026280544]}}, {"type": "Feature", "properties": {"Climate_Cl": "S", "votes": 1, "cluster_size": 1, "tie": false, "status": "majority", "member_ids": "225"}, "geometry": {"type": "Point", "coordinates": [-58.08947518110703, -65.34929522951846]}}, {"type": "Feature", "properties": {"Climate_Cl": "H", "votes": 1, "cluster_size": 1, "tie": false, "status": "majority", "member_ids": "232"}, "geometry": {"type": "Point", "coordinates": [-57.217423340475776, -63.60112480544699]}}, {"type": "Feature", "properties": {"Climate_Cl": "S", "votes": 1, "cluster_size": 1, "tie": false, "status": "majority", "member_ids": "260"}, "geometry": {"type": "Point", "coordinates": [-53.095392700535434, -64.56854626018875]}}, {"type": "Feature", "properties": {"Climate_Cl": "H", "votes": 1, "cluster_size": 1, "tie": false, "status": "majority", "member_ids": "278"}, "geometry": {"type": "Point", "coordinates": [-52.622981370380714, -62.971093700130666]}}, {"type": "Feature", "properties": {"Climate_Cl": "H", "votes": 1, "cluster_size": 1, "tie": false, "status": "majority", "member_ids": "292"}, "geometry": {"type": "Point", "coordinates": [-52.93994340136056, -56.32418083121275]}}, {"type": "Feature", "properties": {"Climate_Cl": "S", "votes": 1, "cluster_size": 1, "tie": false, "status": "majority", "member_ids": "319"}, "geometry": {"type": "Point", "coordinates": [-53.58341499864959, -55.70382248007587]}}, {"type": "Feature", "properties": {"Climate_Cl": "H", "votes": 1, "cluster_size": 1, "tie": false, "status": "majority", "member_ids": "337"}, "geometry": {"type": "Point", "coordinates": [-53.827210197687556, -52.67829027711106]}}, {"type": "Feature", "properties": {"Climate_Cl": "H", "votes": 1, "cluster_size": 1, "tie": false, "status": "majority", "member_ids": "338"}, "geometry": {"type": "Point", "coordinates": [-54.319599757724426, -54.02452807182724]}}, {"type": "Feature", "properties": {"Climate_Cl": "S", "votes": 3, "cluster_size": 4, "tie": false, "status": "majority", "member_ids": "339,356,362,368"}, "geometry": {"type": "Point", "coordinates": [-40.73228232879523, -58.979743797448705]}}, {"type": "Feature", "properties": {"Climate_Cl": "S", "votes": 1, "cluster_size": 2, "tie": true, "status": "tie", "member_ids": "394,406"}, "geometry": {"type": "Point", "coordinates": [-48.50148282482358, -47.85631768428899]}}, {"type": "Feature", "properties": {"Climate_Cl": "D", "votes": 1, "cluster_size": 2, "tie": true, "status": "tie", "member_ids": "394,406"}, "geometry": {"type": "Point", "coordinates": [-48.50148282482358, -47.85631768428899]}}, {"type": "Feature", "properties": {"Climate_Cl": "H", "votes": 1, "cluster_size": 1, "tie": false, "status": "majority", "member_ids": "421"}, "geometry": {"type": "Point", "coordinates": [-44.12460885971983, -36.2293800299573]}}, {"type": "Feature", "properties": {"Climate_Cl": "H", "votes": 1, "cluster_size": 2, "tie": true, "status": "tie", "member_ids": "452,453"}, "geometry": {"type": "Point", "coordinates": [-9.671702690935495, -27.428422888735103]}}, {"type": "Feature", "properties": {"Climate_Cl": "D", "votes": 1, "cluster_size": 2, "tie": true, "status": "tie", "member_ids": "452,453"}, "geometry": {"type": "Point", "coordinates": [-9.671702690935495, -27.428422888735103]}}, {"type": "Feature", "properties": {"Climate_Cl": "S", "votes": 5, "cluster_size": 12, "tie": false, "status": "majority", "member_ids": "461,468,471,472,473,627,628,629,630,661,663,665"}, "geometry": {"type": "Point", "coordinates": [-12.198606272834448, -31.594708348547908]}}, {"type": "Feature", "properties": {"Climate_Cl": "H", "votes": 1, "cluster_size": 1, "tie": false, "status": "majority", "member_ids": "490"}, "geometry": {"type": "Point", "coordinates": [-13.494945739890074, -25.2909986443147]}}, {"type": "Feature", "properties": {"Climate_Cl": "H", "votes": 2, "cluster_size": 2, "tie": false, "status": "majority", "member_ids": "493,496"}, "geometry": {"type": "Point", "coordinates": [-12.978585477926524, -25.115446178158713]}}, {"type": "Feature", "properties": {"Climate_Cl": "H", "votes": 2, "cluster_size": 2, "tie": false, "status": "majority", "member_ids": "746,751"}, "geometry": {"type": "Point", "coordinates": [-12.088066573504133, -34.76335876072237]}}, {"type": "Feature", "properties": {"Climate_Cl": "S", "votes": 3, "cluster_size": 4, "tie": false, "status": "majority", "member_ids": "876,881,886,887"}, "geometry": {"type": "Point", "coordinates": [-11.51853861183822, -26.904608854016114]}}, {"type": "Feature", "properties": {"Climate_Cl": "D", "votes": 1, "cluster_size": 1, "tie": false, "status": "majority", "member_ids": "1022"}, "geometry": {"type": "Point", "coordinates": [-23.639408100057828, -39.590542367011516]}}, {"type": "Feature", "properties": {"Climate_Cl": "D", "votes": 1, "cluster_size": 1, "tie": false, "status": "majority", "member_ids": "1024"}, "geometry": {"type": "Point", "coordinates": [-29.03479908973418, -35.5209484606681]}}, {"type": "Feature", "properties": {"Climate_Cl": "D", "votes": 1, "cluster_size": 1, "tie": false, "status": "majority", "member_ids": "1026"}, "geometry": {"type": "Point", "coordinates": [-31.15348486191002, -42.43325890075601]}}, {"type": "Feature", "properties": {"Climate_Cl": "D", "votes": 1, "cluster_size": 1, "tie": false, "status": "majority", "member_ids": "1028"}, "geometry": {"type": "Point", "coordinates": [-31.634147544839603, -46.87624395539879]}}, {"type": "Feature", "properties": {"Climate_Cl": "D", "votes": 1, "cluster_size": 1, "tie": false, "status": "majority", "member_ids": "1030"}, "geometry": {"type": "Point", "coordinates": [-29.996052102676146, -47.179357427829174]}}, {"type": "Feature", "properties": {"Climate_Cl": "D", "votes": 2, "cluster_size": 2, "tie": false, "status": "majority", "member_ids": "1032,2951"}, "geometry": {"type": "Point", "coordinates": [-26.94142890091443, -47.46903253176573]}}, {"type": "Feature", "properties": {"Climate_Cl": "D", "votes": 2, "cluster_size": 2, "tie": false, "status": "majority", "member_ids": "1034,2953"}, "geometry": {"type": "Point", "coordinates": [-33.58133973775592, -46.10983292314422]}}, {"type": "Feature", "properties": {"Climate_Cl": "D", "votes": 2, "cluster_size": 2, "tie": false, "status": "majority", "member_ids": "1036,2955"}, "geometry": {"type": "Point", "coordinates": [-35.073484073197726, -47.08415929505142]}}, {"type": "Feature", "properties": {"Climate_Cl": "D", "votes": 2, "cluster_size": 2, "tie": false, "status": "majority", "member_ids": "1038,2957"}, "geometry": {"type": "Point", "coordinates": [-33.87965085858228, -47.17682989312118]}}, {"type": "Feature", "properties": {"Climate_Cl": "D", "votes": 2, "cluster_size": 2, "tie": false, "status": "majority", "member_ids": "1040,2959"}, "geometry": {"type": "Point", "coordinates": [-33.48668906973305, -47.797248689152035]}}, {"type": "Feature", "properties": {"Climate_Cl": "D", "votes": 2, "cluster_size": 2, "tie": false, "status": "majority", "member_ids": "1042,2961"}, "geometry": {"type": "Point", "coordinates": [-33.551804863373725, -48.1667505244585]}}, {"type": "Feature", "properties": {"Climate_Cl": "D", "votes": 2, "cluster_size": 2, "tie": false, "status": "majority", "member_ids": "1044,2963"}, "geometry": {"type": "Point", "coordinates": [-26.70010140220846, -35.632045664870226]}}, {"type": "Feature", "properties": {"Climate_Cl": "D", "votes": 2, "cluster_size": 2, "tie": false, "status": "majority", "member_ids": "1046,2965"}, "geometry": {"type": "Point", "coordinates": [-35.94927482281141, -47.33027423318855]}}, {"type": "Feature", "properties": {"Climate_Cl": "D", "votes": 2, "cluster_size": 2, "tie": false, "status": "majority", "member_ids": "1059,1060"}, "geometry": {"type": "Point", "coordinates": [-33.06737996759226, -29.248671764099026]}}, {"type": "Feature", "properties": {"Climate_Cl": "S", "votes": 1, "cluster_size": 1, "tie": false, "status": "majority", "member_ids": "1272"}, "geometry": {"type": "Point", "coordinates": [-10.425481207753563, -22.96391168974527]}}, {"type": "Feature", "properties": {"Climate_Cl": "H", "votes": 7, "cluster_size": 11, "tie": false, "status": "majority", "member_ids": "1288,1292,1294,1295,1297,1305,1306,1307,1308,1313,1314"}, "geometry": {"type": "Point", "coordinates": [-12.242737333594114, -30.26524714251498]}}, {"type": "Feature", "properties": {"Climate_Cl": "S", "votes": 4, "cluster_size": 6, "tie": false, "status": "majority", "member_ids": "1318,1319,1334,1342,1343,1344"}, "geometry": {"type": "Point", "coordinates": [-12.36046640230446, -24.53091629072115]}}, {"type": "Feature", "properties": {"Climate_Cl": "S", "votes": 2, "cluster_size": 2, "tie": false, "status": "majority", "member_ids": "1505,1506"}, "geometry": {"type": "Point", "coordinates": [-21.19793977235345, -35.795792257524546]}}, {"type": "Feature", "properties": {"Climate_Cl": "S", "votes": 4, "cluster_size": 4, "tie": false, "status": "majority", "member_ids": "1578,1607,1629,1635"}, "geometry": {"type": "Point", "coordinates": [-8.935579798762143, -28.657081625489756]}}, {"type": "Feature", "properties": {"Climate_Cl": "S", "votes": 2, "cluster_size": 4, "tie": true, "status": "tie", "member_ids": "1684,1685,1692,1697"}, "geometry": {"type": "Point", "coordinates": [-12.322571093744388, -27.766221821593952]}}, {"type": "Feature", "properties": {"Climate_Cl": "D", "votes": 2, "cluster_size": 4, "tie": true, "status": "tie", "member_ids": "1684,1685,1692,1697"}, "geometry": {"type": "Point", "coordinates": [-12.322571093744388, -27.766221821593952]}}, {"type": "Feature", "properties": {"Climate_Cl": "S", "votes": 3, "cluster_size": 3, "tie": false, "status": "majority", "member_ids": "1835,1840,1845"}, "geometry": {"type": "Point", "coordinates": [-1.442657150611929, -22.42388869492491]}}, {"type": "Feature", "properties": {"Climate_Cl": "D", "votes": 1, "cluster_size": 1, "tie": false, "status": "majority", "member_ids": "1857"}, "geometry": {"type": "Point", "coordinates": [-50.2422823799874, -44.65030385949185]}}, {"type": "Feature", "properties": {"Climate_Cl": "D", "votes": 1, "cluster_size": 1, "tie": false, "status": "majority", "member_ids": "1858"}, "geometry": {"type": "Point", "coordinates": [-50.01545113241827, -42.565901745308274]}}, {"type": "Feature", "properties": {"Climate_Cl": "D", "votes": 2, "cluster_size": 2, "tie": false, "status": "majority", "member_ids": "1859,1860"}, "geometry": {"type": "Point", "coordinates": [-50.123851226581955, -41.97792208855021]}}, {"type": "Feature", "properties": {"Climate_Cl": "S", "votes": 1, "cluster_size": 1, "tie": false, "status": "majority", "member_ids": "1878"}, "geometry": {"type": "Point", "coordinates": [-51.34585594607219, -45.89182412133724]}}, {"type": "Feature", "properties": {"Climate_Cl": "S", "votes": 1, "cluster_size": 1, "tie": false, "status": "majority", "member_ids": "1879"}, "geometry": {"type": "Point", "coordinates": [-8.501551098434481, -45.17418570972112]}}, {"type": "Feature", "properties": {"Climate_Cl": "S", "votes": 1, "cluster_size": 2, "tie": true, "status": "tie", "member_ids": "2013,2014"}, "geometry": {"type": "Point", "coordinates": [-51.46425521925708, -15.93593801732007]}}, {"type": "Feature", "properties": {"Climate_Cl": "D", "votes": 1, "cluster_size": 2, "tie": true, "status": "tie", "member_ids": "2013,2014"}, "geometry": {"type": "Point", "coordinates": [-51.46425521925708, -15.93593801732007]}}, {"type": "Feature", "properties": {"Climate_Cl": "H", "votes": 1, "cluster_size": 1, "tie": false, "status": "majority", "member_ids": "2099"}, "geometry": {"type": "Point", "coordinates": [4.999474954920642, -7.354135949538232]}}, {"type": "Feature", "properties": {"Climate_Cl": "S", "votes": 1, "cluster_size": 1, "tie": false, "status": "majority", "member_ids": "2204"}, "geometry": {"type": "Point", "coordinates": [-10.748102914105617, 5.66837683414287]}}, {"type": "Feature", "properties": {"Climate_Cl": "S", "votes": 1, "cluster_size": 1, "tie": false, "status": "majority", "member_ids": "2271"}, "geometry": {"type": "Point", "coordinates": [-4.335526714398794, -13.444833741573504]}}, {"type": "Feature", "properties": {"Climate_Cl": "H", "votes": 1, "cluster_size": 1, "tie": false, "status": "majority", "member_ids": "2403"}, "geometry": {"type": "Point", "coordinates": [-48.44644504220484, -33.64367708645788]}}, {"type": "Feature", "properties": {"Climate_Cl": "D", "votes": 1, "cluster_size": 1, "tie": false, "status": "majority", "member_ids": "2411"}, "geometry": {"type": "Point", "coordinates": [-54.083408517736366, -24.638113643691266]}}, {"type": "Feature", "properties": {"Climate_Cl": "H", "votes": 1, "cluster_size": 1, "tie": false, "status": "majority", "member_ids": "2432"}, "geometry": {"type": "Point", "coordinates": [-54.66237900269467, -25.556188855484294]}}, {"type": "Feature", "properties": {"Climate_Cl": "H", "votes": 1, "cluster_size": 1, "tie": false, "status": "majority", "member_ids": "2455"}, "geometry": {"type": "Point", "coordinates": [-53.184463632115346, -20.723722127624665]}}, {"type": "Feature", "properties": {"Climate_Cl": "H", "votes": 1, "cluster_size": 1, "tie": false, "status": "majority", "member_ids": "2497"}, "geometry": {"type": "Point", "coordinates": [-52.96550741277503, -25.844153472762194]}}, {"type": "Feature", "properties": {"Climate_Cl": "S", "votes": 1, "cluster_size": 1, "tie": false, "status": "majority", "member_ids": "2515"}, "geometry": {"type": "Point", "coordinates": [-11.853040513311583, -34.008654831277916]}}, {"type": "Feature", "properties": {"Climate_Cl": "D", "votes": 1, "cluster_size": 1, "tie": false, "status": "majority", "member_ids": "2516"}, "geometry": {"type": "Point", "coordinates": [-25.54218080699957, -3.357615716581579]}}, {"type": "Feature", "properties": {"Climate_Cl": "S", "votes": 1, "cluster_size": 2, "tie": true, "status": "tie", "member_ids": "2533,2635"}, "geometry": {"type": "Point", "coordinates": [-27.878319192902026, -4.736179866089409]}}, {"type": "Feature", "properties": {"Climate_Cl": "D", "votes": 1, "cluster_size": 2, "tie": true, "status": "tie", "member_ids": "2533,2635"}, "geometry": {"type": "Point", "coordinates": [-27.878319192902026, -4.736179866089409]}}, {"type": "Feature", "properties": {"Climate_Cl": "D", "votes": 1, "cluster_size": 1, "tie": false, "status": "majority", "member_ids": "2550"}, "geometry": {"type": "Point", "coordinates": [-25.085264977259516, -3.506978215901911]}}, {"type": "Feature", "properties": {"Climate_Cl": "H", "votes": 3, "cluster_size": 3, "tie": false, "status": "majority", "member_ids": "2897,2898,2899"}, "geometry": {"type": "Point", "coordinates": [5.628983282675439, 1.20618138465859]}}, {"type": "Feature", "properties": {"Climate_Cl": "S", "votes": 1, "cluster_size": 1, "tie": false, "status": "majority", "member_ids": "2969"}, "geometry": {"type": "Point", "coordinates": [-33.91176107967085, -49.27445401619282]}}, {"type": "Feature", "properties": {"Climate_Cl": "H", "votes": 1, "cluster_size": 1, "tie": false, "status": "majority", "member_ids": "2992"}, "geometry": {"type": "Point", "coordinates": [-33.289939765636056, -52.33073163083194]}}]}