{"type": "FeatureCollection", "features": [{"type": "Feature", "properties": {"ID": "368", "Country": "Argentina", "Basin_Sub_": "Rawson", "Group": " ", "Formation": "Syn-rift sequence III", "Member": null, "Well name/ outcrop": "Ayra x-1 well", "Latitude": "-42.17", "Longitude": "-60.83", "Dating evidence": "Seismic correlations; Authigenic illite radiometric ages: 109 ?18 Ma", "REF(Authors, Year)": "Continanzia et al., 2011", "Show_on_Ma": "140", "Lithology, structures, paleowind": "Reddish to brownish sandstones and mudstones; red beds", "Paleoenvironment": "Arid fluvial; alluvial fans; floodplains", "REF (Authors, Year)": "Continanzia et al., 2011", "Fossil occurrences": null, "REF (Authors, Year)_1": null, "Geochemistry data": null, "REF (Authors, Year)_2": null, "Sediment-based climate inference (hot/cold, humid/semi-arid/desert)": "Arid", "Fossil-based climate inference (hot/cold, humid/semi-arid/desert)": null, "Geochemistry-based climate inference  (hot/cold, humid/semi-arid/desert)": null, "Climate assignment leading evidence": "Arid fluvial deposits", "Climate_Cl": "D", "Weight": "2", "PlateID": "283", "Sediment-based climate inference (hot/cold, humid/S/desert)": null, "Fossil-based climate inference (hot/cold, humid/S/desert)": null, "Geochemistry-based climate inference  (hot/cold, humid/S/desert)": null, "PaleozonaCodigo": null, "layer": "140.00Ma_point", "path": "C:/Users/Leonardo Bachi/OneDrive/Desktop/ITT_OCEANEON/20_SETEMBRO_TABELA_FINAL/PONTOS_RETIFICADOS/140.00Ma.geojson", "winner": "S", "cluster_size": 4}, "geometry": {"type": "Point", "coordinates": [-40.73228232879523, -58.979743797448705]}}, {"type": "Feature", "properties": {"ID": "468", "Country": "Brazil", "Basin_Sub_": "Camamu", "Group": "Almada", "Formation": "Morro do Barro", "Member": "N/A", "Well name/ outcrop": "Northern Cammamu basin. ~10 km to the east of the NNE-SSW trending rift border fault.", "Latitude": "-13.83", "Longitude": "-38.5", "Dating evidence": "Non-marine Ostracods", "REF(Authors, Year)": "Viana et al., 1971; Picarelli and Grillo, 1996    apud Gon?lves et al., 2001; 2002 .", "Show_on_Ma": "140", "Lithology, structures, paleowind": "Dark-gray to brown\nshales, carbonates and minor sandstones", "Paleoenvironment": "Lacustrine with fresh to brackish water", "REF (Authors, Year)": "Gon?lves et al. 2002", "Fossil occurrences": "Palynology", "REF (Authors, Year)_1": "  Picarelli et al. 1993; Picarelli and grilo, 1996 apud Gon?lves et al., 2020 .", "Geochemistry data": "18OCARB (Highest values)", "REF (Authors, Year)_2": "Gon?lves et al. 2002", "Sediment-based climate inference (hot/cold, humid/semi-arid/desert)": "Desert", "Fossil-based climate inference (hot/cold, humid/semi-arid/desert)": "Arid", "Geochemistry-based climate inference  (hot/cold, humid/semi-arid/desert)": "Arid", "Climate assignment leading evidence": "18OCARB  (Highest values) and deposition of carbonates and marls, result from increasing evaporation associated with aridity.", "Climate_Cl": "D", "Weight": "5", "PlateID": "201", "Sediment-based climate inference (hot/cold, humid/S/desert)": null, "Fossil-based climate inference (hot/cold, humid/S/desert)": null, "Geochemistry-based climate inference  (hot/cold, humid/S/desert)": null, "PaleozonaCodigo": null, "layer": "140.00Ma_point", "path": "C:/Users/Leonardo Bachi/OneDrive/Desktop/ITT_OCEANEON/20_SETEMBRO_TABELA_FINAL/PONTOS_RETIFICADOS/140.00Ma.geojson", "winner": "S", "cluster_size": 12}, "geometry": {"type": "Point", "coordinates": [-12.19860627283445, -31.594708348547908]}}, {"type": "Feature", "properties": {"ID": "627", "Country": "Brazil", "Basin_Sub_": "Camamu", "Group": "Santo Amaro", "Formation": "?ua Grande", "Member": null, "Well name/ outcrop": null, "Latitude": "-13.83", "Longitude": "-38.5", "Dating evidence": "Stratigraphic relationships", "REF(Authors, Year)": "Caixeta et al. 2007", "Show_on_Ma": "140", "Lithology, structures, paleowind": "Sandstones", "Paleoenvironment": "Fluvial-eolian/lacustrine", "REF (Authors, Year)": "Caixeta et al. 2007", "Fossil occurrences": null, "REF (Authors, Year)_1": null, "Geochemistry data": null, "REF (Authors, Year)_2": null, "Sediment-based climate inference (hot/cold, humid/semi-arid/desert)": null, "Fossil-based climate inference (hot/cold, humid/semi-arid/desert)": null, "Geochemistry-based climate inference  (hot/cold, humid/semi-arid/desert)": null, "Climate assignment leading evidence": "Lithology", "Climate_Cl": "H", "Weight": "2", "PlateID": "201", "Sediment-based climate inference (hot/cold, humid/S/desert)": null, "Fossil-based climate inference (hot/cold, humid/S/desert)": null, "Geochemistry-based climate inference  (hot/cold, humid/S/desert)": null, "PaleozonaCodigo": null, "layer": "140.00Ma_point", "path": "C:/Users/Leonardo Bachi/OneDrive/Desktop/ITT_OCEANEON/20_SETEMBRO_TABELA_FINAL/PONTOS_RETIFICADOS/140.00Ma.geojson", "winner": "S", "cluster_size": 12}, "geometry": {"type": "Point", "coordinates": [-12.19860627283445, -31.594708348547908]}}, {"type": "Feature", "properties": {"ID": "628", "Country": "Brazil", "Basin_Sub_": "Camamu", "Group": "Santo Amaro", "Formation": "Candeias", "Member": "Tauá", "Well name/ outcrop": null, "Latitude": "-13.83", "Longitude": "-38.5", "Dating evidence": "Stratigraphic relationships", "REF(Authors, Year)": "Caixeta et al. 2007", "Show_on_Ma": "140", "Lithology, structures, paleowind": "Shale", "Paleoenvironment": "Fluvial-eolian/lacustrine", "REF (Authors, Year)": "Caixeta et al. 2007", "Fossil occurrences": null, "REF (Authors, Year)_1": null, "Geochemistry data": null, "REF (Authors, Year)_2": null, "Sediment-based climate inference (hot/cold, humid/semi-arid/desert)": null, "Fossil-based climate inference (hot/cold, humid/semi-arid/desert)": null, "Geochemistry-based climate inference  (hot/cold, humid/semi-arid/desert)": null, "Climate assignment leading evidence": "Lithology", "Climate_Cl": "H", "Weight": "1", "PlateID": "201", "Sediment-based climate inference (hot/cold, humid/S/desert)": null, "Fossil-based climate inference (hot/cold, humid/S/desert)": null, "Geochemistry-based climate inference  (hot/cold, humid/S/desert)": null, "PaleozonaCodigo": null, "layer": "140.00Ma_point", "path": "C:/Users/Leonardo Bachi/OneDrive/Desktop/ITT_OCEANEON/20_SETEMBRO_TABELA_FINAL/PONTOS_RETIFICADOS/140.00Ma.geojson", "winner": "S", "cluster_size": 12}, "geometry": {"type": "Point", "coordinates": [-12.19860627283445, -31.594708348547908]}}, {"type": "Feature", "properties": {"ID": "629", "Country": "Brazil", "Basin_Sub_": "Camamu", "Group": "Santo Amaro", "Formation": "Itaparica", "Member": null, "Well name/ outcrop": null, "Latitude": "-13.83", "Longitude": "-38.5", "Dating evidence": "Stratigraphic relationships", "REF(Authors, Year)": "Caixeta et al. 2007", "Show_on_Ma": "140", "Lithology, structures, paleowind": "Shale", "Paleoenvironment": "Fluvial-eolian/lacustrine", "REF (Authors, Year)": "Caixeta et al. 2007", "Fossil occurrences": null, "REF (Authors, Year)_1": null, "Geochemistry data": null, "REF (Authors, Year)_2": null, "Sediment-based climate inference (hot/cold, humid/semi-arid/desert)": null, "Fossil-based climate inference (hot/cold, humid/semi-arid/desert)": null, "Geochemistry-based climate inference  (hot/cold, humid/semi-arid/desert)": null, "Climate assignment leading evidence": "Lithology", "Climate_Cl": "H", "Weight": "1", "PlateID": "201", "Sediment-based climate inference (hot/cold, humid/S/desert)": null, "Fossil-based climate inference (hot/cold, humid/S/desert)": null, "Geochemistry-based climate inference  (hot/cold, humid/S/desert)": null, "PaleozonaCodigo": null, "layer": "140.00Ma_point", "path": "C:/Users/Leonardo Bachi/OneDrive/Desktop/ITT_OCEANEON/20_SETEMBRO_TABELA_FINAL/PONTOS_RETIFICADOS/140.00Ma.geojson", "winner": "S", "cluster_size": 12}, "geometry": {"type": "Point", "coordinates": [-12.19860627283445, -31.594708348547908]}}, {"type": "Feature", "properties": {"ID": "630", "Country": "Brazil", "Basin_Sub_": "Camamu", "Group": " ", "Formation": "Morro do Barro", "Member": null, "Well name/ outcrop": "Northern Cammamu basin. ~10 km to the east of the NNE-SSW trending rift border fault.", "Latitude": "-13.83", "Longitude": "-38.5", "Dating evidence": "Non-marine Ostracods", "REF(Authors, Year)": "Viana et al., 1971; Picarelli and Grillo, 1996    apud Gon?lves et al., 2001; 2002 .", "Show_on_Ma": "140", "Lithology, structures, paleowind": "Dark-gray to brown\nshales, carbonates and minor sandstones", "Paleoenvironment": "Lacustrine with fresh to brackish water", "REF (Authors, Year)": "Gon?lves et al. 2002", "Fossil occurrences": "Palynology", "REF (Authors, Year)_1": "  Picarelli et al. 1993; Picarelli and grilo, 1996 apud Gon?lves et al., 2020 .", "Geochemistry data": "18OCARB (Highest values)", "REF (Authors, Year)_2": "Gon?lves et al. 2002", "Sediment-based climate inference (hot/cold, humid/semi-arid/desert)": "Desert", "Fossil-based climate inference (hot/cold, humid/semi-arid/desert)": "Arid", "Geochemistry-based climate inference  (hot/cold, humid/semi-arid/desert)": "Arid", "Climate assignment leading evidence": "18OCARB  (Highest values) and deposition of carbonates and marls, result from increasing evaporation associated with aridity.", "Climate_Cl": "D", "Weight": "5", "PlateID": "201", "Sediment-based climate inference (hot/cold, humid/S/desert)": null, "Fossil-based climate inference (hot/cold, humid/S/desert)": null, "Geochemistry-based climate inference  (hot/cold, humid/S/desert)": null, "PaleozonaCodigo": null, "layer": "140.00Ma_point", "path": "C:/Users/Leonardo Bachi/OneDrive/Desktop/ITT_OCEANEON/20_SETEMBRO_TABELA_FINAL/PONTOS_RETIFICADOS/140.00Ma.geojson", "winner": "S", "cluster_size": 12}, "geometry": {"type": "Point", "coordinates": [-12.19860627283445, -31.594708348547908]}}, {"type": "Feature", "properties": {"ID": "663", "Country": "Brazil", "Basin_Sub_": "Camamu/Almada", "Group": "Almada", "Formation": "Morro do Barro", "Member": "Jiribatuba", "Well name/ outcrop": "N/A", "Latitude": "-13.83", "Longitude": "-38.5", "Dating evidence": "Stratigraphic relationships", "REF(Authors, Year)": "Caixeta et al. 2007; Gontijo et al. 2007", "Show_on_Ma": "140", "Lithology, structures, paleowind": "Green-gray to dark brown shales, rich in organic matter and intercalated with sandstone", "Paleoenvironment": "Lacustrine/fluvio-deltaic", "REF (Authors, Year)": "Caixeta et al. 2007; Gontijo et al. 2007", "Fossil occurrences": "N/A", "REF (Authors, Year)_1": "N/A", "Geochemistry data": "N/A", "REF (Authors, Year)_2": "N/A", "Sediment-based climate inference (hot/cold, humid/semi-arid/desert)": "Humid?", "Fossil-based climate inference (hot/cold, humid/semi-arid/desert)": "N/A", "Geochemistry-based climate inference  (hot/cold, humid/semi-arid/desert)": "N/A", "Climate assignment leading evidence": "Lithology", "Climate_Cl": "H", "Weight": "1", "PlateID": "201", "Sediment-based climate inference (hot/cold, humid/S/desert)": null, "Fossil-based climate inference (hot/cold, humid/S/desert)": null, "Geochemistry-based climate inference  (hot/cold, humid/S/desert)": null, "PaleozonaCodigo": null, "layer": "140.00Ma_point", "path": "C:/Users/Leonardo Bachi/OneDrive/Desktop/ITT_OCEANEON/20_SETEMBRO_TABELA_FINAL/PONTOS_RETIFICADOS/140.00Ma.geojson", "winner": "S", "cluster_size": 12}, "geometry": {"type": "Point", "coordinates": [-12.19860627283445, -31.594708348547908]}}, {"type": "Feature", "properties": {"ID": "665", "Country": "Brazil", "Basin_Sub_": "Camamu/Almada", "Group": "Almada", "Formation": "Morro do Barro", "Member": "N/A", "Well name/ outcrop": "N/A", "Latitude": "-13.83", "Longitude": "-38.5", "Dating evidence": "Stratigraphic relationships", "REF(Authors, Year)": "Caixeta et al. 2007; Gontijo et al. 2007", "Show_on_Ma": "140", "Lithology, structures, paleowind": "Sandstones, shales and minor carbonates", "Paleoenvironment": "Lacustrine with fresh to brackish water", "REF (Authors, Year)": "Gon?lves et al. 1997", "Fossil occurrences": "N/A", "REF (Authors, Year)_1": "N/A", "Geochemistry data": "Organic matter rich in hydrogen (IH) and poorer in oxygen (IO). The oxygen isotope ratio of carbonates (18OCARB) shows a general trend of enrichment in 18O.", "REF (Authors, Year)_2": "Gon?lves et al. 1997", "Sediment-based climate inference (hot/cold, humid/semi-arid/desert)": "N/A", "Fossil-based climate inference (hot/cold, humid/semi-arid/desert)": "N/A", "Geochemistry-based climate inference  (hot/cold, humid/semi-arid/desert)": "Arid", "Climate assignment leading evidence": "Trend of enrichment in 18O,  suggesting a progressive increase in evaporation in relation to the influx of water in the water balance of the paleolake..", "Climate_Cl": "D", "Weight": "5", "PlateID": "201", "Sediment-based climate inference (hot/cold, humid/S/desert)": null, "Fossil-based climate inference (hot/cold, humid/S/desert)": null, "Geochemistry-based climate inference  (hot/cold, humid/S/desert)": null, "PaleozonaCodigo": null, "layer": "140.00Ma_point", "path": "C:/Users/Leonardo Bachi/OneDrive/Desktop/ITT_OCEANEON/20_SETEMBRO_TABELA_FINAL/PONTOS_RETIFICADOS/140.00Ma.geojson", "winner": "S", "cluster_size": 12}, "geometry": {"type": "Point", "coordinates": [-12.19860627283445, -31.594708348547908]}}, {"type": "Feature", "properties": {"ID": "490", "Country": "Brazil", "Basin_Sub_": "Araripe", "Group": "Vale do Cariri", "Formation": "Abaiara", "Member": "N/A", "Well name/ outcrop": "General location", "Latitude": "-7.5", "Longitude": "-39.5", "Dating evidence": "Biostratigraphy: palynomorphs - Base: Cypridea Zone (Morininoides) candeiensis (NRT?03); Top: Base of Paracypridea brasiliensis Zone (NRT?04), or Paracypridea obovata obovata Zone (NRT?05)", "REF(Authors, Year)": "Assine et al., 2007", "Show_on_Ma": "140", "Lithology, structures, paleowind": "Sandstones with tangential cross stratification and convolute bedding; associated shales and conglomerates", "Paleoenvironment": "Deltaic plains, fluvial (meandering)", "REF (Authors, Year)": "Costa et al., 2014", "Fossil occurrences": "Palynomorphs - Classopollis, Dicheiropolis etruscus", "REF (Authors, Year)_1": "Silva-Telles Jr. et al, 1991", "Geochemistry data": "N/A", "REF (Authors, Year)_2": "N/A", "Sediment-based climate inference (hot/cold, humid/semi-arid/desert)": "Semi-arid? Humid?", "Fossil-based climate inference (hot/cold, humid/semi-arid/desert)": "Semi-arid? Humid?", "Geochemistry-based climate inference  (hot/cold, humid/semi-arid/desert)": "N/A", "Climate assignment leading evidence": "Fluvial (meandering), palynomorph assemblage", "Climate_Cl": "H", "Weight": "4", "PlateID": "201", "Sediment-based climate inference (hot/cold, humid/S/desert)": null, "Fossil-based climate inference (hot/cold, humid/S/desert)": null, "Geochemistry-based climate inference  (hot/cold, humid/S/desert)": null, "PaleozonaCodigo": null, "layer": "140.00Ma_point", "path": "C:/Users/Leonardo Bachi/OneDrive/Desktop/ITT_OCEANEON/20_SETEMBRO_TABELA_FINAL/PONTOS_RETIFICADOS/140.00Ma.geojson", "winner": "S", "cluster_size": 9}, "geometry": {"type": "Point", "coordinates": [-13.494945739890074, -25.2909986443147]}}, {"type": "Feature", "properties": {"ID": "493", "Country": "Brazil", "Basin_Sub_": "Araripe", "Group": "Vale do Cariri", "Formation": "Abaiara", "Member": "N/A", "Well name/ outcrop": "Scherer et al 2014 log 1", "Latitude": "-7.25", "Longitude": "-39.04", "Dating evidence": "Biostratigraphy: palynomorphs - Base: Cypridea Zone (Morininoides) candeiensis (NRT?03); Top: Base of Paracypridea brasiliensis Zone (NRT?04), or Paracypridea obovata obovata Zone (NRT?05)", "REF(Authors, Year)": "Assine et al., 2007", "Show_on_Ma": "140", "Lithology, structures, paleowind": "Coarsening up cycles of mudstones and very fine sandstones with soft sediment deformation and laminations and ripples; tabular sandstones with sometimes bimodal grain distribution, calcareous concretions, and sandstones with accretionary features and cross stratifications.  Paleocurrents towards SE", "Paleoenvironment": "Prodelta/deltaic front, distributary fluvial channels, overbank, and meandering fluvial channels ", "REF (Authors, Year)": "Scherer et al 2014", "Fossil occurrences": "Palynomorphs - Classopollis, Dicheiropolis etruscus", "REF (Authors, Year)_1": "Silva-Telles Jr. et al, 1991", "Geochemistry data": "N/A", "REF (Authors, Year)_2": "N/A", "Sediment-based climate inference (hot/cold, humid/semi-arid/desert)": "Semi-arid? Humid?", "Fossil-based climate inference (hot/cold, humid/semi-arid/desert)": "Semi-arid? Humid?", "Geochemistry-based climate inference  (hot/cold, humid/semi-arid/desert)": "N/A", "Climate assignment leading evidence": "Deltaic and fluvial meandering channels", "Climate_Cl": "H", "Weight": "4", "PlateID": "201", "Sediment-based climate inference (hot/cold, humid/S/desert)": null, "Fossil-based climate inference (hot/cold, humid/S/desert)": null, "Geochemistry-based climate inference  (hot/cold, humid/S/desert)": null, "PaleozonaCodigo": null, "layer": "140.00Ma_point", "path": "C:/Users/Leonardo Bachi/OneDrive/Desktop/ITT_OCEANEON/20_SETEMBRO_TABELA_FINAL/PONTOS_RETIFICADOS/140.00Ma.geojson", "winner": "S", "cluster_size": 9}, "geometry": {"type": "Point", "coordinates": [-12.997252550810593, -25.030825560538478]}}, {"type": "Feature", "properties": {"ID": "496", "Country": "Brazil", "Basin_Sub_": "Araripe", "Group": "Vale do Cariri", "Formation": "Abaiara", "Member": "N/A", "Well name/ outcrop": "Outcrop location from paper (Fambrini et al., 2019)", "Latitude": "-7.42", "Longitude": "-39.01", "Dating evidence": "Biostratigraphy: palynomorphs - Base: Cypridea Zone (Morininoides) candeiensis (NRT?03); Top: Base of Paracypridea brasiliensis Zone (NRT?04), or Paracypridea obovata obovata Zone (NRT?05)", "REF(Authors, Year)": "Assine et al., 2007", "Show_on_Ma": "140", "Lithology, structures, paleowind": "Reddish to purple shales and laminated siltstones with lenticular, fine, planar to cross-stratified sandstones, and carbonatic claystones. Towards the top green shales occur with frequent intercalations of lenses of conglomerates and conglomeratic sandstones, with through cross stratification, and decimetric fine to medium sandstones with planar cross stratification and convolute bedding.", "Paleoenvironment": "Transition from braided fluvial to lacustrine deltaic to meandering fluvial environment", "REF (Authors, Year)": "Fambrini et al., 2019", "Fossil occurrences": "Palynomorphs - Classopollis, Dicheiropolis etruscus", "REF (Authors, Year)_1": "Silva-Telles Jr. et al, 1991", "Geochemistry data": "N/A", "REF (Authors, Year)_2": "N/A", "Sediment-based climate inference (hot/cold, humid/semi-arid/desert)": "Semi-arid? Humid?", "Fossil-based climate inference (hot/cold, humid/semi-arid/desert)": "Semi-arid? Humid?", "Geochemistry-based climate inference  (hot/cold, humid/semi-arid/desert)": "N/A", "Climate assignment leading evidence": "Fluvial and deltaic environments, palynomorph assemblage", "Climate_Cl": "H", "Weight": "4", "PlateID": "201", "Sediment-based climate inference (hot/cold, humid/S/desert)": null, "Fossil-based climate inference (hot/cold, humid/S/desert)": null, "Geochemistry-based climate inference  (hot/cold, humid/S/desert)": null, "PaleozonaCodigo": null, "layer": "140.00Ma_point", "path": "C:/Users/Leonardo Bachi/OneDrive/Desktop/ITT_OCEANEON/20_SETEMBRO_TABELA_FINAL/PONTOS_RETIFICADOS/140.00Ma.geojson", "winner": "S", "cluster_size": 9}, "geometry": {"type": "Point", "coordinates": [-12.959918405042455, -25.200066795778945]}}, {"type": "Feature", "properties": {"ID": "1318", "Country": "Brazil", "Basin_Sub_": "Rio do Peixe", "Group": "Rio do Peixe", "Formation": "Antenor Navarro", "Member": null, "Well name/ outcrop": "S?io Salguinho", "Latitude": "-6.75", "Longitude": "-38.483333", "Dating evidence": "Palynomorphs", "REF(Authors, Year)": "Lima and Coelho (1987)", "Show_on_Ma": "140", "Lithology, structures, paleowind": "Coarse arkoses and conglomeratic lithic sandstones with trough-cross bedding", "Paleoenvironment": "Braided rivers in distal alluvial fans", "REF (Authors, Year)": "Carvalho et al., 2017", "Fossil occurrences": "Ichnofossils: arthropods: Taenidium barreti, Phycodes isp.", "REF (Authors, Year)_1": "Carvalho et al., 2017", "Geochemistry data": null, "REF (Authors, Year)_2": null, "Sediment-based climate inference (hot/cold, humid/semi-arid/desert)": "Coarser sediments suggest drier climates with occasional periods of flash floods", "Fossil-based climate inference (hot/cold, humid/semi-arid/desert)": "Mostly dry environment subjected to occasional torrential floods.", "Geochemistry-based climate inference  (hot/cold, humid/semi-arid/desert)": null, "Climate assignment leading evidence": "Monospecific trace fossil assemblages on top of sandy bars and channel banks", "Climate_Cl": "D", "Weight": "3", "PlateID": "201", "Sediment-based climate inference (hot/cold, humid/S/desert)": null, "Fossil-based climate inference (hot/cold, humid/S/desert)": null, "Geochemistry-based climate inference  (hot/cold, humid/S/desert)": null, "PaleozonaCodigo": null, "layer": "140.00Ma_point", "path": "C:/Users/Leonardo Bachi/OneDrive/Desktop/ITT_OCEANEON/20_SETEMBRO_TABELA_FINAL/PONTOS_RETIFICADOS/140.00Ma.geojson", "winner": "S", "cluster_size": 9}, "geometry": {"type": "Point", "coordinates": [-12.402885885186768, -24.516979460600357]}}, {"type": "Feature", "properties": {"ID": "1319", "Country": "Brazil", "Basin_Sub_": "Rio do Peixe", "Group": "Rio do Peixe", "Formation": "Antenor Navarro", "Member": null, "Well name/ outcrop": "S?io Saco", "Latitude": "-6.56", "Longitude": "-38.571056", "Dating evidence": "Biostratigraphy: ostracods and palinomorphs", "REF(Authors, Year)": "C?doba et al., 2008", "Show_on_Ma": "140", "Lithology, structures, paleowind": null, "Paleoenvironment": null, "REF (Authors, Year)": "Ribeiro, 2020", "Fossil occurrences": null, "REF (Authors, Year)_1": null, "Geochemistry data": null, "REF (Authors, Year)_2": null, "Sediment-based climate inference (hot/cold, humid/semi-arid/desert)": "Arid, dry", "Fossil-based climate inference (hot/cold, humid/semi-arid/desert)": null, "Geochemistry-based climate inference  (hot/cold, humid/semi-arid/desert)": null, "Climate assignment leading evidence": "presence of carbonate facies as suggesting an hypersaline context and saturated under an arid climate, corroborated by the presence of braided fluvial system with unstable margins due to poorly developed soil and sparse vegetation. The presence of linsen heterolothic structures indicates tide action in the area.", "Climate_Cl": "D", "Weight": "1", "PlateID": "201", "Sediment-based climate inference (hot/cold, humid/S/desert)": null, "Fossil-based climate inference (hot/cold, humid/S/desert)": null, "Geochemistry-based climate inference  (hot/cold, humid/S/desert)": null, "PaleozonaCodigo": null, "layer": "140.00Ma_point", "path": "C:/Users/Leonardo Bachi/OneDrive/Desktop/ITT_OCEANEON/20_SETEMBRO_TABELA_FINAL/PONTOS_RETIFICADOS/140.00Ma.geojson", "winner": "S", "cluster_size": 9}, "geometry": {"type": "Point", "coordinates": [-12.50410876400486, -24.32936930343933]}}, {"type": "Feature", "properties": {"ID": "2515", "Country": "Republic of Congo", "Basin_Sub_": "Congo", "Group": "N/A", "Formation": "Vandji ", "Member": "N/A", "Well name/ outcrop": "Viodo wells", "Latitude": "-4.838", "Longitude": "11.6", "Dating evidence": "biostratigraphy (ostracods)", "REF(Authors, Year)": "Grosdidier et al., 1996", "Show_on_Ma": "140", "Lithology, structures, paleowind": "Quartzose sandstone light-gray, feldspatic and conglomeratic.", "Paleoenvironment": "Continental:  alluvial to fluvial", "REF (Authors, Year)": "Nombo-Makaya & Han, 2009", "Fossil occurrences": "ostracods", "REF (Authors, Year)_1": "Grosdidier et al., 1996", "Geochemistry data": "N/A", "REF (Authors, Year)_2": "N/A", "Sediment-based climate inference (hot/cold, humid/semi-arid/desert)": "S", "Fossil-based climate inference (hot/cold, humid/semi-arid/desert)": "N/A", "Geochemistry-based climate inference  (hot/cold, humid/semi-arid/desert)": "N/A", "Climate assignment leading evidence": "feldspatic conglomerate", "Climate_Cl": "S", "Weight": "1", "PlateID": "701", "Sediment-based climate inference (hot/cold, humid/S/desert)": null, "Fossil-based climate inference (hot/cold, humid/S/desert)": null, "Geochemistry-based climate inference  (hot/cold, humid/S/desert)": null, "PaleozonaCodigo": null, "layer": "140.00Ma_point", "path": "C:/Users/Leonardo Bachi/OneDrive/Desktop/ITT_OCEANEON/20_SETEMBRO_TABELA_FINAL/PONTOS_RETIFICADOS/140.00Ma.geojson", "winner": "H", "cluster_size": 3}, "geometry": {"type": "Point", "coordinates": [-11.853040513311583, -34.008654831277916]}}, {"type": "Feature", "properties": {"ID": "887", "Country": "Brazil", "Basin_Sub_": "Jatobá/Santo Amaro", "Group": "Itaparica", "Formation": "N/A", "Member": null, "Well name/ outcrop": "N/A", "Latitude": "-9.16", "Longitude": "-37.75", "Dating evidence": "Biostratigraphy: ostracods ", "REF(Authors, Year)": "Costa et al., 2007", "Show_on_Ma": "140", "Lithology, structures, paleowind": "Brown to gray shales", "Paleoenvironment": "Continental: lacustrine", "REF (Authors, Year)": "Costa et al., 2007", "Fossil occurrences": "N/A", "REF (Authors, Year)_1": "N/A", "Geochemistry data": "N/A", "REF (Authors, Year)_2": "N/A", "Sediment-based climate inference (hot/cold, humid/semi-arid/desert)": "N/A", "Fossil-based climate inference (hot/cold, humid/semi-arid/desert)": "N/A", "Geochemistry-based climate inference  (hot/cold, humid/semi-arid/desert)": "N/A", "Climate assignment leading evidence": "Perennial lacustrine deposits", "Climate_Cl": "H", "Weight": "3", "PlateID": "201", "Sediment-based climate inference (hot/cold, humid/S/desert)": null, "Fossil-based climate inference (hot/cold, humid/S/desert)": null, "Geochemistry-based climate inference  (hot/cold, humid/S/desert)": null, "PaleozonaCodigo": null, "layer": "140.00Ma_point", "path": "C:/Users/Leonardo Bachi/OneDrive/Desktop/ITT_OCEANEON/20_SETEMBRO_TABELA_FINAL/PONTOS_RETIFICADOS/140.00Ma.geojson", "winner": "S", "cluster_size": 4}, "geometry": {"type": "Point", "coordinates": [-11.51853861183822, -26.904608854016114]}}, {"type": "Feature", "properties": {"ID": "1288", "Country": "Brazil", "Basin_Sub_": "Recôncavo", "Group": "Santo Amaro", "Formation": "Salvador", "Member": "N/A", "Well name/ outcrop": "N/A", "Latitude": "-12.5", "Longitude": "-38.5", "Dating evidence": "Biostratigraphy: ostracods and palinomorphs", "REF(Authors, Year)": "Silva et al., 2007", "Show_on_Ma": "140", "Lithology, structures, paleowind": "Conglomerates", "Paleoenvironment": "Continental: alluvial fans", "REF (Authors, Year)": "Silva et al., 2007", "Fossil occurrences": "N/A", "REF (Authors, Year)_1": "N/A", "Geochemistry data": "N/A", "REF (Authors, Year)_2": "N/A", "Sediment-based climate inference (hot/cold, humid/semi-arid/desert)": "N/A", "Fossil-based climate inference (hot/cold, humid/semi-arid/desert)": "N/A", "Geochemistry-based climate inference  (hot/cold, humid/semi-arid/desert)": "N/A", "Climate assignment leading evidence": "Alluvial fans deposits.", "Climate_Cl": "S", "Weight": "2", "PlateID": "201", "Sediment-based climate inference (hot/cold, humid/S/desert)": null, "Fossil-based climate inference (hot/cold, humid/S/desert)": null, "Geochemistry-based climate inference  (hot/cold, humid/S/desert)": null, "PaleozonaCodigo": null, "layer": "140.00Ma_point", "path": "C:/Users/Leonardo Bachi/OneDrive/Desktop/ITT_OCEANEON/20_SETEMBRO_TABELA_FINAL/PONTOS_RETIFICADOS/140.00Ma.geojson", "winner": "H", "cluster_size": 11}, "geometry": {"type": "Point", "coordinates": [-12.242737333594114, -30.26524714251498]}}, {"type": "Feature", "properties": {"ID": "1295", "Country": "Brazil", "Basin_Sub_": "Recôncavo", "Group": "Santo Amaro", "Formation": "?ua Grande", "Member": "N/A", "Well name/ outcrop": "N/A", "Latitude": "-12.5", "Longitude": "-38.5", "Dating evidence": "Biostratigraphy: ostracods and palinomorphs", "REF(Authors, Year)": "Silva et al., 2007", "Show_on_Ma": "140", "Lithology, structures, paleowind": "Sandstones", "Paleoenvironment": "Continental: fluvial, eolian", "REF (Authors, Year)": "Silva et al., 2007", "Fossil occurrences": "N/A", "REF (Authors, Year)_1": "N/A", "Geochemistry data": "N/A", "REF (Authors, Year)_2": "N/A", "Sediment-based climate inference (hot/cold, humid/semi-arid/desert)": "N/A", "Fossil-based climate inference (hot/cold, humid/semi-arid/desert)": "N/A", "Geochemistry-based climate inference  (hot/cold, humid/semi-arid/desert)": "N/A", "Climate assignment leading evidence": "Fluvial and eolian deposits.", "Climate_Cl": "S", "Weight": "3", "PlateID": "201", "Sediment-based climate inference (hot/cold, humid/S/desert)": null, "Fossil-based climate inference (hot/cold, humid/S/desert)": null, "Geochemistry-based climate inference  (hot/cold, humid/S/desert)": null, "PaleozonaCodigo": null, "layer": "140.00Ma_point", "path": "C:/Users/Leonardo Bachi/OneDrive/Desktop/ITT_OCEANEON/20_SETEMBRO_TABELA_FINAL/PONTOS_RETIFICADOS/140.00Ma.geojson", "winner": "H", "cluster_size": 11}, "geometry": {"type": "Point", "coordinates": [-12.242737333594114, -30.26524714251498]}}, {"type": "Feature", "properties": {"ID": "1306", "Country": "Brazil", "Basin_Sub_": "Recôncavo", "Group": "Santo Amaro", "Formation": "?ua Grande", "Member": "N/A", "Well name/ outcrop": "N/A", "Latitude": "-12.5", "Longitude": "-38.5", "Dating evidence": "Biostratigraphy: ostracods ", "REF(Authors, Year)": "Viana, 1971", "Show_on_Ma": "140", "Lithology, structures, paleowind": "Fine to coarse sandstones with channeled cross-stratification", "Paleoenvironment": "Continental: fluvial", "REF (Authors, Year)": "Brand? et al., 2015", "Fossil occurrences": "N/A", "REF (Authors, Year)_1": "N/A", "Geochemistry data": "N/A", "REF (Authors, Year)_2": "N/A", "Sediment-based climate inference (hot/cold, humid/semi-arid/desert)": "N/A", "Fossil-based climate inference (hot/cold, humid/semi-arid/desert)": "N/A", "Geochemistry-based climate inference  (hot/cold, humid/semi-arid/desert)": "N/A", "Climate assignment leading evidence": "Fluvial deposits", "Climate_Cl": "S", "Weight": "2", "PlateID": "201", "Sediment-based climate inference (hot/cold, humid/S/desert)": null, "Fossil-based climate inference (hot/cold, humid/S/desert)": null, "Geochemistry-based climate inference  (hot/cold, humid/S/desert)": null, "PaleozonaCodigo": null, "layer": "140.00Ma_point", "path": "C:/Users/Leonardo Bachi/OneDrive/Desktop/ITT_OCEANEON/20_SETEMBRO_TABELA_FINAL/PONTOS_RETIFICADOS/140.00Ma.geojson", "winner": "H", "cluster_size": 11}, "geometry": {"type": "Point", "coordinates": [-12.242737333594114, -30.26524714251498]}}, {"type": "Feature", "properties": {"ID": "1313", "Country": "Brazil", "Basin_Sub_": "Recôncavo", "Group": "Santo Amaro", "Formation": "?ua Grande", "Member": "N/A", "Well name/ outcrop": "N/A", "Latitude": "-12.5", "Longitude": "-38.5", "Dating evidence": "Stratigraphic relationships", "REF(Authors, Year)": "Silva et al. 2007", "Show_on_Ma": "140", "Lithology, structures, paleowind": "Sandstones", "Paleoenvironment": "Fluvial-eolian/lacustrine", "REF (Authors, Year)": "Caixeta et al. 2007", "Fossil occurrences": "N/A", "REF (Authors, Year)_1": "N/A", "Geochemistry data": "N/A", "REF (Authors, Year)_2": "N/A", "Sediment-based climate inference (hot/cold, humid/semi-arid/desert)": "Humid?", "Fossil-based climate inference (hot/cold, humid/semi-arid/desert)": "N/A", "Geochemistry-based climate inference  (hot/cold, humid/semi-arid/desert)": "N/A", "Climate assignment leading evidence": "eolian", "Climate_Cl": "S", "Weight": "2", "PlateID": "201", "Sediment-based climate inference (hot/cold, humid/S/desert)": null, "Fossil-based climate inference (hot/cold, humid/S/desert)": null, "Geochemistry-based climate inference  (hot/cold, humid/S/desert)": null, "PaleozonaCodigo": null, "layer": "140.00Ma_point", "path": "C:/Users/Leonardo Bachi/OneDrive/Desktop/ITT_OCEANEON/20_SETEMBRO_TABELA_FINAL/PONTOS_RETIFICADOS/140.00Ma.geojson", "winner": "H", "cluster_size": 11}, "geometry": {"type": "Point", "coordinates": [-12.242737333594114, -30.26524714251498]}}]}