{"type": "FeatureCollection", "features": [{"type": "Feature", "properties": {"Climate_Cl": "S", "votes": 1, "cluster_size": 1, "tie": false, "status": "majority", "member_ids": "23"}, "geometry": {"type": "Point", "coordinates": [-1.240989437624066, 6.067843418131963]}}, {"type": "Feature", "properties": {"Climate_Cl": "S", "votes": 3, "cluster_size": 4, "tie": false, "status": "majority", "member_ids": "474,475,476,667"}, "geometry": {"type": "Point", "coordinates": [-12.95090903972688, -31.29629536065941]}}, {"type": "Feature", "properties": {"Climate_Cl": "H", "votes": 6, "cluster_size": 11, "tie": false, "status": "majority", "member_ids": "533,534,572,574,575,576,577,578,579,580,581"}, "geometry": {"type": "Point", "coordinates": [-13.851403025506176, -24.79627671426759]}}, {"type": "Feature", "properties": {"Climate_Cl": "H", "votes": 1, "cluster_size": 1, "tie": false, "status": "majority", "member_ids": "535"}, "geometry": {"type": "Point", "coordinates": [-14.959219329705578, -24.83680049130216]}}, {"type": "Feature", "properties": {"Climate_Cl": "S", "votes": 1, "cluster_size": 1, "tie": false, "status": "majority", "member_ids": "573"}, "geometry": {"type": "Point", "coordinates": [-13.60580473205863, -25.03444874490836]}}, {"type": "Feature", "properties": {"Climate_Cl": "S", "votes": 1, "cluster_size": 1, "tie": false, "status": "majority", "member_ids": "752"}, "geometry": {"type": "Point", "coordinates": [-12.787489775302625, -34.46332482532769]}}, {"type": "Feature", "properties": {"Climate_Cl": "D", "votes": 1, "cluster_size": 1, "tie": false, "status": "majority", "member_ids": "888"}, "geometry": {"type": "Point", "coordinates": [-12.34539473370602, -26.59860748260468]}}, {"type": "Feature", "properties": {"Climate_Cl": "S", "votes": 1, "cluster_size": 2, "tie": true, "status": "tie", "member_ids": "889,890"}, "geometry": {"type": "Point", "coordinates": [-12.72000329819748, -26.393168763363036]}}, {"type": "Feature", "properties": {"Climate_Cl": "D", "votes": 1, "cluster_size": 2, "tie": true, "status": "tie", "member_ids": "889,890"}, "geometry": {"type": "Point", "coordinates": [-12.72000329819748, -26.393168763363036]}}, {"type": "Feature", "properties": {"Climate_Cl": "S", "votes": 2, "cluster_size": 4, "tie": true, "status": "tie", "member_ids": "891,892,893,894"}, "geometry": {"type": "Point", "coordinates": [-12.135208788982611, -25.95935985832085]}}, {"type": "Feature", "properties": {"Climate_Cl": "D", "votes": 2, "cluster_size": 4, "tie": true, "status": "tie", "member_ids": "891,892,893,894"}, "geometry": {"type": "Point", "coordinates": [-12.135208788982611, -25.95935985832085]}}, {"type": "Feature", "properties": {"Climate_Cl": "D", "votes": 2, "cluster_size": 2, "tie": false, "status": "majority", "member_ids": "1048,2967"}, "geometry": {"type": "Point", "coordinates": [-32.65069193218451, -47.02329003123556]}}, {"type": "Feature", "properties": {"Climate_Cl": "D", "votes": 2, "cluster_size": 2, "tie": false, "status": "majority", "member_ids": "1049,2968"}, "geometry": {"type": "Point", "coordinates": [-33.01503359381969, -47.56473036894466]}}, {"type": "Feature", "properties": {"Climate_Cl": "S", "votes": 4, "cluster_size": 7, "tie": false, "status": "majority", "member_ids": "1296,1302,1303,1304,1315,1316,1317"}, "geometry": {"type": "Point", "coordinates": [-13.016190448926407, -29.967481979299993]}}, {"type": "Feature", "properties": {"Climate_Cl": "S", "votes": 1, "cluster_size": 1, "tie": false, "status": "majority", "member_ids": "2203"}, "geometry": {"type": "Point", "coordinates": [-12.058069929901254, 5.984428278295788]}}, {"type": "Feature", "properties": {"Climate_Cl": "S", "votes": 1, "cluster_size": 1, "tie": false, "status": "majority", "member_ids": "2270"}, "geometry": {"type": "Point", "coordinates": [-5.416221267644254, -13.050388473617666]}}, {"type": "Feature", "properties": {"Climate_Cl": "S", "votes": 1, "cluster_size": 1, "tie": false, "status": "majority", "member_ids": "2514"}, "geometry": {"type": "Point", "coordinates": [-12.824607788490496, -33.541887004858545]}}, {"type": "Feature", "properties": {"Climate_Cl": "S", "votes": 1, "cluster_size": 2, "tie": true, "status": "tie", "member_ids": "2633,2634"}, "geometry": {"type": "Point", "coordinates": [-29.05298189420197, -4.641676350260761]}}, {"type": "Feature", "properties": {"Climate_Cl": "D", "votes": 1, "cluster_size": 2, "tie": true, "status": "tie", "member_ids": "2633,2634"}, "geometry": {"type": "Point", "coordinates": [-29.05298189420197, -4.641676350260761]}}]}