{"type": "FeatureCollection", "features": [{"type": "Feature", "properties": {"ANCHOR": 0, "TIME": 145.0, "FILE1": "145_BRUTO.geojson", "RECONFILE1": "Zahirovic_etal_2022_OptimisedMantleRef_and_NNRMantleRef.rot", "ID": 475, "Country": "Brazil", "Basin_Sub_": "Camamu", "Group": "Brotas", "Formation": "Alian?", "Member": "Capianga", "Well name/ outcrop": "N/A", "Latitude": -13.83, "Longitude": -38.5, "Dating evidence": "Stratigraphic relationships", "REF(Authors, Year)": "Caixeta et al., 2007; Silva et al. 2012", "Show_on_Ma": 145, "Lithology, structures, paleowind": "Reddish pelite with carbonate nodules", "Paleoenvironment": "Fluvial-lacustrine", "REF (Authors, Year)": "Silva et al. 2012", "Fossil occurrences": "N/A", "REF (Authors, Year)_1": "N/A", "Geochemistry data": "Major elements and all trace elements", "REF (Authors, Year)_2": "Silva et al. 2012", "Sediment-based climate inference (hot/cold, humid/semi-arid/desert)": "N/A", "Fossil-based climate inference (hot/cold, humid/semi-arid/desert)": "N/A", "Geochemistry-based climate inference  (hot/cold, humid/semi-arid/desert)": "Humid", "Climate assignment leading evidence": "High chemical index of alteration are associated with humid tropical or temperate climates with heavy rainfall.", "Climate_Cl": "H", "Weight": 4, "PlateID": 201, "winner": "S", "cluster_size": 4}, "geometry": {"type": "Point", "coordinates": [-12.95090903972688, -31.29629536065941]}}, {"type": "Feature", "properties": {"ANCHOR": 0, "TIME": 145.0, "FILE1": "145_BRUTO.geojson", "RECONFILE1": "Zahirovic_etal_2022_OptimisedMantleRef_and_NNRMantleRef.rot", "ID": 533, "Country": "Brazil", "Basin_Sub_": "Araripe", "Group": "Juazeiro do Norte", "Formation": "Brejo Santo", "Member": "N/A", "Well name/ outcrop": "Scherer et al 2014 log 2", "Latitude": -7.27, "Longitude": -39.03, "Dating evidence": "Biostratigraphy: non marine ostracods (Bisulcocypris pricei P & S and Darwinula oblonga ROEMER)", "REF(Authors, Year)": "Braun, 1966; Assine, 1992; Coimbra et al., 2002; Barros, 2010; Barros et al., 2011; and Fambrini et al., 2012b; 2013b", "Show_on_Ma": 145, "Lithology, structures, paleowind": "Fine to medium grained stratified sandstones grading into reddish tabular mudstones. Unimodal paleocurrents towards SE.", "Paleoenvironment": "Distal alluvial plains with sheetflood", "REF (Authors, Year)": "Scherer et al 2014", "Fossil occurrences": "N/A", "REF (Authors, Year)_1": "N/A", "Geochemistry data": "N/A", "REF (Authors, Year)_2": "N/A", "Sediment-based climate inference (hot/cold, humid/semi-arid/desert)": "Arid to semi-arid", "Fossil-based climate inference (hot/cold, humid/semi-arid/desert)": "N/A", "Geochemistry-based climate inference  (hot/cold, humid/semi-arid/desert)": "N/A", "Climate assignment leading evidence": "Paleoenvironment: Distal alluvial plains with sheetflood deposits", "Climate_Cl": "S", "Weight": 1, "PlateID": 201, "winner": "H", "cluster_size": 11}, "geometry": {"type": "Point", "coordinates": [-13.83590162581079, -24.76209879742967]}}, {"type": "Feature", "properties": {"ANCHOR": 0, "TIME": 145.0, "FILE1": "145_BRUTO.geojson", "RECONFILE1": "Zahirovic_etal_2022_OptimisedMantleRef_and_NNRMantleRef.rot", "ID": 534, "Country": "Brazil", "Basin_Sub_": "Araripe", "Group": "Juazeiro do Norte", "Formation": "Brejo Santo", "Member": "N/A", "Well name/ outcrop": "Scherer et al 2014 log 3", "Latitude": -7.35, "Longitude": -39.03, "Dating evidence": "Biostratigraphy: non marine ostracods (Bisulcocypris pricei P & S and Darwinula oblonga ROEMER)", "REF(Authors, Year)": "Braun, 1966; Assine, 1992; Coimbra et al., 2002; Barros, 2010; Barros et al., 2011; and Fambrini et al., 2012b; 2013b", "Show_on_Ma": 145, "Lithology, structures, paleowind": "Fine to medium grained stratified sandstones grading into reddish tabular mudstones, with thicker mudstone beds towards the top", "Paleoenvironment": "Distal alluvial plains with sheetflood", "REF (Authors, Year)": "Scherer et al 2014", "Fossil occurrences": "N/A", "REF (Authors, Year)_1": "N/A", "Geochemistry data": "N/A", "REF (Authors, Year)_2": "N/A", "Sediment-based climate inference (hot/cold, humid/semi-arid/desert)": "Arid to semi-arid", "Fossil-based climate inference (hot/cold, humid/semi-arid/desert)": "N/A", "Geochemistry-based climate inference  (hot/cold, humid/semi-arid/desert)": "N/A", "Climate assignment leading evidence": "Paleoenvironment: Distal alluvial plains with sheetflood deposits", "Climate_Cl": "S", "Weight": 1, "PlateID": 201, "winner": "H", "cluster_size": 11}, "geometry": {"type": "Point", "coordinates": [-13.832643685334824, -24.842044113597048]}}, {"type": "Feature", "properties": {"ANCHOR": 0, "TIME": 145.0, "FILE1": "145_BRUTO.geojson", "RECONFILE1": "Zahirovic_etal_2022_OptimisedMantleRef_and_NNRMantleRef.rot", "ID": 572, "Country": "Brazil", "Basin_Sub_": "Araripe", "Group": "Juazeiro do Norte", "Formation": "Miss? Velha", "Member": "N/A", "Well name/ outcrop": "Geoss?io Floresta Petrificada do Cariri", "Latitude": -7.26, "Longitude": -39.08, "Dating evidence": "Biostratigraphy: Lacustrine ostracods - Bisulcocypris, Metacypris, B. Pricei, Darwinula cf., D. Oblonga (Roemer); palynomorphs - Dicheiropollis sp. Biozone, Vitreisporites pallidus, Leptolepidites, Verrucosisporites, Cicatricosisporites", "REF(Authors, Year)": "Arai et al., 2001; Coimbra et al., 2002;Arai, 2006", "Show_on_Ma": 145, "Lithology, structures, paleowind": "White-ish friable sandstones", "Paleoenvironment": "Alluvial plains of braided rivers with shallow and amalgamated channels dominating over sparse flooding plains, in a context of low accommodation rates", "REF (Authors, Year)": "Concei?o et al., 2025", "Fossil occurrences": "Metapodocarpoxylon brasiliense; Agathoxylon mendezii", "REF (Authors, Year)_1": "Concei?o et al., 2025", "Geochemistry data": "N/A", "REF (Authors, Year)_2": "N/A", "Sediment-based climate inference (hot/cold, humid/semi-arid/desert)": "Semi-arid? Intercalated wet and dry season (monsoonal)", "Fossil-based climate inference (hot/cold, humid/semi-arid/desert)": "Humid to semi-arid; intercalated wet and dry season (monsoonal)", "Geochemistry-based climate inference  (hot/cold, humid/semi-arid/desert)": "N/A", "Climate assignment leading evidence": "Fossil wood growth rings", "Climate_Cl": "S", "Weight": 3, "PlateID": 201, "winner": "H", "cluster_size": 11}, "geometry": {"type": "Point", "coordinates": [-13.890888884953403, -24.753931316299486]}}, {"type": "Feature", "properties": {"ANCHOR": 0, "TIME": 145.0, "FILE1": "145_BRUTO.geojson", "RECONFILE1": "Zahirovic_etal_2022_OptimisedMantleRef_and_NNRMantleRef.rot", "ID": 574, "Country": "Brazil", "Basin_Sub_": "Araripe", "Group": "Juazeiro do Norte", "Formation": "Miss? Velha", "Member": "Upper (informal)", "Well name/ outcrop": "Geoss?io Floresta Petrificada do Cariri", "Latitude": -7.26, "Longitude": -39.08, "Dating evidence": "Biostratigraphy: Lacustrine ostracods - Bisulcocypris, Metacypris, B. Pricei, Darwinula cf., D. Oblonga (Roemer); palynomorphs - Dicheiropollis sp. Biozone, Vitreisporites pallidus, Leptolepidites, Verrucosisporites, Cicatricosisporites", "REF(Authors, Year)": "Arai et al., 2001; Coimbra et al., 2002;Arai, 2006", "Show_on_Ma": 145, "Lithology, structures, paleowind": "White-ish friable sandstones", "Paleoenvironment": "Alluvial plains of braided rivers with shallow and amalgamated channels dominating over sparse flooding plains, in a context of low accommodation rates", "REF (Authors, Year)": "Concei?o et al., 2025", "Fossil occurrences": "N/A", "REF (Authors, Year)_1": "N/A", "Geochemistry data": "N/A", "REF (Authors, Year)_2": "N/A", "Sediment-based climate inference (hot/cold, humid/semi-arid/desert)": "Semi-arid? Intercalated wet and dry season (monsoonal)", "Fossil-based climate inference (hot/cold, humid/semi-arid/desert)": "Humid to semi-arid; intercalated wet and dry season (monsoonal)", "Geochemistry-based climate inference  (hot/cold, humid/semi-arid/desert)": "N/A", "Climate assignment leading evidence": null, "Climate_Cl": "S", "Weight": 4, "PlateID": 201, "winner": "H", "cluster_size": 11}, "geometry": {"type": "Point", "coordinates": [-13.890888884953403, -24.753931316299486]}}, {"type": "Feature", "properties": {"ANCHOR": 0, "TIME": 145.0, "FILE1": "145_BRUTO.geojson", "RECONFILE1": "Zahirovic_etal_2022_OptimisedMantleRef_and_NNRMantleRef.rot", "ID": 575, "Country": "Brazil", "Basin_Sub_": "Araripe", "Group": "Juazeiro do Norte", "Formation": "Miss? Velha", "Member": "Lower (informal)", "Well name/ outcrop": "Geoss?io Floresta Petrificada do Cariri", "Latitude": -7.26, "Longitude": -39.08, "Dating evidence": "Biostratigraphy: Lacustrine ostracods - Bisulcocypris, Metacypris, B. Pricei, Darwinula cf., D. Oblonga (Roemer); palynomorphs - Dicheiropollis sp. Biozone, Vitreisporites pallidus, Leptolepidites, Verrucosisporites, Cicatricosisporites", "REF(Authors, Year)": "Arai et al., 2001; Coimbra et al., 2002;Arai, 2006", "Show_on_Ma": 145, "Lithology, structures, paleowind": "Red siltstones intercalated with sandstones; sandstone burrow casts attributed to lungfish", "Paleoenvironment": "Alluvial plains, braided fluvial channels, ", "REF (Authors, Year)": "Barreto J?ior and Fambrini, 2022", "Fossil occurrences": "Lungfish", "REF (Authors, Year)_1": "Barreto J?ior and Fambrini, 2022", "Geochemistry data": "N/A", "REF (Authors, Year)_2": "N/A", "Sediment-based climate inference (hot/cold, humid/semi-arid/desert)": "Semi-arid? Intercalated wet and dry season (monsoonal)", "Fossil-based climate inference (hot/cold, humid/semi-arid/desert)": "Humid to semi-arid; intercalated wet and dry season (monsoonal)", "Geochemistry-based climate inference  (hot/cold, humid/semi-arid/desert)": "N/A", "Climate assignment leading evidence": "Sandstone lungfish burrow casts", "Climate_Cl": "S", "Weight": 3, "PlateID": 201, "winner": "H", "cluster_size": 11}, "geometry": {"type": "Point", "coordinates": [-13.890888884953403, -24.753931316299486]}}, {"type": "Feature", "properties": {"ANCHOR": 0, "TIME": 145.0, "FILE1": "145_BRUTO.geojson", "RECONFILE1": "Zahirovic_etal_2022_OptimisedMantleRef_and_NNRMantleRef.rot", "ID": 1296, "Country": "Brazil", "Basin_Sub_": "Recôncavo", "Group": "Santo Amaro", "Formation": "Itaparica", "Member": "N/A", "Well name/ outcrop": "N/A", "Latitude": -12.5, "Longitude": -38.5, "Dating evidence": "Biostratigraphy: ostracods and palinomorphs", "REF(Authors, Year)": "Silva et al., 2007", "Show_on_Ma": 145, "Lithology, structures, paleowind": "Mudstones", "Paleoenvironment": "Continental: lacustrine", "REF (Authors, Year)": "Silva et al., 2007", "Fossil occurrences": "N/A", "REF (Authors, Year)_1": "N/A", "Geochemistry data": "N/A", "REF (Authors, Year)_2": "N/A", "Sediment-based climate inference (hot/cold, humid/semi-arid/desert)": "N/A", "Fossil-based climate inference (hot/cold, humid/semi-arid/desert)": "N/A", "Geochemistry-based climate inference  (hot/cold, humid/semi-arid/desert)": "N/A", "Climate assignment leading evidence": "Perennial lacustrine deposits", "Climate_Cl": "H", "Weight": 6, "PlateID": 201, "winner": "S", "cluster_size": 7}, "geometry": {"type": "Point", "coordinates": [-13.016190448926407, -29.96748197929999]}}, {"type": "Feature", "properties": {"ANCHOR": 0, "TIME": 145.0, "FILE1": "145_BRUTO.geojson", "RECONFILE1": "Zahirovic_etal_2022_OptimisedMantleRef_and_NNRMantleRef.rot", "ID": 1303, "Country": "Brazil", "Basin_Sub_": "Recôncavo", "Group": "Brotas", "Formation": "Alian?", "Member": "Capianga", "Well name/ outcrop": "N/A", "Latitude": -12.5, "Longitude": -38.5, "Dating evidence": "Biostratigraphy: ostracods ", "REF(Authors, Year)": "Viana, 1971", "Show_on_Ma": 145, "Lithology, structures, paleowind": "Red shales", "Paleoenvironment": "Continental: lacustrine", "REF (Authors, Year)": "Brand? et al., 2015", "Fossil occurrences": "N/A", "REF (Authors, Year)_1": "N/A", "Geochemistry data": "N/A", "REF (Authors, Year)_2": "N/A", "Sediment-based climate inference (hot/cold, humid/semi-arid/desert)": "N/A", "Fossil-based climate inference (hot/cold, humid/semi-arid/desert)": "N/A", "Geochemistry-based climate inference  (hot/cold, humid/semi-arid/desert)": "N/A", "Climate assignment leading evidence": "Lacustrine deposits", "Climate_Cl": "H", "Weight": 3, "PlateID": 201, "winner": "S", "cluster_size": 7}, "geometry": {"type": "Point", "coordinates": [-13.016190448926407, -29.96748197929999]}}, {"type": "Feature", "properties": {"ANCHOR": 0, "TIME": 145.0, "FILE1": "145_BRUTO.geojson", "RECONFILE1": "Zahirovic_etal_2022_OptimisedMantleRef_and_NNRMantleRef.rot", "ID": 1316, "Country": "Brazil", "Basin_Sub_": "Recôncavo", "Group": "Brotas", "Formation": "Alian?", "Member": "Capianga", "Well name/ outcrop": "N/A", "Latitude": -12.5, "Longitude": -38.5, "Dating evidence": "Stratigraphic relationships", "REF(Authors, Year)": "Silva et al. 2007", "Show_on_Ma": 145, "Lithology, structures, paleowind": "Reddish pelite with carbonate nodules", "Paleoenvironment": "Fluvial-lacustrine", "REF (Authors, Year)": "Silva et al. 2012", "Fossil occurrences": "N/A", "REF (Authors, Year)_1": "N/A", "Geochemistry data": "N/A", "REF (Authors, Year)_2": "N/A", "Sediment-based climate inference (hot/cold, humid/semi-arid/desert)": "Humid?", "Fossil-based climate inference (hot/cold, humid/semi-arid/desert)": "N/A", "Geochemistry-based climate inference  (hot/cold, humid/semi-arid/desert)": "Humid", "Climate assignment leading evidence": "Fluvial-lacustrine", "Climate_Cl": "H", "Weight": 1, "PlateID": 201, "winner": "S", "cluster_size": 7}, "geometry": {"type": "Point", "coordinates": [-13.016190448926407, -29.96748197929999]}}]}