{"type": "FeatureCollection", "features": [{"type": "Feature", "properties": {"Climate_Cl": "S", "votes": 1, "cluster_size": 1, "tie": false, "status": "majority", "member_ids": "50"}, "geometry": {"type": "Point", "coordinates": [-0.678037168195189, 24.27913018878431]}}, {"type": "Feature", "properties": {"Climate_Cl": "S", "votes": 1, "cluster_size": 1, "tie": false, "status": "majority", "member_ids": "124"}, "geometry": {"type": "Point", "coordinates": [-0.859479224899257, 24.683634620904076]}}, {"type": "Feature", "properties": {"Climate_Cl": "S", "votes": 1, "cluster_size": 1, "tie": false, "status": "majority", "member_ids": "180"}, "geometry": {"type": "Point", "coordinates": [1.362787040011553, -20.06897208901648]}}, {"type": "Feature", "properties": {"Climate_Cl": "H", "votes": 2, "cluster_size": 2, "tie": false, "status": "majority", "member_ids": "199,212"}, "geometry": {"type": "Point", "coordinates": [-65.17357589340185, -55.86658424824323]}}, {"type": "Feature", "properties": {"Climate_Cl": "H", "votes": 1, "cluster_size": 1, "tie": false, "status": "majority", "member_ids": "203"}, "geometry": {"type": "Point", "coordinates": [-65.559415505192, -55.96730020392604]}}, {"type": "Feature", "properties": {"Climate_Cl": "H", "votes": 1, "cluster_size": 1, "tie": false, "status": "majority", "member_ids": "241"}, "geometry": {"type": "Point", "coordinates": [-59.07852272074216, -48.70397341760278]}}, {"type": "Feature", "properties": {"Climate_Cl": "H", "votes": 1, "cluster_size": 1, "tie": false, "status": "majority", "member_ids": "243"}, "geometry": {"type": "Point", "coordinates": [-61.605255512906986, -48.29944782457265]}}, {"type": "Feature", "properties": {"Climate_Cl": "H", "votes": 1, "cluster_size": 1, "tie": false, "status": "majority", "member_ids": "306"}, "geometry": {"type": "Point", "coordinates": [-59.09888552232259, -44.5725186281838]}}, {"type": "Feature", "properties": {"Climate_Cl": "S", "votes": 1, "cluster_size": 1, "tie": false, "status": "majority", "member_ids": "335"}, "geometry": {"type": "Point", "coordinates": [-58.74434272290197, -44.690500194390566]}}, {"type": "Feature", "properties": {"Climate_Cl": "D", "votes": 1, "cluster_size": 1, "tie": false, "status": "majority", "member_ids": "345"}, "geometry": {"type": "Point", "coordinates": [-51.5770643150711, -48.14838054093792]}}, {"type": "Feature", "properties": {"Climate_Cl": "H", "votes": 1, "cluster_size": 1, "tie": false, "status": "majority", "member_ids": "388"}, "geometry": {"type": "Point", "coordinates": [-55.43651348284754, -31.09577938998262]}}, {"type": "Feature", "properties": {"Climate_Cl": "H", "votes": 1, "cluster_size": 2, "tie": true, "status": "tie", "member_ids": "392,393"}, "geometry": {"type": "Point", "coordinates": [-55.73516403533924, -29.063714538014775]}}, {"type": "Feature", "properties": {"Climate_Cl": "S", "votes": 1, "cluster_size": 2, "tie": true, "status": "tie", "member_ids": "392,393"}, "geometry": {"type": "Point", "coordinates": [-55.73516403533924, -29.063714538014775]}}, {"type": "Feature", "properties": {"Climate_Cl": "D", "votes": 1, "cluster_size": 1, "tie": false, "status": "majority", "member_ids": "426"}, "geometry": {"type": "Point", "coordinates": [-55.17960121293282, -24.850866325961675]}}, {"type": "Feature", "properties": {"Climate_Cl": "H", "votes": 1, "cluster_size": 1, "tie": false, "status": "majority", "member_ids": "460"}, "geometry": {"type": "Point", "coordinates": [-27.96270195779151, -20.787283888860166]}}, {"type": "Feature", "properties": {"Climate_Cl": "S", "votes": 1, "cluster_size": 1, "tie": false, "status": "majority", "member_ids": "609"}, "geometry": {"type": "Point", "coordinates": [-28.07271845229262, -6.63733976883536]}}, {"type": "Feature", "properties": {"Climate_Cl": "H", "votes": 3, "cluster_size": 3, "tie": false, "status": "majority", "member_ids": "673,683,688"}, "geometry": {"type": "Point", "coordinates": [-28.768803262807456, -29.148741589578318]}}, {"type": "Feature", "properties": {"Climate_Cl": "H", "votes": 1, "cluster_size": 1, "tie": false, "status": "majority", "member_ids": "675"}, "geometry": {"type": "Point", "coordinates": [-28.335380181540685, -28.043127237263278]}}, {"type": "Feature", "properties": {"Climate_Cl": "H", "votes": 1, "cluster_size": 1, "tie": false, "status": "majority", "member_ids": "756"}, "geometry": {"type": "Point", "coordinates": [-28.222115210965775, -26.02740796650303]}}, {"type": "Feature", "properties": {"Climate_Cl": "H", "votes": 1, "cluster_size": 1, "tie": false, "status": "majority", "member_ids": "784"}, "geometry": {"type": "Point", "coordinates": [-37.623961253646804, -3.187543198439633]}}, {"type": "Feature", "properties": {"Climate_Cl": "H", "votes": 1, "cluster_size": 1, "tie": false, "status": "majority", "member_ids": "801"}, "geometry": {"type": "Point", "coordinates": [-39.31053310993784, -1.625616771246747]}}, {"type": "Feature", "properties": {"Climate_Cl": "H", "votes": 1, "cluster_size": 1, "tie": false, "status": "majority", "member_ids": "849"}, "geometry": {"type": "Point", "coordinates": [-26.77639042665499, -18.81915630344649]}}, {"type": "Feature", "properties": {"Climate_Cl": "H", "votes": 1, "cluster_size": 1, "tie": false, "status": "majority", "member_ids": "900"}, "geometry": {"type": "Point", "coordinates": [-26.290728932467637, -21.61154902918082]}}, {"type": "Feature", "properties": {"Climate_Cl": "S", "votes": 1, "cluster_size": 1, "tie": false, "status": "majority", "member_ids": "931"}, "geometry": {"type": "Point", "coordinates": [-39.15707245694731, -8.179791340678506]}}, {"type": "Feature", "properties": {"Climate_Cl": "S", "votes": 1, "cluster_size": 1, "tie": false, "status": "majority", "member_ids": "941"}, "geometry": {"type": "Point", "coordinates": [-28.324719831445186, -24.142568284804142]}}, {"type": "Feature", "properties": {"Climate_Cl": "S", "votes": 4, "cluster_size": 4, "tie": false, "status": "majority", "member_ids": "963,965,969,971"}, "geometry": {"type": "Point", "coordinates": [-34.11457465806934, -6.188902936416999]}}, {"type": "Feature", "properties": {"Climate_Cl": "S", "votes": 1, "cluster_size": 1, "tie": false, "status": "majority", "member_ids": "967"}, "geometry": {"type": "Point", "coordinates": [-35.32441780685857, -4.958043798280126]}}, {"type": "Feature", "properties": {"Climate_Cl": "S", "votes": 1, "cluster_size": 1, "tie": false, "status": "majority", "member_ids": "994"}, "geometry": {"type": "Point", "coordinates": [-36.92569360551162, -25.91372424413948]}}, {"type": "Feature", "properties": {"Climate_Cl": "S", "votes": 1, "cluster_size": 1, "tie": false, "status": "majority", "member_ids": "996"}, "geometry": {"type": "Point", "coordinates": [-39.2007247234961, -28.38497854739999]}}, {"type": "Feature", "properties": {"Climate_Cl": "H", "votes": 2, "cluster_size": 2, "tie": false, "status": "majority", "member_ids": "1105,1115"}, "geometry": {"type": "Point", "coordinates": [-39.3113753224336, -37.758546612451966]}}, {"type": "Feature", "properties": {"Climate_Cl": "H", "votes": 1, "cluster_size": 1, "tie": false, "status": "majority", "member_ids": "1110"}, "geometry": {"type": "Point", "coordinates": [-36.787096914598855, -34.78404495621885]}}, {"type": "Feature", "properties": {"Climate_Cl": "S", "votes": 1, "cluster_size": 1, "tie": false, "status": "majority", "member_ids": "1127"}, "geometry": {"type": "Point", "coordinates": [-28.66576118985526, -35.14810854636884]}}, {"type": "Feature", "properties": {"Climate_Cl": "S", "votes": 2, "cluster_size": 2, "tie": false, "status": "majority", "member_ids": "1139,1141"}, "geometry": {"type": "Point", "coordinates": [-23.10171351349517, -14.546374867292498]}}, {"type": "Feature", "properties": {"Climate_Cl": "S", "votes": 19, "cluster_size": 23, "tie": false, "status": "majority", "member_ids": "1143,1145,1146,1147,1156,1158,1160,1161,1163,1165,1193,1194,1197,1202,1204,1206,1207,1209,1211,1213,1214,1224,1227"}, "geometry": {"type": "Point", "coordinates": [-23.745102366481003, -13.65637152970482]}}, {"type": "Feature", "properties": {"Climate_Cl": "S", "votes": 1, "cluster_size": 1, "tie": false, "status": "majority", "member_ids": "1152"}, "geometry": {"type": "Point", "coordinates": [-23.839948229931764, -14.406450395278885]}}, {"type": "Feature", "properties": {"Climate_Cl": "S", "votes": 3, "cluster_size": 3, "tie": false, "status": "majority", "member_ids": "1175,1181,1187"}, "geometry": {"type": "Point", "coordinates": [-23.134358088589007, -13.206749665269717]}}, {"type": "Feature", "properties": {"Climate_Cl": "S", "votes": 3, "cluster_size": 3, "tie": false, "status": "majority", "member_ids": "1230,1233,1236"}, "geometry": {"type": "Point", "coordinates": [-25.002913332746285, -9.08566633204263]}}, {"type": "Feature", "properties": {"Climate_Cl": "S", "votes": 1, "cluster_size": 1, "tie": false, "status": "majority", "member_ids": "1537"}, "geometry": {"type": "Point", "coordinates": [-33.76479436449775, -31.687948415274857]}}, {"type": "Feature", "properties": {"Climate_Cl": "H", "votes": 2, "cluster_size": 4, "tie": true, "status": "tie", "member_ids": "1581,1582,1611,1612"}, "geometry": {"type": "Point", "coordinates": [-24.322885923327725, -17.073653630147295]}}, {"type": "Feature", "properties": {"Climate_Cl": "S", "votes": 2, "cluster_size": 4, "tie": true, "status": "tie", "member_ids": "1581,1582,1611,1612"}, "geometry": {"type": "Point", "coordinates": [-24.322885923327725, -17.073653630147295]}}, {"type": "Feature", "properties": {"Climate_Cl": "H", "votes": 2, "cluster_size": 2, "tie": false, "status": "majority", "member_ids": "1636,1637"}, "geometry": {"type": "Point", "coordinates": [-54.601797523211516, -10.861549271828967]}}, {"type": "Feature", "properties": {"Climate_Cl": "H", "votes": 1, "cluster_size": 1, "tie": false, "status": "majority", "member_ids": "1638"}, "geometry": {"type": "Point", "coordinates": [-51.559790131200735, -10.958373043082233]}}, {"type": "Feature", "properties": {"Climate_Cl": "H", "votes": 1, "cluster_size": 1, "tie": false, "status": "majority", "member_ids": "1861"}, "geometry": {"type": "Point", "coordinates": [-63.727665806244936, -54.36550155988672]}}, {"type": "Feature", "properties": {"Climate_Cl": "S", "votes": 2, "cluster_size": 2, "tie": false, "status": "majority", "member_ids": "1896,1897"}, "geometry": {"type": "Point", "coordinates": [-60.61606654387368, -34.65014148836627]}}, {"type": "Feature", "properties": {"Climate_Cl": "S", "votes": 2, "cluster_size": 2, "tie": false, "status": "majority", "member_ids": "1906,1907"}, "geometry": {"type": "Point", "coordinates": [-60.89887672905108, -33.63658704396183]}}, {"type": "Feature", "properties": {"Climate_Cl": "H", "votes": 1, "cluster_size": 1, "tie": false, "status": "majority", "member_ids": "1985"}, "geometry": {"type": "Point", "coordinates": [-66.43071898892813, -5.325278670709864]}}, {"type": "Feature", "properties": {"Climate_Cl": "H", "votes": 1, "cluster_size": 1, "tie": false, "status": "majority", "member_ids": "2052"}, "geometry": {"type": "Point", "coordinates": [-9.334988044879344, -4.159397142224701]}}, {"type": "Feature", "properties": {"Climate_Cl": "H", "votes": 1, "cluster_size": 1, "tie": false, "status": "majority", "member_ids": "2082"}, "geometry": {"type": "Point", "coordinates": [-13.509854808398195, -5.826372725062902]}}, {"type": "Feature", "properties": {"Climate_Cl": "S", "votes": 4, "cluster_size": 4, "tie": false, "status": "majority", "member_ids": "2088,2090,2101,2103"}, "geometry": {"type": "Point", "coordinates": [7.069907216113577, 17.82406934656116]}}, {"type": "Feature", "properties": {"Climate_Cl": "S", "votes": 1, "cluster_size": 1, "tie": false, "status": "majority", "member_ids": "2098"}, "geometry": {"type": "Point", "coordinates": [8.549608600307877, 17.246791305028875]}}, {"type": "Feature", "properties": {"Climate_Cl": "H", "votes": 1, "cluster_size": 1, "tie": false, "status": "majority", "member_ids": "2107"}, "geometry": {"type": "Point", "coordinates": [10.973342936411346, 17.63718901181199]}}, {"type": "Feature", "properties": {"Climate_Cl": "S", "votes": 1, "cluster_size": 1, "tie": false, "status": "majority", "member_ids": "2113"}, "geometry": {"type": "Point", "coordinates": [2.957349644673829, 19.165229653137104]}}, {"type": "Feature", "properties": {"Climate_Cl": "S", "votes": 1, "cluster_size": 1, "tie": false, "status": "majority", "member_ids": "2115"}, "geometry": {"type": "Point", "coordinates": [21.506218073934527, -1.349104185007326]}}, {"type": "Feature", "properties": {"Climate_Cl": "S", "votes": 1, "cluster_size": 1, "tie": false, "status": "majority", "member_ids": "2233"}, "geometry": {"type": "Point", "coordinates": [-15.068611500927453, 22.280278254327985]}}, {"type": "Feature", "properties": {"Climate_Cl": "S", "votes": 1, "cluster_size": 1, "tie": false, "status": "majority", "member_ids": "2236"}, "geometry": {"type": "Point", "coordinates": [-0.200942524912669, -25.421155002452398]}}, {"type": "Feature", "properties": {"Climate_Cl": "H", "votes": 1, "cluster_size": 1, "tie": false, "status": "majority", "member_ids": "2254"}, "geometry": {"type": "Point", "coordinates": [-3.768397580767648, 4.815854340104995]}}, {"type": "Feature", "properties": {"Climate_Cl": "H", "votes": 1, "cluster_size": 1, "tie": false, "status": "majority", "member_ids": "2333"}, "geometry": {"type": "Point", "coordinates": [-3.946649544459205, -4.016732745033241]}}, {"type": "Feature", "properties": {"Climate_Cl": "H", "votes": 1, "cluster_size": 1, "tie": false, "status": "majority", "member_ids": "2335"}, "geometry": {"type": "Point", "coordinates": [-4.537934430754412, -3.589334492144955]}}, {"type": "Feature", "properties": {"Climate_Cl": "H", "votes": 1, "cluster_size": 1, "tie": false, "status": "majority", "member_ids": "2337"}, "geometry": {"type": "Point", "coordinates": [-2.753917988280307, -5.188546378684179]}}, {"type": "Feature", "properties": {"Climate_Cl": "H", "votes": 6, "cluster_size": 6, "tie": false, "status": "majority", "member_ids": "2361,2362,2363,2371,2373,2375"}, "geometry": {"type": "Point", "coordinates": [-6.235238218410516, -3.582135767280978]}}, {"type": "Feature", "properties": {"Climate_Cl": "H", "votes": 3, "cluster_size": 3, "tie": false, "status": "majority", "member_ids": "2364,2365,2366"}, "geometry": {"type": "Point", "coordinates": [-7.096640191358982, -3.654413162696846]}}, {"type": "Feature", "properties": {"Climate_Cl": "H", "votes": 3, "cluster_size": 3, "tie": false, "status": "majority", "member_ids": "2367,2368,2369"}, "geometry": {"type": "Point", "coordinates": [-6.589800271143047, -3.436142059139113]}}, {"type": "Feature", "properties": {"Climate_Cl": "H", "votes": 9, "cluster_size": 9, "tie": false, "status": "majority", "member_ids": "2378,2380,2382,2383,2384,2385,2387,2389,2391"}, "geometry": {"type": "Point", "coordinates": [-2.3838875980946366, -5.677763151716268]}}, {"type": "Feature", "properties": {"Climate_Cl": "S", "votes": 1, "cluster_size": 1, "tie": false, "status": "majority", "member_ids": "2428"}, "geometry": {"type": "Point", "coordinates": [-66.3503612621248, -15.345029587522268]}}, {"type": "Feature", "properties": {"Climate_Cl": "H", "votes": 1, "cluster_size": 1, "tie": false, "status": "majority", "member_ids": "2444"}, "geometry": {"type": "Point", "coordinates": [-61.232285970272734, -18.603318065952788]}}, {"type": "Feature", "properties": {"Climate_Cl": "S", "votes": 1, "cluster_size": 1, "tie": false, "status": "majority", "member_ids": "2476"}, "geometry": {"type": "Point", "coordinates": [-64.58160196580994, -12.433795328401681]}}, {"type": "Feature", "properties": {"Climate_Cl": "H", "votes": 1, "cluster_size": 1, "tie": false, "status": "majority", "member_ids": "2501"}, "geometry": {"type": "Point", "coordinates": [-0.047730880844642, -15.951820688673939]}}, {"type": "Feature", "properties": {"Climate_Cl": "H", "votes": 1, "cluster_size": 2, "tie": true, "status": "tie", "member_ids": "2532,2627"}, "geometry": {"type": "Point", "coordinates": [-25.716477535719015, 7.3264274315200275]}}, {"type": "Feature", "properties": {"Climate_Cl": "S", "votes": 1, "cluster_size": 2, "tie": true, "status": "tie", "member_ids": "2532,2627"}, "geometry": {"type": "Point", "coordinates": [-25.716477535719015, 7.3264274315200275]}}, {"type": "Feature", "properties": {"Climate_Cl": "H", "votes": 1, "cluster_size": 2, "tie": true, "status": "tie", "member_ids": "2549,2614"}, "geometry": {"type": "Point", "coordinates": [-27.345140734616837, 5.052726252134253]}}, {"type": "Feature", "properties": {"Climate_Cl": "S", "votes": 1, "cluster_size": 2, "tie": true, "status": "tie", "member_ids": "2549,2614"}, "geometry": {"type": "Point", "coordinates": [-27.345140734616837, 5.052726252134253]}}, {"type": "Feature", "properties": {"Climate_Cl": "H", "votes": 1, "cluster_size": 1, "tie": false, "status": "majority", "member_ids": "2566"}, "geometry": {"type": "Point", "coordinates": [-24.793664933540335, 8.720694334969997]}}, {"type": "Feature", "properties": {"Climate_Cl": "S", "votes": 1, "cluster_size": 1, "tie": false, "status": "majority", "member_ids": "2576"}, "geometry": {"type": "Point", "coordinates": [-24.03264129114843, 5.327093580782552]}}, {"type": "Feature", "properties": {"Climate_Cl": "D", "votes": 1, "cluster_size": 1, "tie": false, "status": "majority", "member_ids": "2581"}, "geometry": {"type": "Point", "coordinates": [-25.170455455711167, 7.348995591242097]}}, {"type": "Feature", "properties": {"Climate_Cl": "H", "votes": 1, "cluster_size": 1, "tie": false, "status": "majority", "member_ids": "2632"}, "geometry": {"type": "Point", "coordinates": [-26.2027680633368, 4.941333114072882]}}, {"type": "Feature", "properties": {"Climate_Cl": "S", "votes": 3, "cluster_size": 3, "tie": false, "status": "majority", "member_ids": "2652,2821,2835"}, "geometry": {"type": "Point", "coordinates": [0.5814421709374668, 23.42293443729751]}}, {"type": "Feature", "properties": {"Climate_Cl": "S", "votes": 1, "cluster_size": 1, "tie": false, "status": "majority", "member_ids": "2654"}, "geometry": {"type": "Point", "coordinates": [2.354714467220081, 24.76313910576189]}}, {"type": "Feature", "properties": {"Climate_Cl": "S", "votes": 1, "cluster_size": 1, "tie": false, "status": "majority", "member_ids": "2655"}, "geometry": {"type": "Point", "coordinates": [2.309680465334038, 29.606244649553066]}}, {"type": "Feature", "properties": {"Climate_Cl": "S", "votes": 1, "cluster_size": 1, "tie": false, "status": "majority", "member_ids": "2659"}, "geometry": {"type": "Point", "coordinates": [3.352381941292302, 23.18069658991794]}}, {"type": "Feature", "properties": {"Climate_Cl": "S", "votes": 3, "cluster_size": 3, "tie": false, "status": "majority", "member_ids": "2765,2820,2834"}, "geometry": {"type": "Point", "coordinates": [1.6914685946206787, 23.16059325786659]}}, {"type": "Feature", "properties": {"Climate_Cl": "S", "votes": 1, "cluster_size": 1, "tie": false, "status": "majority", "member_ids": "2833"}, "geometry": {"type": "Point", "coordinates": [0.853462214824434, 23.152112816361818]}}, {"type": "Feature", "properties": {"Climate_Cl": "H", "votes": 2, "cluster_size": 3, "tie": false, "status": "majority", "member_ids": "2836,2881,2882"}, "geometry": {"type": "Point", "coordinates": [1.4941270442442616, 25.081870297164716]}}, {"type": "Feature", "properties": {"Climate_Cl": "S", "votes": 2, "cluster_size": 3, "tie": false, "status": "majority", "member_ids": "2837,2838,2883"}, "geometry": {"type": "Point", "coordinates": [2.05201126166425, 25.84003301266007]}}, {"type": "Feature", "properties": {"Climate_Cl": "H", "votes": 1, "cluster_size": 1, "tie": false, "status": "majority", "member_ids": "2877"}, "geometry": {"type": "Point", "coordinates": [2.682833006034856, 25.397746294762317]}}, {"type": "Feature", "properties": {"Climate_Cl": "H", "votes": 1, "cluster_size": 1, "tie": false, "status": "majority", "member_ids": "2880"}, "geometry": {"type": "Point", "coordinates": [1.813365196005302, 24.852835703593065]}}, {"type": "Feature", "properties": {"Climate_Cl": "H", "votes": 1, "cluster_size": 1, "tie": false, "status": "majority", "member_ids": "2973"}, "geometry": {"type": "Point", "coordinates": [-47.98471874649681, -39.05951511916541]}}, {"type": "Feature", "properties": {"Climate_Cl": "H", "votes": 1, "cluster_size": 1, "tie": false, "status": "majority", "member_ids": "3008"}, "geometry": {"type": "Point", "coordinates": [-58.88473523569514, 2.714541254522513]}}, {"type": "Feature", "properties": {"Climate_Cl": "H", "votes": 1, "cluster_size": 1, "tie": false, "status": "majority", "member_ids": "3009"}, "geometry": {"type": "Point", "coordinates": [-59.46846743965027, 1.817030952975531]}}, {"type": "Feature", "properties": {"Climate_Cl": "H", "votes": 2, "cluster_size": 2, "tie": false, "status": "majority", "member_ids": "3062,3073"}, "geometry": {"type": "Point", "coordinates": [-52.55190661417359, 3.799678427295913]}}, {"type": "Feature", "properties": {"Climate_Cl": "H", "votes": 1, "cluster_size": 1, "tie": false, "status": "majority", "member_ids": "3072"}, "geometry": {"type": "Point", "coordinates": [-51.964784156226294, 3.706328837188904]}}, {"type": "Feature", "properties": {"Climate_Cl": "H", "votes": 2, "cluster_size": 2, "tie": false, "status": "majority", "member_ids": "3103,3159"}, "geometry": {"type": "Point", "coordinates": [-63.080892207896596, 1.668042756931364]}}, {"type": "Feature", "properties": {"Climate_Cl": "H", "votes": 1, "cluster_size": 1, "tie": false, "status": "majority", "member_ids": "3104"}, "geometry": {"type": "Point", "coordinates": [-62.53406826393175, 0.724387200370962]}}, {"type": "Feature", "properties": {"Climate_Cl": "H", "votes": 1, "cluster_size": 1, "tie": false, "status": "majority", "member_ids": "3105"}, "geometry": {"type": "Point", "coordinates": [-61.510462158466964, 1.850867841608259]}}, {"type": "Feature", "properties": {"Climate_Cl": "H", "votes": 2, "cluster_size": 2, "tie": false, "status": "majority", "member_ids": "3111,3158"}, "geometry": {"type": "Point", "coordinates": [-62.66312647729087, 2.722813828225659]}}]}