{"type": "FeatureCollection", "features": [{"type": "Feature", "properties": {"ID": "1165", "Country": "Brazil", "Basin_Sub_": "Pernambuco-Paraíba", "Group": "N/A", "Formation": "Gramame", "Member": "N/A", "Well name/ outcrop": "CIPASA Quarry", "Latitude": "-7.530297", "Longitude": "-34.922447", "Dating evidence": "Calcareous nannofossils (Zones CC25A, CC25B, and CC25C), Foraminifera (Gansserina gansseri Zone)", "REF(Authors, Year)": "Lima and Koutsoukos, 2006", "Show_on_Ma": "65", "Lithology, structures, paleowind": "Alternating mudstones/watckestones (light grey tabular beds, massively or intensely bioturbated, presence of molluscs, vegetable remains, sulfide nodules, carbonate concretions, and fractures filled with calcite. Low to very low clay content) and argillaceous mudstones/watckestones (deep grey tabular beds with intense bioturbation, presence of molluscs, pyrite and carbonate nodules. High to very high clay content)\n\nStructures are rhythmic bedding, meteorological tidal channels, bioturbations, fitted fabric, stylolites and karstic features.", "Paleoenvironment": "Sedimentological analysis suggests a quiet, warm water depositional environment with moderate (below wave-base) depth. Foraminifera assemblages indicate deposition in an outer neritic to upper bathyal setting of a pelagic carbonate ramp system. The low diversity of the ichnofauna and abundance of Thalassinoides suggests oxygen depleted bottom-water conditions, with low do moderate energy.", "REF (Authors, Year)": "Lima and Koutsoukos, 2006", "Fossil occurrences": "Calcareous nannofossils: Ahmuellerella, Arkhangelskiella cymbiformis, Ceratolithoides, Cretarhabdus, Cribrosphaerella, Eiffellithus, Gartnerago, Helicolithus, Kamptnerius, Lithraphidites praequadratus, Loxolithus, Manivitella, Microrhabdulus, Micula murus, Nephrolithus frequens, Prediscosphaera, Retecapsa, Rhagodiscus, Staurolithites, Tegumentum, Tetrapodorhabdus, Watznaueria and Zeugrhabdotus.\n\nPlanktic foraminifera: Gansserina gansseri, Globotruncana aegyptiaca,G. arca, Globotruncanita stuartiformis, Globotruncanella havanensis, G. petaloidea, Heterohelix globulosa, Pseudoguembelina spp., Pseudotextularia\nelegans, Rugoglobigerina macrocephala, R. rugosa\n\nBenthic foraminifera: Gavelinella, Siphogenerinoides, nodosariids\n\nIchnofossils: Thalassinoides.", "REF (Authors, Year)_1": "Lima and Koutsoukos, 2006", "Geochemistry data": "d18O and d13C: Strong positive correlation with Mg, indicating heavy diagenetic alteration and thus not representative of the original oceanographic signal.\n\nNegative correlation between Ca and SI\n\nHigh phosphate concentrations (1.5%) in the 24.0?1.0m interval.", "REF (Authors, Year)_2": "Lima and Koutsoukos, 2006", "Sediment-based climate inference (hot/cold, humid/semi-arid/desert)": "Warm", "Fossil-based climate inference (hot/cold, humid/semi-arid/desert)": "Marine environment, carbonate platform", "Geochemistry-based climate inference  (hot/cold, humid/semi-arid/desert)": "Hot, dry", "Climate assignment leading evidence": "Geochemical and sedimentological analysis indicate the presence of a warm and dry environment for the basin at this moment, based on the very low siliciclastic input which led to the development of a pelagic carbonate ramp.", "Climate_Cl": "D", "Weight": "5", "PlateID": "201", "Sediment-based climate inference (hot/cold, humid/S/desert)": null, "Fossil-based climate inference (hot/cold, humid/S/desert)": null, "Geochemistry-based climate inference  (hot/cold, humid/S/desert)": null, "PaleozonaCodigo": null, "layer": "65.00Ma_point", "path": "C:/Users/Leonardo Bachi/OneDrive/Desktop/ITT_OCEANEON/20_SETEMBRO_TABELA_FINAL/PONTOS_RETIFICADOS/65.00Ma.geojson", "winner": "S", "cluster_size": 29}, "geometry": {"type": "Point", "coordinates": [-23.811027863482543, -13.592265240560398]}}, {"type": "Feature", "properties": {"ID": "1193", "Country": "Brazil", "Basin_Sub_": "Pernambuco-Paraíba", "Group": "N/A", "Formation": "Gramame", "Member": "N/A", "Well name/ outcrop": "Nassau Quarry", "Latitude": "-7.619167", "Longitude": "-34.864444", "Dating evidence": "Palynology: Superzone Crassitricolporties brasiliensi (P-450), Zone Tricornites elongatus (P-470), Zone Proteacedites longispinosum (P-480)", "REF(Authors, Year)": "Oliveira, 2011", "Show_on_Ma": "65", "Lithology, structures, paleowind": "Dominantely biomicritic carbonates and marls, with intense Thalassinoides bioturbation in the marl layers.", "Paleoenvironment": "Neritic environment, with the dinoflagellate assemblage indicating an external neritic/upper bathyal environment.", "REF (Authors, Year)": "Lima and Koutsoukos, 2002, 2004; Barbosa et al., 2003; Barbosa, 2004; Oliveira 2011", "Fossil occurrences": "Spores: Gabonisporis vigourouxii, Cicatricosisporites spp., Petrotriletes sp. Gabonisporis spp., Ariadnaesporites spp., Araucariacites australis, reticulated Cicatricosporites\nPollens: Retiuclated Inaperturopollenites, smooth Inaperturopollenites, warty Inaperturopollenites, Inaperturopollenites sp. 1, Crassitriapertites uesugui, Sincolporado sp., Estephanocolpado sp., Equisetosporites sp., Gnetaceapollenites sp., Monocolpopollenites sp., Reticulatispollenites sp., honeycombed Monocolpollenites\nDinocysts: Dinogymnium acuminatum, Glaphyrocysta sp. 1, Spiniferites ramosus, Spiniferites sp., Alisogymnium euclaense, Spiniferites sp. 1, Hystrichosphaeridium tubiferum, Disphaerogena corposphaeropsis, Thalassifora pelagica, Disphaerogena lemniscata, Membranophoridium spp., Dinogymnium undulosum, Hafniasphaera fluens, Cordosphaeridium inodes, Operculodinium sp. 1, Spiniferites sp. 2, Oligosphaeridium complex, Oligosphaeridium spp., Cordosphaeridium sp. 1, Tanyosphaeridium spp., Cordosphaeridium gracile, Cleistophaeridirum spp., Impletosphaeridium spp., Operculodinium sp. 1, Operculodinium centrocarpum, Polysphaeridium spp., Adnatosphaeridium spp., Cordosphaeridium spp., Fibrocysta spp., Operculodinium israelianum, Cordosphaeridium sp. 2, Dinogymnium nelsonense, Yolkinigymnium sp.\nOther palynomorphs: Palynoforaminifera, acritarch, crustacean egg, algae.", "REF (Authors, Year)_1": "Oliveira, 2011", "Geochemistry data": "N/A", "REF (Authors, Year)_2": "N/A", "Sediment-based climate inference (hot/cold, humid/semi-arid/desert)": "Semi-arid?", "Fossil-based climate inference (hot/cold, humid/semi-arid/desert)": "Humid? Warm waters", "Geochemistry-based climate inference  (hot/cold, humid/semi-arid/desert)": "N/A", "Climate assignment leading evidence": "Carbonates", "Climate_Cl": "H", "Weight": "4", "PlateID": "201", "Sediment-based climate inference (hot/cold, humid/S/desert)": null, "Fossil-based climate inference (hot/cold, humid/S/desert)": null, "Geochemistry-based climate inference  (hot/cold, humid/S/desert)": null, "PaleozonaCodigo": null, "layer": "65.00Ma_point", "path": "C:/Users/Leonardo Bachi/OneDrive/Desktop/ITT_OCEANEON/20_SETEMBRO_TABELA_FINAL/PONTOS_RETIFICADOS/65.00Ma.geojson", "winner": "S", "cluster_size": 29}, "geometry": {"type": "Point", "coordinates": [-23.749829218481796, -13.679824661740225]}}, {"type": "Feature", "properties": {"ID": "1194", "Country": "Brazil", "Basin_Sub_": "Pernambuco-Paraíba", "Group": "N/A", "Formation": "Gramame", "Member": "N/A", "Well name/ outcrop": "Poty Quarry", "Latitude": "-7.734806", "Longitude": "-34.848633", "Dating evidence": "Palynology: Superzone Crassitricolporties brasiliensi (P-450), Zone Proteacedites longispinosum (P-480)", "REF(Authors, Year)": "Oliveira, 2011", "Show_on_Ma": "65", "Lithology, structures, paleowind": "Dominantely biomicritic carbonates and marls, with intense Thalassinoides bioturbation in the marl layers.", "Paleoenvironment": "Neritic environment, with the dinoflagellate assemblage indicating distal marine conditions with warm waters.", "REF (Authors, Year)": "Lima and Koutsoukos, 2002, 2004; Barbosa et al., 2003; Barbosa, 2004; Oliveira 2011", "Fossil occurrences": "Spores: Gabonisporis spp., Cicatricosisporites spp., Ariadnaesporites spp.\nPollens: Inaperturopollenites sp., Reticulatispollenites sp., smooth Inaperturopollenites, Crassitricolporites brasiliensis, Tricornites elongatus, Aquilapollenites magnus, Crassitriapertites sp., Catiallasporites sp. 1, Crassistriapertites uesugui, Retitricolpites sp., reticulated Monocolpopollenites, reticulated Inaperturopollenites\nDinocysts: Glaphyrocysta spp., Glaphyrocysta sp. 1, Spiniferites ramosus, Hafniasphaera fluens, Spiniferites spp., Operculodinium centrocarpum, Hystrichosphaeridium tubiferum, Cordosphaeridium inodes, Thalassifora pelagica, Operculodinium israelianum, Impletosphaeridium spp., Operculodinium spp., Fibrocysta spp., Operculodiniumn spp., Cerodinium diebelii, Palaeocystodinium lidiae, Tanyosphaeridium spp., Fibrocysta sp. 1, Cardosphaeridium sp. 1, Cardosphaeridium spp., Disphaerogena carposphaeropsis, Polysphaeridium spp., Areoligera sp. 1, Membranophoridium sp. 1, Cordosphaeridium gracile, Thalassiphora spp., Alisogymnium euclaense, Spiniferites sp. 1, Dinogymnium acuminatum, Dinogymnium undulosum, Dinogymnium spp., Aeroligera sp. 3, Dinogymnium sp 1., Dinogymnium sp. 2, Operculodinium aff. centrocarpum, Oligosphaeridium spp., Palaeocystonidium bulliforme, Dinogymnium operculatum, DInogymnium sp. 4, Membranophoridium sp. 2, Dinogymnium digitus, Dinogymnium sp. 3\nOther palynomorphs: Palynoforaminifera, scolecodont, algae, Pterosperospermella sp., acritarch, crustacean egg", "REF (Authors, Year)_1": "Oliveira, 2011", "Geochemistry data": "N/A", "REF (Authors, Year)_2": "N/A", "Sediment-based climate inference (hot/cold, humid/semi-arid/desert)": "Semi-arid?", "Fossil-based climate inference (hot/cold, humid/semi-arid/desert)": "Warm waters", "Geochemistry-based climate inference  (hot/cold, humid/semi-arid/desert)": "N/A", "Climate assignment leading evidence": "Carbonates", "Climate_Cl": "H", "Weight": "4", "PlateID": "201", "Sediment-based climate inference (hot/cold, humid/S/desert)": null, "Fossil-based climate inference (hot/cold, humid/S/desert)": null, "Geochemistry-based climate inference  (hot/cold, humid/S/desert)": null, "PaleozonaCodigo": null, "layer": "65.00Ma_point", "path": "C:/Users/Leonardo Bachi/OneDrive/Desktop/ITT_OCEANEON/20_SETEMBRO_TABELA_FINAL/PONTOS_RETIFICADOS/65.00Ma.geojson", "winner": "S", "cluster_size": 29}, "geometry": {"type": "Point", "coordinates": [-23.731025793352078, -13.795082091211272]}}, {"type": "Feature", "properties": {"ID": "1214", "Country": "Brazil", "Basin_Sub_": "Pernambuco-Paraíba/Paraíba", "Group": "N/A", "Formation": "Gramame", "Member": "N/A", "Well name/ outcrop": "Nassau, Poty, Cipasa, Zebu, Cimepa, Cigra, Engenho Garapu and S? Clemente Quarries", "Latitude": "-7.530297", "Longitude": "-34.922447", "Dating evidence": "Palynology: Superzone Crassitricolporties brasiliensi (P-450), Zone Tricornites elongatus (P-470), Zone Proteacedites longispinosum (P-480), Zone Gabonisporis vigourouxii, Zone Dinogymnium spp., Zone Yolkinigymnium lanceolatum", "REF(Authors, Year)": "Alvez, 2019", "Show_on_Ma": "65", "Lithology, structures, paleowind": "Mudstone/wackestone and clayey mudstone/wackstone", "Paleoenvironment": "Not discussed, assumed marine due to the palynological content", "REF (Authors, Year)": "Alvez, 2019", "Fossil occurrences": "Pollen and spores: Ariadnaesporites spinosus, Aquilapollenites magnus, Gabonisporis aff. vigourouxii, Callialasporites sp. 2, Callialasporites sp. cf. Perotrilites sp. sensu Herngreen (1975), Cicatricosisporites sp., Crassitricolporites brasiliensis, Crassitriapertites uesugui, Echitricolpites communis, Cicatricosisporites spp., Sincolporado sp., Gabonisporis vigourouxii, Gnetaceapollenites sp., Longapertites proxapertitoides, Proxapertites operculatus /  Dinoflagellates: Damassadinium californicum, Disphaerogena carposphaeropsis, Disphaerogena lemniscata, Dinogymnium sp. 1, Dinogymnium sp. 2, Dinogymnium sp. 3, Dinogymnium sp. 4, Dinogymnium sp.5, Dinogymnium acuminatum, Dinogymnium digitus, Dinogymnium undulosum, Fibrocysta sp. 1, Fibrocysta sp. 2, Glaphyrocysta retiintexta, Hafniasphaera fluens, Hystrichosphaeridium spp., Impletosphaeridium spp., Glaphyrocysta semitecta, Achomosphaera spp., Oligosphaeridium complex subsp. complex, Operculodinium centrocarpum, Operculodinium centrocarpum., Adnatosphaeridium buccinum, Alisogymnium euclaense, Batiacasphaera sp., Cerodinium sp., Cerodinium diebelii, Cordosphaeridium exilimurum sp 1, Cordosphaeridium inodes, Cordosphaeridium sp. 2, Cordosphaeridium exilimurum, Impletosphaeridium spp., Operculodinium israelianum, Operculodinium centrocarpum, Paleocystodinium spp., Polysphaeridium spp., Spiniferites spp., Hafniasphaera fluens, Spiniferites sp., Spiniferites spp., Cleistosphaeridium placacanthum, Membranophoridium spp., Tanyosphaeridium spp., Yolkinigymnium lanceolatum", "REF (Authors, Year)_1": "Alvez, 2019", "Geochemistry data": "N/A", "REF (Authors, Year)_2": "N/A", "Sediment-based climate inference (hot/cold, humid/semi-arid/desert)": "N/A", "Fossil-based climate inference (hot/cold, humid/semi-arid/desert)": "Humid and Warm waters", "Geochemistry-based climate inference  (hot/cold, humid/semi-arid/desert)": "N/A", "Climate assignment leading evidence": "N/A", "Climate_Cl": "H", "Weight": "2", "PlateID": "201", "Sediment-based climate inference (hot/cold, humid/S/desert)": null, "Fossil-based climate inference (hot/cold, humid/S/desert)": null, "Geochemistry-based climate inference  (hot/cold, humid/S/desert)": null, "PaleozonaCodigo": null, "layer": "65.00Ma_point", "path": "C:/Users/Leonardo Bachi/OneDrive/Desktop/ITT_OCEANEON/20_SETEMBRO_TABELA_FINAL/PONTOS_RETIFICADOS/65.00Ma.geojson", "winner": "S", "cluster_size": 29}, "geometry": {"type": "Point", "coordinates": [-23.811027863482543, -13.592265240560398]}}, {"type": "Feature", "properties": {"ID": "2654", "Country": "Tunisia", "Basin_Sub_": "N/A", "Group": null, "Formation": "Abiod", "Member": "u2", "Well name/ outcrop": "Bir M?herga", "Latitude": "36.57", "Longitude": "10", "Dating evidence": "Biostratigraphy: Foraminifera", "REF(Authors, Year)": "Jema?etal 2016", "Show_on_Ma": "65", "Lithology, structures, paleowind": "grey marls and limestone beds alternations", "Paleoenvironment": "Marine", "REF (Authors, Year)": "Jema?etal 2016", "Fossil occurrences": "Gansserina gansseri Biozone; Foraminifera: Globotruncanita stuarti, Globotruncana aegyptica, G. arca, G. falsoastuarti, G. dupeublei, G. havanensis, Ruglobigerina rugosa, R. macroceptata, Rosita patelliforms, R. walfischenis, Cotusotruncana sp., Hedbergella monmouthensis, H. holmdelensis, H. globulosa, Pseudotextularia nuttali, P. elegans, Planoglobulina multicamerata, P. riograndensis, Pseudoguembelina costulata, Pseudotextularia intermedia, Gublerina cuvellieri", "REF (Authors, Year)_1": "Jema?etal 2016", "Geochemistry data": "N/A", "REF (Authors, Year)_2": "N/A", "Sediment-based climate inference (hot/cold, humid/semi-arid/desert)": "Hot, humid", "Fossil-based climate inference (hot/cold, humid/semi-arid/desert)": "N/A", "Geochemistry-based climate inference  (hot/cold, humid/semi-arid/desert)": "N/A", "Climate assignment leading evidence": "Carbonates", "Climate_Cl": "S", "Weight": "1", "PlateID": "7701", "Sediment-based climate inference (hot/cold, humid/S/desert)": null, "Fossil-based climate inference (hot/cold, humid/S/desert)": null, "Geochemistry-based climate inference  (hot/cold, humid/S/desert)": null, "PaleozonaCodigo": null, "layer": "65.00Ma_point", "path": "C:/Users/Leonardo Bachi/OneDrive/Desktop/ITT_OCEANEON/20_SETEMBRO_TABELA_FINAL/PONTOS_RETIFICADOS/65.00Ma.geojson", "winner": "H", "cluster_size": 9}, "geometry": {"type": "Point", "coordinates": [2.354714467220081, 24.76313910576189]}}, {"type": "Feature", "properties": {"ID": "2836", "Country": "Tunisia", "Basin_Sub_": "N/A", "Group": "N/A", "Formation": "Haria", "Member": "N/A", "Well name/ outcrop": "Kef", "Latitude": "36.189", "Longitude": "8.752", "Dating evidence": "N/A", "REF(Authors, Year)": "Bensalem 2002", "Show_on_Ma": "65", "Lithology, structures, paleowind": "Dark, Marl, Limestone, ", "Paleoenvironment": "Coastal: lagoonal-littoral", "REF (Authors, Year)": "Bensalem 2002", "Fossil occurrences": "Planktonic Foraminifera: Globotruncana sp.", "REF (Authors, Year)_1": "Bensalem 2002", "Geochemistry data": "N/A", "REF (Authors, Year)_2": "N/A", "Sediment-based climate inference (hot/cold, humid/semi-arid/desert)": "semi-arid?", "Fossil-based climate inference (hot/cold, humid/semi-arid/desert)": "N/A", "Geochemistry-based climate inference  (hot/cold, humid/semi-arid/desert)": "N/A", "Climate assignment leading evidence": "Carbonates", "Climate_Cl": "S", "Weight": "1", "PlateID": "715", "Sediment-based climate inference (hot/cold, humid/S/desert)": null, "Fossil-based climate inference (hot/cold, humid/S/desert)": null, "Geochemistry-based climate inference  (hot/cold, humid/S/desert)": null, "PaleozonaCodigo": null, "layer": "65.00Ma_point", "path": "C:/Users/Leonardo Bachi/OneDrive/Desktop/ITT_OCEANEON/20_SETEMBRO_TABELA_FINAL/PONTOS_RETIFICADOS/65.00Ma.geojson", "winner": "H", "cluster_size": 9}, "geometry": {"type": "Point", "coordinates": [1.531218058163982, 25.13299769815416]}}, {"type": "Feature", "properties": {"ID": "2837", "Country": "Tunisia", "Basin_Sub_": "N/A", "Group": "N/A", "Formation": "Haria", "Member": "N/A", "Well name/ outcrop": "Nefza", "Latitude": "36.953", "Longitude": "9.142", "Dating evidence": "N/A", "REF(Authors, Year)": "Bensalem 2002", "Show_on_Ma": "65", "Lithology, structures, paleowind": "gray to dark clay with dolomited concretions", "Paleoenvironment": "Coastal: lagoonal-littoral", "REF (Authors, Year)": "Bensalem 2002", "Fossil occurrences": "Planktonic Foraminifera: Globotruncana contusa, G. gansseri", "REF (Authors, Year)_1": "Bensalem 2002", "Geochemistry data": "N/A", "REF (Authors, Year)_2": "N/A", "Sediment-based climate inference (hot/cold, humid/semi-arid/desert)": "semi-arid?", "Fossil-based climate inference (hot/cold, humid/semi-arid/desert)": "N/A", "Geochemistry-based climate inference  (hot/cold, humid/semi-arid/desert)": "N/A", "Climate assignment leading evidence": "Carbonates", "Climate_Cl": "S", "Weight": "1", "PlateID": "7701", "Sediment-based climate inference (hot/cold, humid/S/desert)": null, "Fossil-based climate inference (hot/cold, humid/S/desert)": null, "Geochemistry-based climate inference  (hot/cold, humid/S/desert)": null, "PaleozonaCodigo": null, "layer": "65.00Ma_point", "path": "C:/Users/Leonardo Bachi/OneDrive/Desktop/ITT_OCEANEON/20_SETEMBRO_TABELA_FINAL/PONTOS_RETIFICADOS/65.00Ma.geojson", "winner": "H", "cluster_size": 9}, "geometry": {"type": "Point", "coordinates": [1.973293751967581, 25.855891709479703]}}, {"type": "Feature", "properties": {"ID": "2838", "Country": "Tunisia", "Basin_Sub_": "N/A", "Group": "N/A", "Formation": "Haria", "Member": "N/A", "Well name/ outcrop": "H?il", "Latitude": "36.953", "Longitude": "9.142", "Dating evidence": "N/A", "REF(Authors, Year)": "Bensalem 2002", "Show_on_Ma": "65", "Lithology, structures, paleowind": "Marls, marly limestone", "Paleoenvironment": "Coastal: lagoonal-littoral", "REF (Authors, Year)": "Bensalem 2002", "Fossil occurrences": "Planktonic Foraminifera: Globotruncana falsostuarti", "REF (Authors, Year)_1": "Bensalem 2002", "Geochemistry data": "N/A", "REF (Authors, Year)_2": "N/A", "Sediment-based climate inference (hot/cold, humid/semi-arid/desert)": "semi-arid?", "Fossil-based climate inference (hot/cold, humid/semi-arid/desert)": "N/A", "Geochemistry-based climate inference  (hot/cold, humid/semi-arid/desert)": "N/A", "Climate assignment leading evidence": "Carbonates", "Climate_Cl": "S", "Weight": "1", "PlateID": "715", "Sediment-based climate inference (hot/cold, humid/S/desert)": null, "Fossil-based climate inference (hot/cold, humid/S/desert)": null, "Geochemistry-based climate inference  (hot/cold, humid/S/desert)": null, "PaleozonaCodigo": null, "layer": "65.00Ma_point", "path": "C:/Users/Leonardo Bachi/OneDrive/Desktop/ITT_OCEANEON/20_SETEMBRO_TABELA_FINAL/PONTOS_RETIFICADOS/65.00Ma.geojson", "winner": "H", "cluster_size": 9}, "geometry": {"type": "Point", "coordinates": [1.973293751967581, 25.855891709479703]}}]}