{"type": "FeatureCollection", "features": [{"type": "Feature", "properties": {"Climate_Cl": "S", "votes": 2, "cluster_size": 2, "tie": false, "status": "majority", "member_ids": "49,123"}, "geometry": {"type": "Point", "coordinates": [-0.6006287935049031, 23.357761571057438]}}, {"type": "Feature", "properties": {"Climate_Cl": "S", "votes": 1, "cluster_size": 1, "tie": false, "status": "majority", "member_ids": "179"}, "geometry": {"type": "Point", "coordinates": [1.37677305610224, -21.199274217989952]}}, {"type": "Feature", "properties": {"Climate_Cl": "H", "votes": 4, "cluster_size": 4, "tie": false, "status": "majority", "member_ids": "200,204,213,1873"}, "geometry": {"type": "Point", "coordinates": [-64.13027467982074, -56.86214243447556]}}, {"type": "Feature", "properties": {"Climate_Cl": "H", "votes": 1, "cluster_size": 1, "tie": false, "status": "majority", "member_ids": "242"}, "geometry": {"type": "Point", "coordinates": [-57.618900866359446, -49.61523976734134]}}, {"type": "Feature", "properties": {"Climate_Cl": "H", "votes": 2, "cluster_size": 2, "tie": false, "status": "majority", "member_ids": "244,250"}, "geometry": {"type": "Point", "coordinates": [-60.188011715843736, -49.20023817355932]}}, {"type": "Feature", "properties": {"Climate_Cl": "H", "votes": 1, "cluster_size": 1, "tie": false, "status": "majority", "member_ids": "255"}, "geometry": {"type": "Point", "coordinates": [-58.17538837170322, -50.70418217206632]}}, {"type": "Feature", "properties": {"Climate_Cl": "H", "votes": 1, "cluster_size": 1, "tie": false, "status": "majority", "member_ids": "271"}, "geometry": {"type": "Point", "coordinates": [-59.05307178711086, -53.21657926328594]}}, {"type": "Feature", "properties": {"Climate_Cl": "S", "votes": 1, "cluster_size": 1, "tie": false, "status": "majority", "member_ids": "290"}, "geometry": {"type": "Point", "coordinates": [-56.38302063342484, -46.47280652422621]}}, {"type": "Feature", "properties": {"Climate_Cl": "S", "votes": 1, "cluster_size": 1, "tie": false, "status": "majority", "member_ids": "315"}, "geometry": {"type": "Point", "coordinates": [-59.1752885814081, -42.76363439791715]}}, {"type": "Feature", "properties": {"Climate_Cl": "D", "votes": 1, "cluster_size": 1, "tie": false, "status": "majority", "member_ids": "355"}, "geometry": {"type": "Point", "coordinates": [-49.97427455768197, -49.080085557925976]}}, {"type": "Feature", "properties": {"Climate_Cl": "H", "votes": 2, "cluster_size": 3, "tie": false, "status": "majority", "member_ids": "387,389,391"}, "geometry": {"type": "Point", "coordinates": [-53.959450297349804, -32.1828516073631]}}, {"type": "Feature", "properties": {"Climate_Cl": "S", "votes": 1, "cluster_size": 1, "tie": false, "status": "majority", "member_ids": "427"}, "geometry": {"type": "Point", "coordinates": [-53.6048805951192, -27.77430945696278]}}, {"type": "Feature", "properties": {"Climate_Cl": "D", "votes": 1, "cluster_size": 1, "tie": false, "status": "majority", "member_ids": "428"}, "geometry": {"type": "Point", "coordinates": [-53.54243537517486, -25.77490449225252]}}, {"type": "Feature", "properties": {"Climate_Cl": "H", "votes": 1, "cluster_size": 1, "tie": false, "status": "majority", "member_ids": "443"}, "geometry": {"type": "Point", "coordinates": [-61.62859622163632, -13.393138360173216]}}, {"type": "Feature", "properties": {"Climate_Cl": "H", "votes": 1, "cluster_size": 2, "tie": true, "status": "tie", "member_ids": "596,608"}, "geometry": {"type": "Point", "coordinates": [-26.32822333112958, -7.528654367138821]}}, {"type": "Feature", "properties": {"Climate_Cl": "S", "votes": 1, "cluster_size": 2, "tie": true, "status": "tie", "member_ids": "596,608"}, "geometry": {"type": "Point", "coordinates": [-26.32822333112958, -7.528654367138821]}}, {"type": "Feature", "properties": {"Climate_Cl": "H", "votes": 3, "cluster_size": 3, "tie": false, "status": "majority", "member_ids": "672,682,689"}, "geometry": {"type": "Point", "coordinates": [-26.902579511381735, -30.04318384943552]}}, {"type": "Feature", "properties": {"Climate_Cl": "H", "votes": 1, "cluster_size": 1, "tie": false, "status": "majority", "member_ids": "674"}, "geometry": {"type": "Point", "coordinates": [-26.47250572924352, -28.93545613018694]}}, {"type": "Feature", "properties": {"Climate_Cl": "H", "votes": 1, "cluster_size": 1, "tie": false, "status": "majority", "member_ids": "755"}, "geometry": {"type": "Point", "coordinates": [-26.371099797124266, -26.919203483721002]}}, {"type": "Feature", "properties": {"Climate_Cl": "H", "votes": 1, "cluster_size": 1, "tie": false, "status": "majority", "member_ids": "783"}, "geometry": {"type": "Point", "coordinates": [-35.90651980639129, -4.114153422355093]}}, {"type": "Feature", "properties": {"Climate_Cl": "H", "votes": 1, "cluster_size": 1, "tie": false, "status": "majority", "member_ids": "800"}, "geometry": {"type": "Point", "coordinates": [-37.59777368264364, -2.55580026109206]}}, {"type": "Feature", "properties": {"Climate_Cl": "H", "votes": 1, "cluster_size": 1, "tie": false, "status": "majority", "member_ids": "848"}, "geometry": {"type": "Point", "coordinates": [-24.960053051478617, -19.70355792695425]}}, {"type": "Feature", "properties": {"Climate_Cl": "H", "votes": 1, "cluster_size": 1, "tie": false, "status": "majority", "member_ids": "899"}, "geometry": {"type": "Point", "coordinates": [-24.454174879429676, -22.493255880751246]}}, {"type": "Feature", "properties": {"Climate_Cl": "S", "votes": 1, "cluster_size": 1, "tie": false, "status": "majority", "member_ids": "933"}, "geometry": {"type": "Point", "coordinates": [-37.43149495392355, -9.10967118514713]}}, {"type": "Feature", "properties": {"Climate_Cl": "S", "votes": 1, "cluster_size": 1, "tie": false, "status": "majority", "member_ids": "940"}, "geometry": {"type": "Point", "coordinates": [-26.48601430953964, -25.034903998729742]}}, {"type": "Feature", "properties": {"Climate_Cl": "S", "votes": 4, "cluster_size": 4, "tie": false, "status": "majority", "member_ids": "962,964,968,970"}, "geometry": {"type": "Point", "coordinates": [-32.383425726672, -7.105495444704663]}}, {"type": "Feature", "properties": {"Climate_Cl": "S", "votes": 1, "cluster_size": 1, "tie": false, "status": "majority", "member_ids": "966"}, "geometry": {"type": "Point", "coordinates": [-33.59926631596066, -5.878483727077159]}}, {"type": "Feature", "properties": {"Climate_Cl": "S", "votes": 1, "cluster_size": 1, "tie": false, "status": "majority", "member_ids": "993"}, "geometry": {"type": "Point", "coordinates": [-35.144110633077226, -26.838539921019915]}}, {"type": "Feature", "properties": {"Climate_Cl": "S", "votes": 1, "cluster_size": 1, "tie": false, "status": "majority", "member_ids": "995"}, "geometry": {"type": "Point", "coordinates": [-37.43141537566121, -29.314900318284703]}}, {"type": "Feature", "properties": {"Climate_Cl": "D", "votes": 1, "cluster_size": 1, "tie": false, "status": "majority", "member_ids": "1057"}, "geometry": {"type": "Point", "coordinates": [-44.72438393467467, -19.021831618251184]}}, {"type": "Feature", "properties": {"Climate_Cl": "H", "votes": 2, "cluster_size": 2, "tie": false, "status": "majority", "member_ids": "1104,1114"}, "geometry": {"type": "Point", "coordinates": [-37.5173381051193, -38.68865544633501]}}, {"type": "Feature", "properties": {"Climate_Cl": "H", "votes": 1, "cluster_size": 1, "tie": false, "status": "majority", "member_ids": "1109"}, "geometry": {"type": "Point", "coordinates": [-34.972829269944846, -35.70846076160244]}}, {"type": "Feature", "properties": {"Climate_Cl": "S", "votes": 1, "cluster_size": 1, "tie": false, "status": "majority", "member_ids": "1126"}, "geometry": {"type": "Point", "coordinates": [-26.757190648751976, -36.041948507070806]}}, {"type": "Feature", "properties": {"Climate_Cl": "S", "votes": 23, "cluster_size": 29, "tie": false, "status": "majority", "member_ids": "1138,1140,1142,1144,1151,1155,1157,1159,1162,1164,1174,1180,1186,1188,1189,1190,1191,1192,1198,1200,1201,1203,1205,1208,1210,1212,1215,1223,1226"}, "geometry": {"type": "Point", "coordinates": [-21.855927349024537, -14.500773240467481]}}, {"type": "Feature", "properties": {"Climate_Cl": "S", "votes": 3, "cluster_size": 3, "tie": false, "status": "majority", "member_ids": "1229,1232,1235"}, "geometry": {"type": "Point", "coordinates": [-23.23796922708678, -9.960273615047502]}}, {"type": "Feature", "properties": {"Climate_Cl": "S", "votes": 1, "cluster_size": 1, "tie": false, "status": "majority", "member_ids": "1542"}, "geometry": {"type": "Point", "coordinates": [-31.931604807117274, -32.6031796358685]}}, {"type": "Feature", "properties": {"Climate_Cl": "H", "votes": 2, "cluster_size": 4, "tie": true, "status": "tie", "member_ids": "1589,1590,1617,1618"}, "geometry": {"type": "Point", "coordinates": [-22.5051407776885, -17.94407111788157]}}, {"type": "Feature", "properties": {"Climate_Cl": "S", "votes": 2, "cluster_size": 4, "tie": true, "status": "tie", "member_ids": "1589,1590,1617,1618"}, "geometry": {"type": "Point", "coordinates": [-22.5051407776885, -17.94407111788157]}}, {"type": "Feature", "properties": {"Climate_Cl": "H", "votes": 2, "cluster_size": 2, "tie": false, "status": "majority", "member_ids": "1678,1679"}, "geometry": {"type": "Point", "coordinates": [-52.9213710313162, -11.78712186896548]}}, {"type": "Feature", "properties": {"Climate_Cl": "H", "votes": 1, "cluster_size": 1, "tie": false, "status": "majority", "member_ids": "1680"}, "geometry": {"type": "Point", "coordinates": [-49.86963882921453, -11.890176550933889]}}, {"type": "Feature", "properties": {"Climate_Cl": "H", "votes": 1, "cluster_size": 1, "tie": false, "status": "majority", "member_ids": "1703"}, "geometry": {"type": "Point", "coordinates": [-0.85217937260324, -7.902161568522698]}}, {"type": "Feature", "properties": {"Climate_Cl": "H", "votes": 1, "cluster_size": 1, "tie": false, "status": "majority", "member_ids": "1863"}, "geometry": {"type": "Point", "coordinates": [-62.42985958349976, -55.25590535187984]}}, {"type": "Feature", "properties": {"Climate_Cl": "S", "votes": 2, "cluster_size": 2, "tie": false, "status": "majority", "member_ids": "1900,1901"}, "geometry": {"type": "Point", "coordinates": [-59.075330426655604, -35.55546828348952]}}, {"type": "Feature", "properties": {"Climate_Cl": "S", "votes": 2, "cluster_size": 2, "tie": false, "status": "majority", "member_ids": "1912,1913"}, "geometry": {"type": "Point", "coordinates": [-59.35489826254803, -34.540729288082765]}}, {"type": "Feature", "properties": {"Climate_Cl": "S", "votes": 1, "cluster_size": 1, "tie": false, "status": "majority", "member_ids": "1968"}, "geometry": {"type": "Point", "coordinates": [18.70848412693417, 13.588007007658984]}}, {"type": "Feature", "properties": {"Climate_Cl": "H", "votes": 1, "cluster_size": 1, "tie": false, "status": "majority", "member_ids": "1986"}, "geometry": {"type": "Point", "coordinates": [-64.75505411483303, -6.202106809785606]}}, {"type": "Feature", "properties": {"Climate_Cl": "H", "votes": 1, "cluster_size": 1, "tie": false, "status": "majority", "member_ids": "2051"}, "geometry": {"type": "Point", "coordinates": [-9.289100324477293, -5.239331870402495]}}, {"type": "Feature", "properties": {"Climate_Cl": "H", "votes": 4, "cluster_size": 4, "tie": false, "status": "majority", "member_ids": "2055,2058,2061,2064"}, "geometry": {"type": "Point", "coordinates": [-13.783183804869719, -5.893897833328198]}}, {"type": "Feature", "properties": {"Climate_Cl": "H", "votes": 1, "cluster_size": 1, "tie": false, "status": "majority", "member_ids": "2081"}, "geometry": {"type": "Point", "coordinates": [-13.483475741578236, -6.876233256264018]}}, {"type": "Feature", "properties": {"Climate_Cl": "S", "votes": 4, "cluster_size": 4, "tie": false, "status": "majority", "member_ids": "2087,2089,2100,2102"}, "geometry": {"type": "Point", "coordinates": [7.162606633805363, 16.682819134221447]}}, {"type": "Feature", "properties": {"Climate_Cl": "S", "votes": 1, "cluster_size": 1, "tie": false, "status": "majority", "member_ids": "2097"}, "geometry": {"type": "Point", "coordinates": [8.632929393743854, 16.10457875708569]}}, {"type": "Feature", "properties": {"Climate_Cl": "H", "votes": 1, "cluster_size": 1, "tie": false, "status": "majority", "member_ids": "2106"}, "geometry": {"type": "Point", "coordinates": [11.04204164485245, 16.49503592700418]}}, {"type": "Feature", "properties": {"Climate_Cl": "S", "votes": 1, "cluster_size": 1, "tie": false, "status": "majority", "member_ids": "2112"}, "geometry": {"type": "Point", "coordinates": [3.078800623052359, 18.03061836994041]}}, {"type": "Feature", "properties": {"Climate_Cl": "S", "votes": 1, "cluster_size": 1, "tie": false, "status": "majority", "member_ids": "2118"}, "geometry": {"type": "Point", "coordinates": [9.437603979807204, 17.378568688576415]}}, {"type": "Feature", "properties": {"Climate_Cl": "S", "votes": 1, "cluster_size": 1, "tie": false, "status": "majority", "member_ids": "2232"}, "geometry": {"type": "Point", "coordinates": [-14.801772871367735, 21.242056719453675]}}, {"type": "Feature", "properties": {"Climate_Cl": "S", "votes": 1, "cluster_size": 1, "tie": false, "status": "majority", "member_ids": "2235"}, "geometry": {"type": "Point", "coordinates": [-0.220527695898196, -26.546446847466367]}}, {"type": "Feature", "properties": {"Climate_Cl": "H", "votes": 1, "cluster_size": 2, "tie": true, "status": "tie", "member_ids": "2257,2260"}, "geometry": {"type": "Point", "coordinates": [-3.672076446898175, 3.704743341641776]}}, {"type": "Feature", "properties": {"Climate_Cl": "S", "votes": 1, "cluster_size": 2, "tie": true, "status": "tie", "member_ids": "2257,2260"}, "geometry": {"type": "Point", "coordinates": [-3.672076446898175, 3.704743341641776]}}, {"type": "Feature", "properties": {"Climate_Cl": "H", "votes": 3, "cluster_size": 3, "tie": false, "status": "majority", "member_ids": "2332,2334,2340"}, "geometry": {"type": "Point", "coordinates": [-4.0883730238704015, -4.983502566243775]}}, {"type": "Feature", "properties": {"Climate_Cl": "H", "votes": 8, "cluster_size": 8, "tie": false, "status": "majority", "member_ids": "2336,2343,2377,2379,2381,2386,2388,2390"}, "geometry": {"type": "Point", "coordinates": [-2.403410713997552, -6.636267648605996]}}, {"type": "Feature", "properties": {"Climate_Cl": "H", "votes": 3, "cluster_size": 3, "tie": false, "status": "majority", "member_ids": "2370,2372,2374"}, "geometry": {"type": "Point", "coordinates": [-6.198343096853272, -4.667954805760984]}}, {"type": "Feature", "properties": {"Climate_Cl": "S", "votes": 1, "cluster_size": 1, "tie": false, "status": "majority", "member_ids": "2427"}, "geometry": {"type": "Point", "coordinates": [-64.73419480612787, -16.222147875803838]}}, {"type": "Feature", "properties": {"Climate_Cl": "S", "votes": 2, "cluster_size": 2, "tie": false, "status": "majority", "member_ids": "2446,2447"}, "geometry": {"type": "Point", "coordinates": [-59.610040538290036, -19.50615645807386]}}, {"type": "Feature", "properties": {"Climate_Cl": "H", "votes": 1, "cluster_size": 1, "tie": false, "status": "majority", "member_ids": "2450"}, "geometry": {"type": "Point", "coordinates": [-64.37878502607478, -12.235749540421892]}}, {"type": "Feature", "properties": {"Climate_Cl": "S", "votes": 1, "cluster_size": 1, "tie": false, "status": "majority", "member_ids": "2477"}, "geometry": {"type": "Point", "coordinates": [-62.94144851832863, -13.320676851146505]}}, {"type": "Feature", "properties": {"Climate_Cl": "H", "votes": 1, "cluster_size": 1, "tie": false, "status": "majority", "member_ids": "2485"}, "geometry": {"type": "Point", "coordinates": [-62.521633645333154, -14.345843614820037]}}, {"type": "Feature", "properties": {"Climate_Cl": "H", "votes": 1, "cluster_size": 1, "tie": false, "status": "majority", "member_ids": "2500"}, "geometry": {"type": "Point", "coordinates": [-0.028667652932339, -17.07770095309256]}}, {"type": "Feature", "properties": {"Climate_Cl": "H", "votes": 1, "cluster_size": 3, "tie": true, "status": "tie", "member_ids": "2531,2580,2626"}, "geometry": {"type": "Point", "coordinates": [-25.378663249027067, 6.400244662733918]}}, {"type": "Feature", "properties": {"Climate_Cl": "S", "votes": 1, "cluster_size": 3, "tie": true, "status": "tie", "member_ids": "2531,2580,2626"}, "geometry": {"type": "Point", "coordinates": [-25.378663249027067, 6.400244662733918]}}, {"type": "Feature", "properties": {"Climate_Cl": "D", "votes": 1, "cluster_size": 3, "tie": true, "status": "tie", "member_ids": "2531,2580,2626"}, "geometry": {"type": "Point", "coordinates": [-25.378663249027067, 6.400244662733918]}}, {"type": "Feature", "properties": {"Climate_Cl": "H", "votes": 1, "cluster_size": 2, "tie": true, "status": "tie", "member_ids": "2548,2613"}, "geometry": {"type": "Point", "coordinates": [-27.213325259348654, 4.140419817650049]}}, {"type": "Feature", "properties": {"Climate_Cl": "S", "votes": 1, "cluster_size": 2, "tie": true, "status": "tie", "member_ids": "2548,2613"}, "geometry": {"type": "Point", "coordinates": [-27.213325259348654, 4.140419817650049]}}, {"type": "Feature", "properties": {"Climate_Cl": "H", "votes": 1, "cluster_size": 1, "tie": false, "status": "majority", "member_ids": "2565"}, "geometry": {"type": "Point", "coordinates": [-24.623466409242415, 7.778463962285136]}}, {"type": "Feature", "properties": {"Climate_Cl": "S", "votes": 1, "cluster_size": 1, "tie": false, "status": "majority", "member_ids": "2575"}, "geometry": {"type": "Point", "coordinates": [-23.902312263376267, 4.376586415693215]}}, {"type": "Feature", "properties": {"Climate_Cl": "H", "votes": 1, "cluster_size": 1, "tie": false, "status": "majority", "member_ids": "2631"}, "geometry": {"type": "Point", "coordinates": [-26.0738130886187, 4.01551530799575]}}, {"type": "Feature", "properties": {"Climate_Cl": "S", "votes": 1, "cluster_size": 1, "tie": false, "status": "majority", "member_ids": "2658"}, "geometry": {"type": "Point", "coordinates": [3.481226786983231, 22.045183766740248]}}, {"type": "Feature", "properties": {"Climate_Cl": "S", "votes": 1, "cluster_size": 1, "tie": false, "status": "majority", "member_ids": "2764"}, "geometry": {"type": "Point", "coordinates": [1.859900095942522, 21.88746187354569]}}, {"type": "Feature", "properties": {"Climate_Cl": "H", "votes": 1, "cluster_size": 1, "tie": false, "status": "majority", "member_ids": "2878"}, "geometry": {"type": "Point", "coordinates": [2.823561431062663, 24.263764174464928]}}, {"type": "Feature", "properties": {"Climate_Cl": "H", "votes": 1, "cluster_size": 1, "tie": false, "status": "majority", "member_ids": "2976"}, "geometry": {"type": "Point", "coordinates": [-46.30414227925395, -39.995267126143204]}}, {"type": "Feature", "properties": {"Climate_Cl": "H", "votes": 1, "cluster_size": 1, "tie": false, "status": "majority", "member_ids": "2991"}, "geometry": {"type": "Point", "coordinates": [-42.97798983337666, -42.05678462782495]}}, {"type": "Feature", "properties": {"Climate_Cl": "H", "votes": 1, "cluster_size": 1, "tie": false, "status": "majority", "member_ids": "3010"}, "geometry": {"type": "Point", "coordinates": [-57.16760877990984, 1.802078894603417]}}, {"type": "Feature", "properties": {"Climate_Cl": "H", "votes": 2, "cluster_size": 2, "tie": false, "status": "majority", "member_ids": "3011,3031"}, "geometry": {"type": "Point", "coordinates": [-57.75441302317781, 0.906764076967554]}}, {"type": "Feature", "properties": {"Climate_Cl": "H", "votes": 1, "cluster_size": 1, "tie": false, "status": "majority", "member_ids": "3015"}, "geometry": {"type": "Point", "coordinates": [-58.93552562849111, 2.054494600847507]}}, {"type": "Feature", "properties": {"Climate_Cl": "H", "votes": 2, "cluster_size": 2, "tie": false, "status": "majority", "member_ids": "3070,3071"}, "geometry": {"type": "Point", "coordinates": [-50.54355628740328, 2.8223863736074533]}}, {"type": "Feature", "properties": {"Climate_Cl": "H", "votes": 2, "cluster_size": 3, "tie": false, "status": "majority", "member_ids": "3108,3151,3152"}, "geometry": {"type": "Point", "coordinates": [-61.36616636240526, 0.77341807751952]}}, {"type": "Feature", "properties": {"Climate_Cl": "H", "votes": 2, "cluster_size": 2, "tie": false, "status": "majority", "member_ids": "3109,3153"}, "geometry": {"type": "Point", "coordinates": [-60.823944613120645, -0.172824747772802]}}, {"type": "Feature", "properties": {"Climate_Cl": "H", "votes": 1, "cluster_size": 1, "tie": false, "status": "majority", "member_ids": "3110"}, "geometry": {"type": "Point", "coordinates": [-59.79547279661922, 0.949001109472128]}}, {"type": "Feature", "properties": {"Climate_Cl": "H", "votes": 2, "cluster_size": 2, "tie": false, "status": "majority", "member_ids": "3112,3160"}, "geometry": {"type": "Point", "coordinates": [-60.94357113956803, 1.826185550994438]}}]}