{"type": "FeatureCollection", "features": [{"type": "Feature", "properties": {"ID": "387", "Country": "Argentina", "Basin_Sub_": "Salta", "Group": "Salta (Pirgua Subgroup)", "Formation": "Las Curtiembres", "Member": "Morales", "Well name/ outcrop": "Palo Seco (Las Conchas Creec)", "Latitude": "-25.755", "Longitude": "-65.578", "Dating evidence": "palynology", "REF(Authors, Year)": "Narv?z and Sabino, 2008", "Show_on_Ma": "70", "Lithology, structures, paleowind": "Green siltstones intercalated with whitish sandstones and micritic limestones. Pyroclastic and lava flows (Las Conchas Basalt) occur associated with sedimentary deposits.", "Paleoenvironment": "Lacustrine", "REF (Authors, Year)": "Narv?z and Sabino, 2008", "Fossil occurrences": "pipid frogs, plant remains and clupeiform fish", "REF (Authors, Year)_1": "Reig, 1959; B?z, 1981", "Geochemistry data": null, "REF (Authors, Year)_2": null, "Sediment-based climate inference (hot/cold, humid/semi-arid/desert)": "semi-arid", "Fossil-based climate inference (hot/cold, humid/semi-arid/desert)": null, "Geochemistry-based climate inference  (hot/cold, humid/semi-arid/desert)": null, "Climate assignment leading evidence": "Ephedraceae (57 % of the total assemblage)", "Climate_Cl": "S", "Weight": "5", "PlateID": "202", "Sediment-based climate inference (hot/cold, humid/S/desert)": null, "Fossil-based climate inference (hot/cold, humid/S/desert)": null, "Geochemistry-based climate inference  (hot/cold, humid/S/desert)": null, "PaleozonaCodigo": null, "layer": "70.00Ma_point", "path": "C:/Users/Leonardo Bachi/OneDrive/Desktop/ITT_OCEANEON/20_SETEMBRO_TABELA_FINAL/PONTOS_RETIFICADOS/70.00Ma.geojson", "winner": "H", "cluster_size": 3}, "geometry": {"type": "Point", "coordinates": [-54.23153636676239, -32.51036219367767]}}, {"type": "Feature", "properties": {"ID": "1164", "Country": "Brazil", "Basin_Sub_": "Pernambuco-Paraíba", "Group": "N/A", "Formation": "Gramame", "Member": "N/A", "Well name/ outcrop": "CIPASA Quarry", "Latitude": "-7.530297", "Longitude": "-34.922447", "Dating evidence": "Calcareous nannofossils (Zones CC25A, CC25B, and CC25C), Foraminifera (Gansserina gansseri Zone)", "REF(Authors, Year)": "Lima and Koutsoukos, 2006", "Show_on_Ma": "70", "Lithology, structures, paleowind": "Alternating mudstones/watckestones (light grey tabular beds, massively or intensely bioturbated, presence of molluscs, vegetable remains, sulfide nodules, carbonate concretions, and fractures filled with calcite. Low to very low clay content) and argillaceous mudstones/watckestones (deep grey tabular beds with intense bioturbation, presence of molluscs, pyrite and carbonate nodules. High to very high clay content)\n\nStructures are rhythmic bedding, meteorological tidal channels, bioturbations, fitted fabric, stylolites and karstic features.", "Paleoenvironment": "Sedimentological analysis suggests a quiet, warm water depositional environment with moderate (below wave-base) depth. Foraminifera assemblages indicate deposition in an outer neritic to upper bathyal setting of a pelagic carbonate ramp system. The low diversity of the ichnofauna and abundance of Thalassinoides suggests oxygen depleted bottom-water conditions, with low do moderate energy.", "REF (Authors, Year)": "Lima and Koutsoukos, 2006", "Fossil occurrences": "Calcareous nannofossils: Ahmuellerella, Arkhangelskiella cymbiformis, Ceratolithoides, Cretarhabdus, Cribrosphaerella, Eiffellithus, Gartnerago, Helicolithus, Kamptnerius, Lithraphidites praequadratus, Loxolithus, Manivitella, Microrhabdulus, Micula murus, Nephrolithus frequens, Prediscosphaera, Retecapsa, Rhagodiscus, Staurolithites, Tegumentum, Tetrapodorhabdus, Watznaueria and Zeugrhabdotus.\n\nPlanktic foraminifera: Gansserina gansseri, Globotruncana aegyptiaca,G. arca, Globotruncanita stuartiformis, Globotruncanella havanensis, G. petaloidea, Heterohelix globulosa, Pseudoguembelina spp., Pseudotextularia\nelegans, Rugoglobigerina macrocephala, R. rugosa\n\nBenthic foraminifera: Gavelinella, Siphogenerinoides, nodosariids\n\nIchnofossils: Thalassinoides.", "REF (Authors, Year)_1": "Lima and Koutsoukos, 2006", "Geochemistry data": "d18O and d13C: Strong positive correlation with Mg, indicating heavy diagenetic alteration and thus not representative of the original oceanographic signal.\n\nNegative correlation between Ca and SI\n\nHigh phosphate concentrations (1.5%) in the 24.0?1.0m interval.", "REF (Authors, Year)_2": "Lima and Koutsoukos, 2006", "Sediment-based climate inference (hot/cold, humid/semi-arid/desert)": "Warm", "Fossil-based climate inference (hot/cold, humid/semi-arid/desert)": "Marine environment, carbonate platform", "Geochemistry-based climate inference  (hot/cold, humid/semi-arid/desert)": "Hot, dry", "Climate assignment leading evidence": "Geochemical and sedimentological analysis indicate the presence of a warm and dry environment for the basin at this moment, based on the very low siliciclastic input which led to the development of a pelagic carbonate ramp.", "Climate_Cl": "D", "Weight": "5", "PlateID": "201", "Sediment-based climate inference (hot/cold, humid/S/desert)": null, "Fossil-based climate inference (hot/cold, humid/S/desert)": null, "Geochemistry-based climate inference  (hot/cold, humid/S/desert)": null, "PaleozonaCodigo": null, "layer": "70.00Ma_point", "path": "C:/Users/Leonardo Bachi/OneDrive/Desktop/ITT_OCEANEON/20_SETEMBRO_TABELA_FINAL/PONTOS_RETIFICADOS/70.00Ma.geojson", "winner": "S", "cluster_size": 29}, "geometry": {"type": "Point", "coordinates": [-22.014051087526866, -14.45962782741373]}}, {"type": "Feature", "properties": {"ID": "1188", "Country": "Brazil", "Basin_Sub_": "Pernambuco-Paraíba", "Group": "N/A", "Formation": "Gramame", "Member": "N/A", "Well name/ outcrop": "Zebu-Cimepar Quarry", "Latitude": "-7.143889", "Longitude": "-34.899444", "Dating evidence": "Palynology: Superzone Crassitricolporties brasiliensi (P-450), Zone Tricornites elongatus (P-470)", "REF(Authors, Year)": "Oliveira, 2011", "Show_on_Ma": "70", "Lithology, structures, paleowind": "Dominantely biomicritic carbonates and marls, with intense Thalassinoides bioturbation in the marl layers.", "Paleoenvironment": "Neritic environment. The dinoflagellate assemblage indicates open marine conditions, an increase in water tempreature, and deposition relatively near the coast.", "REF (Authors, Year)": "Lima and Koutsoukos, 2002, 2004; Barbosa et al., 2003; Barbosa, 2004; Oliveira 2011", "Fossil occurrences": "Spores: Gabonisporis vigourouxii, Cicatricosisporties sp., Araucaruacites australis, Perotriletes sp., Gabonisporis spp.\nPollens: Smooth Inaperturopollenites, reticulated Inaperturopollenites, rugged Inaperturopollenites, honeycombed Inaperturopollenites, Inaperturopollenites sp., Caliallasporites sp. 2, Caliallasporites sp. 3, Aquilapollenites magnus, Clavatricolpites daemoni, Monocolpopollenites sp., Reticulatispollenites sp., Equisetosporites sp., Crassitriapertites sp.\nDinocysts: Spiniferites ramosus, Spiniferites sp. 1, Spiniferites sp. 2, Spiniferites spp., Operculodinium sp. 1, Adnatosphaeridium spp., Disphaerogena spp., Impletosphaeridium spp., Alisogymnium euclaense, Dinogymnium undulosum, Paleocystodinium bulliforme, Paleocystodinium spp., Cordosphaeridium inodes, Cordosphaeridium sp. 1, Cordosphaeridium spp., Adnatosphaeridium sp. 1, Glaphyrocysta sp. 1, Cerodinium diebelii, Polysphaeridium spp., Operculodinium centrocarpum, Cordosphaeridium spp., Fibrocysta spp., Cerodinium boloniense, Cerodinium spp., Palaeocystodinium spp., Hafniasphaera fluens, Dinogymnium acuminatum, Dinogymnium digitus, Dinogymnium spp., Oligosphaeridium complex, Operculodinium israelianum, Hystrichosphaeridium tubiferum, Hystrichosphaeridium sp., Cleistosphaeridium spp. \nOther palynomorphs: Palynoforaminifera, scolecodonts, acritarchs, Pterospermella sp.", "REF (Authors, Year)_1": "Oliveira, 2011", "Geochemistry data": "N/A", "REF (Authors, Year)_2": "N/A", "Sediment-based climate inference (hot/cold, humid/semi-arid/desert)": "Semi-arid?", "Fossil-based climate inference (hot/cold, humid/semi-arid/desert)": "Humid? Warm waters", "Geochemistry-based climate inference  (hot/cold, humid/semi-arid/desert)": "N/A", "Climate assignment leading evidence": "Carbonates and palynomorphs", "Climate_Cl": "H", "Weight": "4", "PlateID": "201", "Sediment-based climate inference (hot/cold, humid/S/desert)": null, "Fossil-based climate inference (hot/cold, humid/S/desert)": null, "Geochemistry-based climate inference  (hot/cold, humid/S/desert)": null, "PaleozonaCodigo": null, "layer": "70.00Ma_point", "path": "C:/Users/Leonardo Bachi/OneDrive/Desktop/ITT_OCEANEON/20_SETEMBRO_TABELA_FINAL/PONTOS_RETIFICADOS/70.00Ma.geojson", "winner": "S", "cluster_size": 29}, "geometry": {"type": "Point", "coordinates": [-22.001959875316732, -14.072724312421645]}}, {"type": "Feature", "properties": {"ID": "1189", "Country": "Brazil", "Basin_Sub_": "Pernambuco-Paraíba", "Group": "N/A", "Formation": "Gramame", "Member": "N/A", "Well name/ outcrop": "Cigra, S? Clemente and Cimepar Quarries", "Latitude": "-7.26167", "Longitude": "-34.935837", "Dating evidence": "Palynology: Superzone Crassitricolporties brasiliensi (P-450), Zone Tricornites elongatus (P-470)", "REF(Authors, Year)": "Oliveira, 2011", "Show_on_Ma": "70", "Lithology, structures, paleowind": "Dominantely biomicritic carbonates and marls, with intense Thalassinoides bioturbation in the marl layers.", "Paleoenvironment": "Neritic environment, with the dinoflagellate assemblage indicating distal marine conditions.", "REF (Authors, Year)": "Lima and Koutsoukos, 2002, 2004; Barbosa et al., 2003; Barbosa, 2004; Oliveira 2011", "Fossil occurrences": "Spores: Gabonisporis vigourouxii, Cicatricosisporties spp., Araucaruacites spp., Perotriletes sp., Gabonisporis spp., Reticulatisporties sp.\nPollens: Carbonified Inaperturopollenites, reticulated Inaperturopollenites, rugged Inaperturopollenites, honeycombed Inaperturopollenites, Inaperturopollenites sp., Aquilapollenites magnus, Retitricolporites sp., Equisetosporites sp., Crassitriapertites sp., Caliallasporites sp. 2\nDinocysts: Adnatosphaeridium sp. 1, Operculodinium sp. 1, Spiniferites spp., Cordosphaeridium inodes, Dinogymnium spp., Cordosphaeridium sp. 1, Operculodinium centrocarpum, Dinogymnium acuminatum, Disphaerogena spp., Hafniasphaera fluens, Impletosphaeridium spp., Alisogymnium euclaense, Spiniferites sp. 1, Dinogymnium nelsonense, Palaeocystodinium bulliforme, Palaeocystodinium lidiae, Spiniferites sp. 2, Glaphyrocysta sp 1., Fibrocysta sp. 2, Polysphaeridium spp., Spiniferites ramosus, Palaeocystodinium spp., Hystrichosphaeridium tubiferum, Dinogymnium undulosum, Oligosphaeridium complex, Operculodinium israelianum\nOther palynomorphs: Palynoforaminifera, scolecodonts, ?diatom, ?algae", "REF (Authors, Year)_1": "Oliveira, 2011", "Geochemistry data": "N/A", "REF (Authors, Year)_2": "N/A", "Sediment-based climate inference (hot/cold, humid/semi-arid/desert)": "Semi-arid?", "Fossil-based climate inference (hot/cold, humid/semi-arid/desert)": "Humid? Warm waters", "Geochemistry-based climate inference  (hot/cold, humid/semi-arid/desert)": "N/A", "Climate assignment leading evidence": "Carbonates and palynomorphs", "Climate_Cl": "H", "Weight": "5", "PlateID": "201", "Sediment-based climate inference (hot/cold, humid/S/desert)": null, "Fossil-based climate inference (hot/cold, humid/S/desert)": null, "Geochemistry-based climate inference  (hot/cold, humid/S/desert)": null, "PaleozonaCodigo": null, "layer": "70.00Ma_point", "path": "C:/Users/Leonardo Bachi/OneDrive/Desktop/ITT_OCEANEON/20_SETEMBRO_TABELA_FINAL/PONTOS_RETIFICADOS/70.00Ma.geojson", "winner": "S", "cluster_size": 29}, "geometry": {"type": "Point", "coordinates": [-22.035696191833505, -14.191491743254643]}}, {"type": "Feature", "properties": {"ID": "1191", "Country": "Brazil", "Basin_Sub_": "Pernambuco-Paraíba", "Group": "N/A", "Formation": "Gramame", "Member": "N/A", "Well name/ outcrop": "CIPASA Quarry", "Latitude": "-7.530297", "Longitude": "-34.922447", "Dating evidence": "Palynology: Superzone Crassitricolporties brasiliensi (P-450), Zone Tricornites elongatus (P-470)", "REF(Authors, Year)": "Oliveira, 2011", "Show_on_Ma": "70", "Lithology, structures, paleowind": "Dominantely biomicritic carbonates and marls, with intense Thalassinoides bioturbation in the marl layers.", "Paleoenvironment": "Neritic environment. Fully open marine conditions are suggested by the dinoflagellate fauna up to 14 m of the quarry; afterwards, up to the top at 25 m, there is a decrease in the abundance of the dinoflagellate assemblage and an increase in continental forms, suggesting that there was a shift towards shallower depths, with an increase in the presence of echinoids and benthic foraminfiera as well.", "REF (Authors, Year)": "Lima and Koutsoukos, 2002, 2004; Barbosa et al., 2003; Barbosa, 2004; Oliveira 2011", "Fossil occurrences": "Spores: Gabonisporis vigourouxii, Cicatricosisporites spp., Petrotriletes sp. Gabonisporis spp. \nPollens: Inaperturopollenites sp., smooth Inaperturopollenites, rimmed Inaperturopollenites, warty Inaperturopollenites, rugged Inaperturopollenites, Retitricolpites sp., Monocolpopollenites verrucado\nDinocysts: Glaphyrocysta sp. 1, Dinogymnium digitus, Disphaerogena spp., Cordosphaeridium inodes, Cordosphaeridium sp. 1, Dinogymnium acuminatum, Alisogymnium euclaense, Hystrichosphaeridium tubiferum, Membranophoridiu spp., Hafniasphaera fluens, Spiniferites spp., Operculodinium sp. 1, Palaeocystodinium spp., Oligosphaeridium complex, Oligosphaeridium spp., Dinogymnium nelsonense, Hystrychosphaeridium sp., Batiacasphaera sp., Operculodinium spp., Adnatosphaeridium sp. 1, Operculodinium centrocarpum, Alysogminium sp., Palaeocystodinium bulliforme, Adnatosphaeridium spp., Palaeocystodinium spp., Spiniferites sp. 1, Spiniferites ramosus, Dinogymnium spp., Yolkinigymnium sp., Spiniferites sp. , Operculodinium israelianum, Cerodinium diebelii.\nOther palynomorphs: Palynoforaminifera, acritarch, scolecodont, Cyclopsiella sp.", "REF (Authors, Year)_1": "Oliveira, 2011", "Geochemistry data": "N/A", "REF (Authors, Year)_2": "N/A", "Sediment-based climate inference (hot/cold, humid/semi-arid/desert)": "Semi-arid?", "Fossil-based climate inference (hot/cold, humid/semi-arid/desert)": "Semi-arid? Warm waters", "Geochemistry-based climate inference  (hot/cold, humid/semi-arid/desert)": "N/A", "Climate assignment leading evidence": "Carbonates", "Climate_Cl": "H", "Weight": "4", "PlateID": "201", "Sediment-based climate inference (hot/cold, humid/S/desert)": null, "Fossil-based climate inference (hot/cold, humid/S/desert)": null, "Geochemistry-based climate inference  (hot/cold, humid/S/desert)": null, "PaleozonaCodigo": null, "layer": "70.00Ma_point", "path": "C:/Users/Leonardo Bachi/OneDrive/Desktop/ITT_OCEANEON/20_SETEMBRO_TABELA_FINAL/PONTOS_RETIFICADOS/70.00Ma.geojson", "winner": "S", "cluster_size": 29}, "geometry": {"type": "Point", "coordinates": [-22.014051087526866, -14.45962782741373]}}, {"type": "Feature", "properties": {"ID": "1192", "Country": "Brazil", "Basin_Sub_": "Pernambuco-Paraíba", "Group": "N/A", "Formation": "Gramame", "Member": "N/A", "Well name/ outcrop": "Nassau Quarry", "Latitude": "-7.619167", "Longitude": "-34.864444", "Dating evidence": "Palynology: Superzone Crassitricolporties brasiliensi (P-450), Zone Tricornites elongatus (P-470), Zone Proteacedites longispinosum (P-480)", "REF(Authors, Year)": "Oliveira, 2011", "Show_on_Ma": "70", "Lithology, structures, paleowind": "Dominantely biomicritic carbonates and marls, with intense Thalassinoides bioturbation in the marl layers.", "Paleoenvironment": "Neritic environment, with the dinoflagellate assemblage indicating an external neritic/upper bathyal environment.", "REF (Authors, Year)": "Lima and Koutsoukos, 2002, 2004; Barbosa et al., 2003; Barbosa, 2004; Oliveira 2011", "Fossil occurrences": "Spores: Gabonisporis vigourouxii, Cicatricosisporites spp., Petrotriletes sp. Gabonisporis spp., Ariadnaesporites spp., Araucariacites australis, reticulated Cicatricosporites\nPollens: Retiuclated Inaperturopollenites, smooth Inaperturopollenites, warty Inaperturopollenites, Inaperturopollenites sp. 1, Crassitriapertites uesugui, Sincolporado sp., Estephanocolpado sp., Equisetosporites sp., Gnetaceapollenites sp., Monocolpopollenites sp., Reticulatispollenites sp., honeycombed Monocolpollenites\nDinocysts: Dinogymnium acuminatum, Glaphyrocysta sp. 1, Spiniferites ramosus, Spiniferites sp., Alisogymnium euclaense, Spiniferites sp. 1, Hystrichosphaeridium tubiferum, Disphaerogena corposphaeropsis, Thalassifora pelagica, Disphaerogena lemniscata, Membranophoridium spp., Dinogymnium undulosum, Hafniasphaera fluens, Cordosphaeridium inodes, Operculodinium sp. 1, Spiniferites sp. 2, Oligosphaeridium complex, Oligosphaeridium spp., Cordosphaeridium sp. 1, Tanyosphaeridium spp., Cordosphaeridium gracile, Cleistophaeridirum spp., Impletosphaeridium spp., Operculodinium sp. 1, Operculodinium centrocarpum, Polysphaeridium spp., Adnatosphaeridium spp., Cordosphaeridium spp., Fibrocysta spp., Operculodinium israelianum, Cordosphaeridium sp. 2, Dinogymnium nelsonense, Yolkinigymnium sp.\nOther palynomorphs: Palynoforaminifera, acritarch, crustacean egg, algae.", "REF (Authors, Year)_1": "Oliveira, 2011", "Geochemistry data": "N/A", "REF (Authors, Year)_2": "N/A", "Sediment-based climate inference (hot/cold, humid/semi-arid/desert)": "Semi-arid?", "Fossil-based climate inference (hot/cold, humid/semi-arid/desert)": "Humid? Warm waters", "Geochemistry-based climate inference  (hot/cold, humid/semi-arid/desert)": "N/A", "Climate assignment leading evidence": "Carbonates", "Climate_Cl": "H", "Weight": "4", "PlateID": "201", "Sediment-based climate inference (hot/cold, humid/S/desert)": null, "Fossil-based climate inference (hot/cold, humid/S/desert)": null, "Geochemistry-based climate inference  (hot/cold, humid/S/desert)": null, "PaleozonaCodigo": null, "layer": "70.00Ma_point", "path": "C:/Users/Leonardo Bachi/OneDrive/Desktop/ITT_OCEANEON/20_SETEMBRO_TABELA_FINAL/PONTOS_RETIFICADOS/70.00Ma.geojson", "winner": "S", "cluster_size": 29}, "geometry": {"type": "Point", "coordinates": [-21.95204618097462, -14.546807414553523]}}, {"type": "Feature", "properties": {"ID": "1215", "Country": "Brazil", "Basin_Sub_": "Pernambuco-Paraíba/Paraíba", "Group": "N/A", "Formation": "Gramame", "Member": "N/A", "Well name/ outcrop": "Nassau, Poty, Cipasa, Zebu, Cimepa, Cigra, Engenho Garapu and S? Clemente Quarries", "Latitude": "-7.530297", "Longitude": "-34.922447", "Dating evidence": "Palynology: Superzone Crassitricolporties brasiliensi (P-450), Zone Tricornites elongatus (P-470), Zone Proteacedites longispinosum (P-480), Zone Gabonisporis vigourouxii, Zone Dinogymnium spp., Zone Yolkinigymnium lanceolatum", "REF(Authors, Year)": "Alvez, 2019", "Show_on_Ma": "70", "Lithology, structures, paleowind": "Mudstone/wackestone and clayey mudstone/wackstone", "Paleoenvironment": "Not discussed, assumed marine due to the palynological content", "REF (Authors, Year)": "Alvez, 2019", "Fossil occurrences": "Pollen and spores: Ariadnaesporites spinosus, Aquilapollenites magnus, Gabonisporis aff. vigourouxii, Callialasporites sp. 2, Callialasporites sp. cf. Perotrilites sp. sensu Herngreen (1975), Cicatricosisporites sp., Crassitricolporites brasiliensis, Crassitriapertites uesugui, Echitricolpites communis, Cicatricosisporites spp., Sincolporado sp., Gabonisporis vigourouxii, Gnetaceapollenites sp., Longapertites proxapertitoides, Proxapertites operculatus /  Dinoflagellates: Damassadinium californicum, Disphaerogena carposphaeropsis, Disphaerogena lemniscata, Dinogymnium sp. 1, Dinogymnium sp. 2, Dinogymnium sp. 3, Dinogymnium sp. 4, Dinogymnium sp.5, Dinogymnium acuminatum, Dinogymnium digitus, Dinogymnium undulosum, Fibrocysta sp. 1, Fibrocysta sp. 2, Glaphyrocysta retiintexta, Hafniasphaera fluens, Hystrichosphaeridium spp., Impletosphaeridium spp., Glaphyrocysta semitecta, Achomosphaera spp., Oligosphaeridium complex subsp. complex, Operculodinium centrocarpum, Operculodinium centrocarpum., Adnatosphaeridium buccinum, Alisogymnium euclaense, Batiacasphaera sp., Cerodinium sp., Cerodinium diebelii, Cordosphaeridium exilimurum sp 1, Cordosphaeridium inodes, Cordosphaeridium sp. 2, Cordosphaeridium exilimurum, Impletosphaeridium spp., Operculodinium israelianum, Operculodinium centrocarpum, Paleocystodinium spp., Polysphaeridium spp., Spiniferites spp., Hafniasphaera fluens, Spiniferites sp., Spiniferites spp., Cleistosphaeridium placacanthum, Membranophoridium spp., Tanyosphaeridium spp., Yolkinigymnium lanceolatum", "REF (Authors, Year)_1": "Alvez, 2019", "Geochemistry data": "N/A", "REF (Authors, Year)_2": "N/A", "Sediment-based climate inference (hot/cold, humid/semi-arid/desert)": "N/A", "Fossil-based climate inference (hot/cold, humid/semi-arid/desert)": "Humid and Warm waters", "Geochemistry-based climate inference  (hot/cold, humid/semi-arid/desert)": "N/A", "Climate assignment leading evidence": "N/A", "Climate_Cl": "H", "Weight": "2", "PlateID": "201", "Sediment-based climate inference (hot/cold, humid/S/desert)": null, "Fossil-based climate inference (hot/cold, humid/S/desert)": null, "Geochemistry-based climate inference  (hot/cold, humid/S/desert)": null, "PaleozonaCodigo": null, "layer": "70.00Ma_point", "path": "C:/Users/Leonardo Bachi/OneDrive/Desktop/ITT_OCEANEON/20_SETEMBRO_TABELA_FINAL/PONTOS_RETIFICADOS/70.00Ma.geojson", "winner": "S", "cluster_size": 29}, "geometry": {"type": "Point", "coordinates": [-22.014051087526866, -14.45962782741373]}}, {"type": "Feature", "properties": {"ID": "3152", "Country": "Venezuela", "Basin_Sub_": "Maracaibo", "Group": " ", "Formation": "La Luna", "Member": null, "Well name/ outcrop": null, "Latitude": "9", "Longitude": "-72.6", "Dating evidence": null, "REF(Authors, Year)": null, "Show_on_Ma": "70", "Lithology, structures, paleowind": null, "Paleoenvironment": null, "REF (Authors, Year)": null, "Fossil occurrences": null, "REF (Authors, Year)_1": null, "Geochemistry data": null, "REF (Authors, Year)_2": null, "Sediment-based climate inference (hot/cold, humid/semi-arid/desert)": null, "Fossil-based climate inference (hot/cold, humid/semi-arid/desert)": null, "Geochemistry-based climate inference  (hot/cold, humid/semi-arid/desert)": null, "Climate assignment leading evidence": null, "Climate_Cl": "S", "Weight": "1", "PlateID": "2030", "Sediment-based climate inference (hot/cold, humid/S/desert)": null, "Fossil-based climate inference (hot/cold, humid/S/desert)": null, "Geochemistry-based climate inference  (hot/cold, humid/S/desert)": null, "PaleozonaCodigo": null, "layer": "70.00Ma_point", "path": "C:/Users/Leonardo Bachi/OneDrive/Desktop/ITT_OCEANEON/20_SETEMBRO_TABELA_FINAL/PONTOS_RETIFICADOS/70.00Ma.geojson", "winner": "H", "cluster_size": 3}, "geometry": {"type": "Point", "coordinates": [-61.36616636240525, 0.77341807751952]}}]}