{"type": "FeatureCollection", "features": [{"type": "Feature", "properties": {"Climate_Cl": "S", "votes": 4, "cluster_size": 4, "tie": false, "status": "majority", "member_ids": "42,44,48,122"}, "geometry": {"type": "Point", "coordinates": [-0.7869280055980348, 21.343212958766337]}}, {"type": "Feature", "properties": {"Climate_Cl": "S", "votes": 1, "cluster_size": 1, "tie": false, "status": "majority", "member_ids": "46"}, "geometry": {"type": "Point", "coordinates": [0.882262809082562, 21.20337121508599]}}, {"type": "Feature", "properties": {"Climate_Cl": "S", "votes": 1, "cluster_size": 1, "tie": false, "status": "majority", "member_ids": "178"}, "geometry": {"type": "Point", "coordinates": [0.170926697090955, -23.215963733091453]}}, {"type": "Feature", "properties": {"Climate_Cl": "H", "votes": 1, "cluster_size": 1, "tie": false, "status": "majority", "member_ids": "202"}, "geometry": {"type": "Point", "coordinates": [-63.96191887163254, -56.929036463282586]}}, {"type": "Feature", "properties": {"Climate_Cl": "H", "votes": 1, "cluster_size": 1, "tie": false, "status": "majority", "member_ids": "211"}, "geometry": {"type": "Point", "coordinates": [-64.49541238853885, -56.950232997238174]}}, {"type": "Feature", "properties": {"Climate_Cl": "H", "votes": 1, "cluster_size": 1, "tie": false, "status": "majority", "member_ids": "249"}, "geometry": {"type": "Point", "coordinates": [-60.082175025912576, -49.83035738634682]}}, {"type": "Feature", "properties": {"Climate_Cl": "H", "votes": 1, "cluster_size": 1, "tie": false, "status": "majority", "member_ids": "254"}, "geometry": {"type": "Point", "coordinates": [-58.11068633366198, -51.37079027527755]}}, {"type": "Feature", "properties": {"Climate_Cl": "H", "votes": 1, "cluster_size": 1, "tie": false, "status": "majority", "member_ids": "274"}, "geometry": {"type": "Point", "coordinates": [-60.41970289403454, -52.56506684170397]}}, {"type": "Feature", "properties": {"Climate_Cl": "S", "votes": 1, "cluster_size": 1, "tie": false, "status": "majority", "member_ids": "289"}, "geometry": {"type": "Point", "coordinates": [-56.11694426594222, -47.17332892581188]}}, {"type": "Feature", "properties": {"Climate_Cl": "S", "votes": 1, "cluster_size": 1, "tie": false, "status": "majority", "member_ids": "314"}, "geometry": {"type": "Point", "coordinates": [-58.80712746589832, -43.414786386705366]}}, {"type": "Feature", "properties": {"Climate_Cl": "D", "votes": 1, "cluster_size": 1, "tie": false, "status": "majority", "member_ids": "354"}, "geometry": {"type": "Point", "coordinates": [-49.71541412585314, -49.88951546772622]}}, {"type": "Feature", "properties": {"Climate_Cl": "S", "votes": 1, "cluster_size": 1, "tie": false, "status": "majority", "member_ids": "386"}, "geometry": {"type": "Point", "coordinates": [-53.52037140872275, -33.252323895344595]}}, {"type": "Feature", "properties": {"Climate_Cl": "H", "votes": 1, "cluster_size": 1, "tie": false, "status": "majority", "member_ids": "390"}, "geometry": {"type": "Point", "coordinates": [-53.09697972055546, -32.76818915903833]}}, {"type": "Feature", "properties": {"Climate_Cl": "D", "votes": 1, "cluster_size": 1, "tie": false, "status": "majority", "member_ids": "413"}, "geometry": {"type": "Point", "coordinates": [-53.14897552612225, -25.502323016287956]}}, {"type": "Feature", "properties": {"Climate_Cl": "D", "votes": 1, "cluster_size": 1, "tie": false, "status": "majority", "member_ids": "431"}, "geometry": {"type": "Point", "coordinates": [-52.8857383029979, -26.5185310966713]}}, {"type": "Feature", "properties": {"Climate_Cl": "H", "votes": 1, "cluster_size": 1, "tie": false, "status": "majority", "member_ids": "442"}, "geometry": {"type": "Point", "coordinates": [-60.54134180788844, -14.005554408497012]}}, {"type": "Feature", "properties": {"Climate_Cl": "H", "votes": 1, "cluster_size": 2, "tie": true, "status": "tie", "member_ids": "600,607"}, "geometry": {"type": "Point", "coordinates": [-25.0535833250979, -8.648095174368404]}}, {"type": "Feature", "properties": {"Climate_Cl": "S", "votes": 1, "cluster_size": 2, "tie": true, "status": "tie", "member_ids": "600,607"}, "geometry": {"type": "Point", "coordinates": [-25.0535833250979, -8.648095174368404]}}, {"type": "Feature", "properties": {"Climate_Cl": "H", "votes": 3, "cluster_size": 3, "tie": false, "status": "majority", "member_ids": "671,681,687"}, "geometry": {"type": "Point", "coordinates": [-25.8687790479059, -31.156262823765047]}}, {"type": "Feature", "properties": {"Climate_Cl": "H", "votes": 1, "cluster_size": 1, "tie": false, "status": "majority", "member_ids": "754"}, "geometry": {"type": "Point", "coordinates": [-25.293777392293187, -28.03736370754251]}}, {"type": "Feature", "properties": {"Climate_Cl": "H", "votes": 1, "cluster_size": 1, "tie": false, "status": "majority", "member_ids": "782"}, "geometry": {"type": "Point", "coordinates": [-34.61460273518148, -5.131868929966586]}}, {"type": "Feature", "properties": {"Climate_Cl": "H", "votes": 1, "cluster_size": 1, "tie": false, "status": "majority", "member_ids": "799"}, "geometry": {"type": "Point", "coordinates": [-36.288259572609604, -3.552610492908352]}}, {"type": "Feature", "properties": {"Climate_Cl": "H", "votes": 1, "cluster_size": 1, "tie": false, "status": "majority", "member_ids": "847"}, "geometry": {"type": "Point", "coordinates": [-23.793617603639735, -20.83458909701356]}}, {"type": "Feature", "properties": {"Climate_Cl": "H", "votes": 1, "cluster_size": 1, "tie": false, "status": "majority", "member_ids": "898"}, "geometry": {"type": "Point", "coordinates": [-23.311368130346477, -23.628491190870044]}}, {"type": "Feature", "properties": {"Climate_Cl": "S", "votes": 1, "cluster_size": 1, "tie": false, "status": "majority", "member_ids": "932"}, "geometry": {"type": "Point", "coordinates": [-36.20587004374507, -10.108056471469148]}}, {"type": "Feature", "properties": {"Climate_Cl": "S", "votes": 1, "cluster_size": 1, "tie": false, "status": "majority", "member_ids": "939"}, "geometry": {"type": "Point", "coordinates": [-25.388254233702217, -26.152109968573786]}}, {"type": "Feature", "properties": {"Climate_Cl": "H", "votes": 2, "cluster_size": 2, "tie": false, "status": "majority", "member_ids": "975,979"}, "geometry": {"type": "Point", "coordinates": [-31.12006004051286, -8.163966230306515]}}, {"type": "Feature", "properties": {"Climate_Cl": "D", "votes": 1, "cluster_size": 1, "tie": false, "status": "majority", "member_ids": "1056"}, "geometry": {"type": "Point", "coordinates": [-43.67547515156883, -19.918868687945558]}}, {"type": "Feature", "properties": {"Climate_Cl": "H", "votes": 2, "cluster_size": 2, "tie": false, "status": "majority", "member_ids": "1103,1113"}, "geometry": {"type": "Point", "coordinates": [-36.76425013004379, -39.6829647537589]}}, {"type": "Feature", "properties": {"Climate_Cl": "H", "votes": 1, "cluster_size": 1, "tie": false, "status": "majority", "member_ids": "1108"}, "geometry": {"type": "Point", "coordinates": [-34.12588061936599, -36.73476015066348]}}, {"type": "Feature", "properties": {"Climate_Cl": "S", "votes": 1, "cluster_size": 1, "tie": false, "status": "majority", "member_ids": "1125"}, "geometry": {"type": "Point", "coordinates": [-25.802290590738167, -37.15601110184944]}}, {"type": "Feature", "properties": {"Climate_Cl": "S", "votes": 6, "cluster_size": 6, "tie": false, "status": "majority", "member_ids": "1150,1154,1196,1199,1222,1225"}, "geometry": {"type": "Point", "coordinates": [-20.729627311938387, -15.895716943316359]}}, {"type": "Feature", "properties": {"Climate_Cl": "S", "votes": 3, "cluster_size": 3, "tie": false, "status": "majority", "member_ids": "1173,1179,1185"}, "geometry": {"type": "Point", "coordinates": [-20.09874141877928, -15.230031120924844]}}, {"type": "Feature", "properties": {"Climate_Cl": "S", "votes": 3, "cluster_size": 3, "tie": false, "status": "majority", "member_ids": "1228,1231,1234"}, "geometry": {"type": "Point", "coordinates": [-21.974699832661557, -11.105976484600795]}}, {"type": "Feature", "properties": {"Climate_Cl": "D", "votes": 7, "cluster_size": 7, "tie": false, "status": "majority", "member_ids": "1442,1443,1444,1445,1446,1447,1498"}, "geometry": {"type": "Point", "coordinates": [-32.50128302905163, -26.155536386841316]}}, {"type": "Feature", "properties": {"Climate_Cl": "S", "votes": 2, "cluster_size": 2, "tie": false, "status": "majority", "member_ids": "1503,1504"}, "geometry": {"type": "Point", "coordinates": [-33.469668614761446, -27.14699027565655]}}, {"type": "Feature", "properties": {"Climate_Cl": "S", "votes": 1, "cluster_size": 1, "tie": false, "status": "majority", "member_ids": "1541"}, "geometry": {"type": "Point", "coordinates": [-30.993360393509654, -33.66484162006248]}}, {"type": "Feature", "properties": {"Climate_Cl": "H", "votes": 2, "cluster_size": 4, "tie": true, "status": "tie", "member_ids": "1587,1588,1615,1616"}, "geometry": {"type": "Point", "coordinates": [-21.30531235287139, -19.095283377915905]}}, {"type": "Feature", "properties": {"Climate_Cl": "S", "votes": 2, "cluster_size": 4, "tie": true, "status": "tie", "member_ids": "1587,1588,1615,1616"}, "geometry": {"type": "Point", "coordinates": [-21.30531235287139, -19.095283377915905]}}, {"type": "Feature", "properties": {"Climate_Cl": "H", "votes": 2, "cluster_size": 2, "tie": false, "status": "majority", "member_ids": "1675,1676"}, "geometry": {"type": "Point", "coordinates": [-51.78131011106259, -12.55503130451155]}}, {"type": "Feature", "properties": {"Climate_Cl": "H", "votes": 1, "cluster_size": 1, "tie": false, "status": "majority", "member_ids": "1677"}, "geometry": {"type": "Point", "coordinates": [-48.72261774779398, -12.70844902099403]}}, {"type": "Feature", "properties": {"Climate_Cl": "H", "votes": 1, "cluster_size": 1, "tie": false, "status": "majority", "member_ids": "1702"}, "geometry": {"type": "Point", "coordinates": [-1.699683903862485, -9.865101243105421]}}, {"type": "Feature", "properties": {"Climate_Cl": "H", "votes": 1, "cluster_size": 1, "tie": false, "status": "majority", "member_ids": "1862"}, "geometry": {"type": "Point", "coordinates": [-62.66482702564228, -55.84084807005959]}}, {"type": "Feature", "properties": {"Climate_Cl": "H", "votes": 1, "cluster_size": 1, "tie": false, "status": "majority", "member_ids": "1868"}, "geometry": {"type": "Point", "coordinates": [-64.76285079913046, -58.27889693420354]}}, {"type": "Feature", "properties": {"Climate_Cl": "H", "votes": 1, "cluster_size": 1, "tie": false, "status": "majority", "member_ids": "1872"}, "geometry": {"type": "Point", "coordinates": [-64.70225542296151, -57.64965738778686]}}, {"type": "Feature", "properties": {"Climate_Cl": "S", "votes": 2, "cluster_size": 2, "tie": false, "status": "majority", "member_ids": "1898,1899"}, "geometry": {"type": "Point", "coordinates": [-58.48328428615286, -36.21048116707503]}}, {"type": "Feature", "properties": {"Climate_Cl": "S", "votes": 2, "cluster_size": 2, "tie": false, "status": "majority", "member_ids": "1910,1911"}, "geometry": {"type": "Point", "coordinates": [-58.73705261523892, -35.19086886791079]}}, {"type": "Feature", "properties": {"Climate_Cl": "H", "votes": 1, "cluster_size": 1, "tie": false, "status": "majority", "member_ids": "2003"}, "geometry": {"type": "Point", "coordinates": [-62.370442459854154, -7.850993801087761]}}, {"type": "Feature", "properties": {"Climate_Cl": "H", "votes": 2, "cluster_size": 2, "tie": false, "status": "majority", "member_ids": "2004,2005"}, "geometry": {"type": "Point", "coordinates": [-63.53192009771259, -6.756514088923605]}}, {"type": "Feature", "properties": {"Climate_Cl": "H", "votes": 1, "cluster_size": 1, "tie": false, "status": "majority", "member_ids": "2050"}, "geometry": {"type": "Point", "coordinates": [-10.089448606127377, -6.956225214549488]}}, {"type": "Feature", "properties": {"Climate_Cl": "H", "votes": 4, "cluster_size": 4, "tie": false, "status": "majority", "member_ids": "2054,2057,2060,2063"}, "geometry": {"type": "Point", "coordinates": [-14.617250190362125, -7.463277491151933]}}, {"type": "Feature", "properties": {"Climate_Cl": "H", "votes": 1, "cluster_size": 1, "tie": false, "status": "majority", "member_ids": "2096"}, "geometry": {"type": "Point", "coordinates": [8.43935483236412, 13.87985575404431]}}, {"type": "Feature", "properties": {"Climate_Cl": "H", "votes": 1, "cluster_size": 1, "tie": false, "status": "majority", "member_ids": "2105"}, "geometry": {"type": "Point", "coordinates": [10.734435316297109, 14.252256362321829]}}, {"type": "Feature", "properties": {"Climate_Cl": "S", "votes": 1, "cluster_size": 1, "tie": false, "status": "majority", "member_ids": "2111"}, "geometry": {"type": "Point", "coordinates": [2.895694468996684, 15.958827388383831]}}, {"type": "Feature", "properties": {"Climate_Cl": "S", "votes": 1, "cluster_size": 1, "tie": false, "status": "majority", "member_ids": "2117"}, "geometry": {"type": "Point", "coordinates": [6.203188353679927, 14.160425430059696]}}, {"type": "Feature", "properties": {"Climate_Cl": "S", "votes": 1, "cluster_size": 1, "tie": false, "status": "majority", "member_ids": "2234"}, "geometry": {"type": "Point", "coordinates": [-1.622928253029806, -28.51889522004251]}}, {"type": "Feature", "properties": {"Climate_Cl": "H", "votes": 1, "cluster_size": 2, "tie": true, "status": "tie", "member_ids": "2256,2259"}, "geometry": {"type": "Point", "coordinates": [-4.200796700731203, 1.815278091217407]}}, {"type": "Feature", "properties": {"Climate_Cl": "S", "votes": 1, "cluster_size": 2, "tie": true, "status": "tie", "member_ids": "2256,2259"}, "geometry": {"type": "Point", "coordinates": [-4.200796700731203, 1.815278091217407]}}, {"type": "Feature", "properties": {"Climate_Cl": "H", "votes": 2, "cluster_size": 2, "tie": false, "status": "majority", "member_ids": "2331,2339"}, "geometry": {"type": "Point", "coordinates": [-4.672984577232131, -7.006526838429012]}}, {"type": "Feature", "properties": {"Climate_Cl": "H", "votes": 1, "cluster_size": 1, "tie": false, "status": "majority", "member_ids": "2342"}, "geometry": {"type": "Point", "coordinates": [-3.298224693497697, -7.955048018448318]}}, {"type": "Feature", "properties": {"Climate_Cl": "H", "votes": 1, "cluster_size": 1, "tie": false, "status": "majority", "member_ids": "2376"}, "geometry": {"type": "Point", "coordinates": [-3.082708226036687, -8.800807397283732]}}, {"type": "Feature", "properties": {"Climate_Cl": "S", "votes": 1, "cluster_size": 1, "tie": false, "status": "majority", "member_ids": "2426"}, "geometry": {"type": "Point", "coordinates": [-63.71253549476198, -16.775020216005952]}}, {"type": "Feature", "properties": {"Climate_Cl": "S", "votes": 1, "cluster_size": 1, "tie": false, "status": "majority", "member_ids": "2445"}, "geometry": {"type": "Point", "coordinates": [-58.64079891996024, -20.154794249137737]}}, {"type": "Feature", "properties": {"Climate_Cl": "H", "votes": 1, "cluster_size": 1, "tie": false, "status": "majority", "member_ids": "2449"}, "geometry": {"type": "Point", "coordinates": [-63.27444433502797, -12.796243740176497]}}, {"type": "Feature", "properties": {"Climate_Cl": "H", "votes": 1, "cluster_size": 1, "tie": false, "status": "majority", "member_ids": "2470"}, "geometry": {"type": "Point", "coordinates": [-61.85584760877887, -13.908382012355105]}}, {"type": "Feature", "properties": {"Climate_Cl": "H", "votes": 1, "cluster_size": 1, "tie": false, "status": "majority", "member_ids": "2484"}, "geometry": {"type": "Point", "coordinates": [-61.45564152306817, -14.941295286798397]}}, {"type": "Feature", "properties": {"Climate_Cl": "H", "votes": 1, "cluster_size": 1, "tie": false, "status": "majority", "member_ids": "2499"}, "geometry": {"type": "Point", "coordinates": [-1.129656150751498, -19.05920305257694]}}, {"type": "Feature", "properties": {"Climate_Cl": "H", "votes": 1, "cluster_size": 3, "tie": true, "status": "tie", "member_ids": "2530,2579,2625"}, "geometry": {"type": "Point", "coordinates": [-25.760575417185247, 5.24362318216883]}}, {"type": "Feature", "properties": {"Climate_Cl": "S", "votes": 1, "cluster_size": 3, "tie": true, "status": "tie", "member_ids": "2530,2579,2625"}, "geometry": {"type": "Point", "coordinates": [-25.760575417185247, 5.24362318216883]}}, {"type": "Feature", "properties": {"Climate_Cl": "D", "votes": 1, "cluster_size": 3, "tie": true, "status": "tie", "member_ids": "2530,2579,2625"}, "geometry": {"type": "Point", "coordinates": [-25.760575417185247, 5.24362318216883]}}, {"type": "Feature", "properties": {"Climate_Cl": "H", "votes": 1, "cluster_size": 2, "tie": true, "status": "tie", "member_ids": "2547,2612"}, "geometry": {"type": "Point", "coordinates": [-27.679245732320066, 3.056745866904429]}}, {"type": "Feature", "properties": {"Climate_Cl": "S", "votes": 1, "cluster_size": 2, "tie": true, "status": "tie", "member_ids": "2547,2612"}, "geometry": {"type": "Point", "coordinates": [-27.679245732320066, 3.056745866904429]}}, {"type": "Feature", "properties": {"Climate_Cl": "H", "votes": 1, "cluster_size": 1, "tie": false, "status": "majority", "member_ids": "2564"}, "geometry": {"type": "Point", "coordinates": [-24.954140746939224, 6.591833393062074]}}, {"type": "Feature", "properties": {"Climate_Cl": "S", "votes": 1, "cluster_size": 1, "tie": false, "status": "majority", "member_ids": "2574"}, "geometry": {"type": "Point", "coordinates": [-24.365828907313166, 3.164976923159639]}}, {"type": "Feature", "properties": {"Climate_Cl": "S", "votes": 1, "cluster_size": 1, "tie": false, "status": "majority", "member_ids": "2651"}, "geometry": {"type": "Point", "coordinates": [1.821483869055741, 25.265992562426664]}}, {"type": "Feature", "properties": {"Climate_Cl": "S", "votes": 1, "cluster_size": 1, "tie": false, "status": "majority", "member_ids": "2657"}, "geometry": {"type": "Point", "coordinates": [3.400461291877695, 19.96246930960765]}}, {"type": "Feature", "properties": {"Climate_Cl": "S", "votes": 1, "cluster_size": 1, "tie": false, "status": "majority", "member_ids": "2767"}, "geometry": {"type": "Point", "coordinates": [1.79747880852857, 19.844130198130024]}}, {"type": "Feature", "properties": {"Climate_Cl": "H", "votes": 1, "cluster_size": 1, "tie": false, "status": "majority", "member_ids": "2879"}, "geometry": {"type": "Point", "coordinates": [2.814541509849062, 22.196039850760368]}}, {"type": "Feature", "properties": {"Climate_Cl": "H", "votes": 1, "cluster_size": 1, "tie": false, "status": "majority", "member_ids": "2975"}, "geometry": {"type": "Point", "coordinates": [-45.7010108397053, -40.8652389646024]}}, {"type": "Feature", "properties": {"Climate_Cl": "H", "votes": 1, "cluster_size": 1, "tie": false, "status": "majority", "member_ids": "2990"}, "geometry": {"type": "Point", "coordinates": [-42.38404117645091, -42.97596846315156]}}, {"type": "Feature", "properties": {"Climate_Cl": "H", "votes": 1, "cluster_size": 1, "tie": false, "status": "majority", "member_ids": "3014"}, "geometry": {"type": "Point", "coordinates": [-57.55599138039613, 1.389790279124046]}}, {"type": "Feature", "properties": {"Climate_Cl": "H", "votes": 1, "cluster_size": 1, "tie": false, "status": "majority", "member_ids": "3030"}, "geometry": {"type": "Point", "coordinates": [-56.396032013389096, 0.220969935477603]}}, {"type": "Feature", "properties": {"Climate_Cl": "H", "votes": 1, "cluster_size": 1, "tie": false, "status": "majority", "member_ids": "3068"}, "geometry": {"type": "Point", "coordinates": [-48.863733522753236, 1.961121987292498]}}, {"type": "Feature", "properties": {"Climate_Cl": "H", "votes": 1, "cluster_size": 1, "tie": false, "status": "majority", "member_ids": "3069"}, "geometry": {"type": "Point", "coordinates": [-49.448174789192095, 2.065044709195209]}}, {"type": "Feature", "properties": {"Climate_Cl": "H", "votes": 1, "cluster_size": 1, "tie": false, "status": "majority", "member_ids": "3107"}, "geometry": {"type": "Point", "coordinates": [-58.435746090203764, 0.30014932909945]}}, {"type": "Feature", "properties": {"Climate_Cl": "H", "votes": 2, "cluster_size": 3, "tie": false, "status": "majority", "member_ids": "3146,3147,3148"}, "geometry": {"type": "Point", "coordinates": [-60.0092485565003, 0.153593778904658]}}, {"type": "Feature", "properties": {"Climate_Cl": "H", "votes": 1, "cluster_size": 2, "tie": true, "status": "tie", "member_ids": "3149,3150"}, "geometry": {"type": "Point", "coordinates": [-59.484684630149346, -0.802551110419361]}}, {"type": "Feature", "properties": {"Climate_Cl": "S", "votes": 1, "cluster_size": 2, "tie": true, "status": "tie", "member_ids": "3149,3150"}, "geometry": {"type": "Point", "coordinates": [-59.484684630149346, -0.802551110419361]}}]}