{"type": "FeatureCollection", "features": [{"type": "Feature", "properties": {"ID": "2002", "Country": "Equador", "Basin_Sub_": "Oriente", "Group": "N/A", "Formation": "Napo", "Member": null, "Well name/ outcrop": null, "Latitude": "0", "Longitude": "-77.16", "Dating evidence": null, "REF(Authors, Year)": null, "Show_on_Ma": "80", "Lithology, structures, paleowind": null, "Paleoenvironment": null, "REF (Authors, Year)": null, "Fossil occurrences": null, "REF (Authors, Year)_1": null, "Geochemistry data": null, "REF (Authors, Year)_2": null, "Sediment-based climate inference (hot/cold, humid/semi-arid/desert)": null, "Fossil-based climate inference (hot/cold, humid/semi-arid/desert)": null, "Geochemistry-based climate inference  (hot/cold, humid/semi-arid/desert)": null, "Climate assignment leading evidence": null, "Climate_Cl": "S", "Weight": "1", "PlateID": "201", "Sediment-based climate inference (hot/cold, humid/S/desert)": null, "Fossil-based climate inference (hot/cold, humid/S/desert)": null, "Geochemistry-based climate inference  (hot/cold, humid/S/desert)": null, "PaleozonaCodigo": null, "layer": "80.00Ma_point", "path": "C:/Users/Leonardo Bachi/OneDrive/Desktop/ITT_OCEANEON/20_SETEMBRO_TABELA_FINAL/PONTOS_RETIFICADOS/80.00Ma.geojson", "winner": "H", "cluster_size": 3}, "geometry": {"type": "Point", "coordinates": [-62.33657738019179, -7.460180895807873]}}, {"type": "Feature", "properties": {"ID": "3143", "Country": "Venezuela", "Basin_Sub_": "Maracaibo", "Group": " ", "Formation": "La Luna", "Member": null, "Well name/ outcrop": null, "Latitude": "8", "Longitude": "-72.16", "Dating evidence": null, "REF(Authors, Year)": null, "Show_on_Ma": "80", "Lithology, structures, paleowind": null, "Paleoenvironment": null, "REF (Authors, Year)": null, "Fossil occurrences": null, "REF (Authors, Year)_1": null, "Geochemistry data": null, "REF (Authors, Year)_2": null, "Sediment-based climate inference (hot/cold, humid/semi-arid/desert)": null, "Fossil-based climate inference (hot/cold, humid/semi-arid/desert)": null, "Geochemistry-based climate inference  (hot/cold, humid/semi-arid/desert)": null, "Climate assignment leading evidence": null, "Climate_Cl": "S", "Weight": "4", "PlateID": "2030", "Sediment-based climate inference (hot/cold, humid/S/desert)": null, "Fossil-based climate inference (hot/cold, humid/S/desert)": null, "Geochemistry-based climate inference  (hot/cold, humid/S/desert)": null, "PaleozonaCodigo": null, "layer": "80.00Ma_point", "path": "C:/Users/Leonardo Bachi/OneDrive/Desktop/ITT_OCEANEON/20_SETEMBRO_TABELA_FINAL/PONTOS_RETIFICADOS/80.00Ma.geojson", "winner": "H", "cluster_size": 3}, "geometry": {"type": "Point", "coordinates": [-58.1717414674138, -1.584711437091679]}}]}