{"type": "FeatureCollection", "features": [{"type": "Feature", "properties": {"Climate_Cl": "S", "votes": 1, "cluster_size": 1, "tie": false, "status": "majority", "member_ids": "43"}, "geometry": {"type": "Point", "coordinates": [-0.895591081314051, 19.26238361779969]}}, {"type": "Feature", "properties": {"Climate_Cl": "S", "votes": 1, "cluster_size": 1, "tie": false, "status": "majority", "member_ids": "45"}, "geometry": {"type": "Point", "coordinates": [0.820863675727259, 19.133718296456802]}}, {"type": "Feature", "properties": {"Climate_Cl": "S", "votes": 1, "cluster_size": 1, "tie": false, "status": "majority", "member_ids": "121"}, "geometry": {"type": "Point", "coordinates": [-0.6958174601481, 19.550638429709586]}}, {"type": "Feature", "properties": {"Climate_Cl": "H", "votes": 1, "cluster_size": 1, "tie": false, "status": "majority", "member_ids": "201"}, "geometry": {"type": "Point", "coordinates": [-64.39499086301308, -57.60826619992752]}}, {"type": "Feature", "properties": {"Climate_Cl": "H", "votes": 1, "cluster_size": 1, "tie": false, "status": "majority", "member_ids": "210"}, "geometry": {"type": "Point", "coordinates": [-64.93942759623825, -57.618741885299315]}}, {"type": "Feature", "properties": {"Climate_Cl": "H", "votes": 1, "cluster_size": 1, "tie": false, "status": "majority", "member_ids": "248"}, "geometry": {"type": "Point", "coordinates": [-60.049593569172984, -50.58931126965637]}}, {"type": "Feature", "properties": {"Climate_Cl": "H", "votes": 1, "cluster_size": 1, "tie": false, "status": "majority", "member_ids": "273"}, "geometry": {"type": "Point", "coordinates": [-60.52827474976659, -53.31628497555606]}}, {"type": "Feature", "properties": {"Climate_Cl": "S", "votes": 1, "cluster_size": 1, "tie": false, "status": "majority", "member_ids": "288"}, "geometry": {"type": "Point", "coordinates": [-55.90776838618514, -48.007061771138815]}}, {"type": "Feature", "properties": {"Climate_Cl": "H", "votes": 1, "cluster_size": 1, "tie": false, "status": "majority", "member_ids": "291"}, "geometry": {"type": "Point", "coordinates": [-57.97159996860202, -46.971051226407624]}}, {"type": "Feature", "properties": {"Climate_Cl": "S", "votes": 1, "cluster_size": 1, "tie": false, "status": "majority", "member_ids": "295"}, "geometry": {"type": "Point", "coordinates": [-57.6513919965124, -46.93087867541136]}}, {"type": "Feature", "properties": {"Climate_Cl": "S", "votes": 1, "cluster_size": 1, "tie": false, "status": "majority", "member_ids": "313"}, "geometry": {"type": "Point", "coordinates": [-58.49429932156031, -44.20028344854241]}}, {"type": "Feature", "properties": {"Climate_Cl": "D", "votes": 1, "cluster_size": 1, "tie": false, "status": "majority", "member_ids": "353"}, "geometry": {"type": "Point", "coordinates": [-49.50181265592582, -50.832761783000954]}}, {"type": "Feature", "properties": {"Climate_Cl": "S", "votes": 1, "cluster_size": 1, "tie": false, "status": "majority", "member_ids": "385"}, "geometry": {"type": "Point", "coordinates": [-52.84267969655309, -34.135807560055454]}}, {"type": "Feature", "properties": {"Climate_Cl": "D", "votes": 1, "cluster_size": 1, "tie": false, "status": "majority", "member_ids": "412"}, "geometry": {"type": "Point", "coordinates": [-52.29014479712625, -26.393721383000898]}}, {"type": "Feature", "properties": {"Climate_Cl": "D", "votes": 1, "cluster_size": 1, "tie": false, "status": "majority", "member_ids": "430"}, "geometry": {"type": "Point", "coordinates": [-52.04660711199261, -27.41425053164587]}}, {"type": "Feature", "properties": {"Climate_Cl": "H", "votes": 2, "cluster_size": 2, "tie": false, "status": "majority", "member_ids": "440,441"}, "geometry": {"type": "Point", "coordinates": [-59.48422291770351, -14.765466613916718]}}, {"type": "Feature", "properties": {"Climate_Cl": "H", "votes": 1, "cluster_size": 2, "tie": true, "status": "tie", "member_ids": "599,606"}, "geometry": {"type": "Point", "coordinates": [-23.79011906044964, -9.897004169939564]}}, {"type": "Feature", "properties": {"Climate_Cl": "S", "votes": 1, "cluster_size": 2, "tie": true, "status": "tie", "member_ids": "599,606"}, "geometry": {"type": "Point", "coordinates": [-23.79011906044964, -9.897004169939564]}}, {"type": "Feature", "properties": {"Climate_Cl": "H", "votes": 3, "cluster_size": 3, "tie": false, "status": "majority", "member_ids": "670,680,686"}, "geometry": {"type": "Point", "coordinates": [-24.818178440617913, -32.3979471979208]}}, {"type": "Feature", "properties": {"Climate_Cl": "H", "votes": 1, "cluster_size": 1, "tie": false, "status": "majority", "member_ids": "677"}, "geometry": {"type": "Point", "coordinates": [-25.661186760351104, -33.61560916991449]}}, {"type": "Feature", "properties": {"Climate_Cl": "H", "votes": 1, "cluster_size": 1, "tie": false, "status": "majority", "member_ids": "753"}, "geometry": {"type": "Point", "coordinates": [-24.20262731721014, -29.283752611313055]}}, {"type": "Feature", "properties": {"Climate_Cl": "H", "votes": 1, "cluster_size": 1, "tie": false, "status": "majority", "member_ids": "781"}, "geometry": {"type": "Point", "coordinates": [-33.34347421235337, -6.290499880180218]}}, {"type": "Feature", "properties": {"Climate_Cl": "H", "votes": 1, "cluster_size": 1, "tie": false, "status": "majority", "member_ids": "798"}, "geometry": {"type": "Point", "coordinates": [-35.00164112456422, -4.692128604244666]}}, {"type": "Feature", "properties": {"Climate_Cl": "H", "votes": 1, "cluster_size": 1, "tie": false, "status": "majority", "member_ids": "846"}, "geometry": {"type": "Point", "coordinates": [-22.620725797644017, -22.092531821547215]}}, {"type": "Feature", "properties": {"Climate_Cl": "H", "votes": 1, "cluster_size": 1, "tie": false, "status": "majority", "member_ids": "897"}, "geometry": {"type": "Point", "coordinates": [-22.15752252721981, -24.889796961541766]}}, {"type": "Feature", "properties": {"Climate_Cl": "S", "votes": 1, "cluster_size": 1, "tie": false, "status": "majority", "member_ids": "938"}, "geometry": {"type": "Point", "coordinates": [-24.27928962005349, -27.39783033184154]}}, {"type": "Feature", "properties": {"Climate_Cl": "H", "votes": 2, "cluster_size": 2, "tie": false, "status": "majority", "member_ids": "974,978"}, "geometry": {"type": "Point", "coordinates": [-29.872568834267852, -9.359372073115324]}}, {"type": "Feature", "properties": {"Climate_Cl": "S", "votes": 1, "cluster_size": 1, "tie": false, "status": "majority", "member_ids": "997"}, "geometry": {"type": "Point", "coordinates": [-33.41646121572898, -31.644960860097285]}}, {"type": "Feature", "properties": {"Climate_Cl": "S", "votes": 1, "cluster_size": 1, "tie": false, "status": "majority", "member_ids": "999"}, "geometry": {"type": "Point", "coordinates": [-33.343267268315266, -29.052623328413677]}}, {"type": "Feature", "properties": {"Climate_Cl": "S", "votes": 1, "cluster_size": 1, "tie": false, "status": "majority", "member_ids": "1000"}, "geometry": {"type": "Point", "coordinates": [-35.7848177876722, -31.547259141699314]}}, {"type": "Feature", "properties": {"Climate_Cl": "S", "votes": 1, "cluster_size": 1, "tie": false, "status": "majority", "member_ids": "1002"}, "geometry": {"type": "Point", "coordinates": [-33.41679372860454, -31.17378239553191]}}, {"type": "Feature", "properties": {"Climate_Cl": "S", "votes": 1, "cluster_size": 1, "tie": false, "status": "majority", "member_ids": "1003"}, "geometry": {"type": "Point", "coordinates": [-35.09246222022486, -30.254130089450285]}}, {"type": "Feature", "properties": {"Climate_Cl": "D", "votes": 1, "cluster_size": 1, "tie": false, "status": "majority", "member_ids": "1055"}, "geometry": {"type": "Point", "coordinates": [-42.64487879343509, -20.96044890238097]}}, {"type": "Feature", "properties": {"Climate_Cl": "H", "votes": 1, "cluster_size": 2, "tie": true, "status": "tie", "member_ids": "1102,1111"}, "geometry": {"type": "Point", "coordinates": [-36.01212699005241, -40.81365859741256]}}, {"type": "Feature", "properties": {"Climate_Cl": "S", "votes": 1, "cluster_size": 2, "tie": true, "status": "tie", "member_ids": "1102,1111"}, "geometry": {"type": "Point", "coordinates": [-36.01212699005241, -40.81365859741256]}}, {"type": "Feature", "properties": {"Climate_Cl": "S", "votes": 1, "cluster_size": 1, "tie": false, "status": "majority", "member_ids": "1106"}, "geometry": {"type": "Point", "coordinates": [-33.274706213824395, -37.89650405867287]}}, {"type": "Feature", "properties": {"Climate_Cl": "H", "votes": 1, "cluster_size": 1, "tie": false, "status": "majority", "member_ids": "1122"}, "geometry": {"type": "Point", "coordinates": [-35.622187410317004, -40.38835032847582]}}, {"type": "Feature", "properties": {"Climate_Cl": "S", "votes": 1, "cluster_size": 1, "tie": false, "status": "majority", "member_ids": "1124"}, "geometry": {"type": "Point", "coordinates": [-24.822638464966694, -38.39794609899856]}}, {"type": "Feature", "properties": {"Climate_Cl": "S", "votes": 1, "cluster_size": 1, "tie": false, "status": "majority", "member_ids": "1149"}, "geometry": {"type": "Point", "coordinates": [-19.583633053865135, -17.706735189245055]}}, {"type": "Feature", "properties": {"Climate_Cl": "S", "votes": 2, "cluster_size": 2, "tie": false, "status": "majority", "member_ids": "1153,1195"}, "geometry": {"type": "Point", "coordinates": [-19.450101866828604, -17.0624649268096]}}, {"type": "Feature", "properties": {"Climate_Cl": "S", "votes": 3, "cluster_size": 3, "tie": false, "status": "majority", "member_ids": "1172,1178,1183"}, "geometry": {"type": "Point", "coordinates": [-18.857398284191888, -16.51215570372412]}}, {"type": "Feature", "properties": {"Climate_Cl": "S", "votes": 1, "cluster_size": 1, "tie": false, "status": "majority", "member_ids": "1239"}, "geometry": {"type": "Point", "coordinates": [-20.71676099420745, -12.376662159709253]}}, {"type": "Feature", "properties": {"Climate_Cl": "S", "votes": 2, "cluster_size": 2, "tie": false, "status": "majority", "member_ids": "1248,1256"}, "geometry": {"type": "Point", "coordinates": [-21.097038974932776, -14.361706662756786]}}, {"type": "Feature", "properties": {"Climate_Cl": "D", "votes": 14, "cluster_size": 14, "tie": false, "status": "majority", "member_ids": "1430,1431,1432,1433,1434,1435,1436,1437,1438,1439,1440,1441,1496,1497"}, "geometry": {"type": "Point", "coordinates": [-31.468422448981105, -27.33575035020888]}}, {"type": "Feature", "properties": {"Climate_Cl": "S", "votes": 4, "cluster_size": 4, "tie": false, "status": "majority", "member_ids": "1499,1500,1501,1502"}, "geometry": {"type": "Point", "coordinates": [-32.460444003133944, -28.31678029695601]}}, {"type": "Feature", "properties": {"Climate_Cl": "S", "votes": 1, "cluster_size": 1, "tie": false, "status": "majority", "member_ids": "1540"}, "geometry": {"type": "Point", "coordinates": [-30.046153099994477, -34.86002104805665]}}, {"type": "Feature", "properties": {"Climate_Cl": "H", "votes": 3, "cluster_size": 6, "tie": true, "status": "tie", "member_ids": "1585,1586,1613,1614,1624,1625"}, "geometry": {"type": "Point", "coordinates": [-20.09832006582048, -20.370066437493552]}}, {"type": "Feature", "properties": {"Climate_Cl": "S", "votes": 3, "cluster_size": 6, "tie": true, "status": "tie", "member_ids": "1585,1586,1613,1614,1624,1625"}, "geometry": {"type": "Point", "coordinates": [-20.09832006582048, -20.370066437493552]}}, {"type": "Feature", "properties": {"Climate_Cl": "H", "votes": 2, "cluster_size": 2, "tie": false, "status": "majority", "member_ids": "1672,1673"}, "geometry": {"type": "Point", "coordinates": [-50.666905180061036, -13.471666847201654]}}, {"type": "Feature", "properties": {"Climate_Cl": "H", "votes": 1, "cluster_size": 1, "tie": false, "status": "majority", "member_ids": "1674"}, "geometry": {"type": "Point", "coordinates": [-47.59954588470378, -13.674820552121279]}}, {"type": "Feature", "properties": {"Climate_Cl": "H", "votes": 1, "cluster_size": 1, "tie": false, "status": "majority", "member_ids": "1706"}, "geometry": {"type": "Point", "coordinates": [-2.807044892678368, -11.529625533444277]}}, {"type": "Feature", "properties": {"Climate_Cl": "H", "votes": 1, "cluster_size": 1, "tie": false, "status": "majority", "member_ids": "1866"}, "geometry": {"type": "Point", "coordinates": [-65.74586838308214, -58.70678304615843]}}, {"type": "Feature", "properties": {"Climate_Cl": "H", "votes": 1, "cluster_size": 1, "tie": false, "status": "majority", "member_ids": "1867"}, "geometry": {"type": "Point", "coordinates": [-65.30683149561192, -58.9410727116329]}}, {"type": "Feature", "properties": {"Climate_Cl": "H", "votes": 1, "cluster_size": 1, "tie": false, "status": "majority", "member_ids": "1871"}, "geometry": {"type": "Point", "coordinates": [-65.19913795938862, -58.313512032467415]}}, {"type": "Feature", "properties": {"Climate_Cl": "H", "votes": 2, "cluster_size": 4, "tie": true, "status": "tie", "member_ids": "1893,1895,1928,1929"}, "geometry": {"type": "Point", "coordinates": [-58.552234023739054, -36.952939536676496]}}, {"type": "Feature", "properties": {"Climate_Cl": "S", "votes": 2, "cluster_size": 4, "tie": true, "status": "tie", "member_ids": "1893,1895,1928,1929"}, "geometry": {"type": "Point", "coordinates": [-58.552234023739054, -36.952939536676496]}}, {"type": "Feature", "properties": {"Climate_Cl": "S", "votes": 2, "cluster_size": 2, "tie": false, "status": "majority", "member_ids": "1908,1909"}, "geometry": {"type": "Point", "coordinates": [-58.16252929378966, -35.9800846361264]}}, {"type": "Feature", "properties": {"Climate_Cl": "H", "votes": 1, "cluster_size": 1, "tie": false, "status": "majority", "member_ids": "1999"}, "geometry": {"type": "Point", "coordinates": [-61.195060826887115, -8.577055904593195]}}, {"type": "Feature", "properties": {"Climate_Cl": "H", "votes": 2, "cluster_size": 3, "tie": false, "status": "majority", "member_ids": "2000,2001,2002"}, "geometry": {"type": "Point", "coordinates": [-62.33657738019179, -7.460180895807873]}}, {"type": "Feature", "properties": {"Climate_Cl": "S", "votes": 1, "cluster_size": 1, "tie": false, "status": "majority", "member_ids": "2044"}, "geometry": {"type": "Point", "coordinates": [-3.924297517521907, -16.525938006547097]}}, {"type": "Feature", "properties": {"Climate_Cl": "H", "votes": 1, "cluster_size": 1, "tie": false, "status": "majority", "member_ids": "2049"}, "geometry": {"type": "Point", "coordinates": [-10.922757831039837, -8.704666496217087]}}, {"type": "Feature", "properties": {"Climate_Cl": "H", "votes": 4, "cluster_size": 4, "tie": false, "status": "majority", "member_ids": "2053,2056,2059,2062"}, "geometry": {"type": "Point", "coordinates": [-15.483765263109477, -9.063216033497394]}}, {"type": "Feature", "properties": {"Climate_Cl": "H", "votes": 1, "cluster_size": 1, "tie": false, "status": "majority", "member_ids": "2080"}, "geometry": {"type": "Point", "coordinates": [-15.250280133810671, -10.063558734071087]}}, {"type": "Feature", "properties": {"Climate_Cl": "H", "votes": 1, "cluster_size": 1, "tie": false, "status": "majority", "member_ids": "2095"}, "geometry": {"type": "Point", "coordinates": [8.11391655135672, 11.643403236025026]}}, {"type": "Feature", "properties": {"Climate_Cl": "H", "votes": 1, "cluster_size": 1, "tie": false, "status": "majority", "member_ids": "2104"}, "geometry": {"type": "Point", "coordinates": [10.395361959325996, 11.971841820603407]}}, {"type": "Feature", "properties": {"Climate_Cl": "S", "votes": 1, "cluster_size": 1, "tie": false, "status": "majority", "member_ids": "2114"}, "geometry": {"type": "Point", "coordinates": [20.287130454257124, -7.299196237127923]}}, {"type": "Feature", "properties": {"Climate_Cl": "S", "votes": 1, "cluster_size": 1, "tie": false, "status": "majority", "member_ids": "2116"}, "geometry": {"type": "Point", "coordinates": [8.860864778449569, 12.915786750472968]}}, {"type": "Feature", "properties": {"Climate_Cl": "S", "votes": 1, "cluster_size": 1, "tie": false, "status": "majority", "member_ids": "2237"}, "geometry": {"type": "Point", "coordinates": [-3.079142491072485, -30.505733088192375]}}, {"type": "Feature", "properties": {"Climate_Cl": "H", "votes": 1, "cluster_size": 2, "tie": true, "status": "tie", "member_ids": "2255,2258"}, "geometry": {"type": "Point", "coordinates": [-4.761884653058168, -0.112937432745048]}}, {"type": "Feature", "properties": {"Climate_Cl": "S", "votes": 1, "cluster_size": 2, "tie": true, "status": "tie", "member_ids": "2255,2258"}, "geometry": {"type": "Point", "coordinates": [-4.761884653058168, -0.112937432745048]}}, {"type": "Feature", "properties": {"Climate_Cl": "H", "votes": 2, "cluster_size": 2, "tie": false, "status": "majority", "member_ids": "2330,2338"}, "geometry": {"type": "Point", "coordinates": [-5.486263983789812, -8.91781543229182]}}, {"type": "Feature", "properties": {"Climate_Cl": "H", "votes": 1, "cluster_size": 1, "tie": false, "status": "majority", "member_ids": "2341"}, "geometry": {"type": "Point", "coordinates": [-4.132449504761248, -9.90463782978458]}}, {"type": "Feature", "properties": {"Climate_Cl": "S", "votes": 1, "cluster_size": 1, "tie": false, "status": "majority", "member_ids": "2345"}, "geometry": {"type": "Point", "coordinates": [-4.35592370152006, -10.160400873528397]}}, {"type": "Feature", "properties": {"Climate_Cl": "S", "votes": 1, "cluster_size": 1, "tie": false, "status": "majority", "member_ids": "2425"}, "geometry": {"type": "Point", "coordinates": [-62.723945012277454, -17.473122379234383]}}, {"type": "Feature", "properties": {"Climate_Cl": "H", "votes": 1, "cluster_size": 1, "tie": false, "status": "majority", "member_ids": "2448"}, "geometry": {"type": "Point", "coordinates": [-62.200694869640465, -13.50375739751757]}}, {"type": "Feature", "properties": {"Climate_Cl": "H", "votes": 1, "cluster_size": 1, "tie": false, "status": "majority", "member_ids": "2469"}, "geometry": {"type": "Point", "coordinates": [-60.80088372269651, -14.64320261575331]}}, {"type": "Feature", "properties": {"Climate_Cl": "H", "votes": 1, "cluster_size": 1, "tie": false, "status": "majority", "member_ids": "2483"}, "geometry": {"type": "Point", "coordinates": [-60.42061788758435, -15.683600063910832]}}, {"type": "Feature", "properties": {"Climate_Cl": "H", "votes": 1, "cluster_size": 2, "tie": true, "status": "tie", "member_ids": "2498,2503"}, "geometry": {"type": "Point", "coordinates": [-2.268421599751591, -21.0633858504788]}}, {"type": "Feature", "properties": {"Climate_Cl": "S", "votes": 1, "cluster_size": 2, "tie": true, "status": "tie", "member_ids": "2498,2503"}, "geometry": {"type": "Point", "coordinates": [-2.268421599751591, -21.0633858504788]}}, {"type": "Feature", "properties": {"Climate_Cl": "H", "votes": 1, "cluster_size": 2, "tie": true, "status": "tie", "member_ids": "2529,2624"}, "geometry": {"type": "Point", "coordinates": [-26.347427792625304, 4.048039609537944]}}, {"type": "Feature", "properties": {"Climate_Cl": "S", "votes": 1, "cluster_size": 2, "tie": true, "status": "tie", "member_ids": "2529,2624"}, "geometry": {"type": "Point", "coordinates": [-26.347427792625304, 4.048039609537944]}}, {"type": "Feature", "properties": {"Climate_Cl": "H", "votes": 1, "cluster_size": 2, "tie": true, "status": "tie", "member_ids": "2546,2611"}, "geometry": {"type": "Point", "coordinates": [-28.166505720769663, 1.928743069151318]}}, {"type": "Feature", "properties": {"Climate_Cl": "S", "votes": 1, "cluster_size": 2, "tie": true, "status": "tie", "member_ids": "2546,2611"}, "geometry": {"type": "Point", "coordinates": [-28.166505720769663, 1.928743069151318]}}, {"type": "Feature", "properties": {"Climate_Cl": "H", "votes": 1, "cluster_size": 1, "tie": false, "status": "majority", "member_ids": "2563"}, "geometry": {"type": "Point", "coordinates": [-25.31018137956007, 5.355828306109859]}}, {"type": "Feature", "properties": {"Climate_Cl": "S", "votes": 1, "cluster_size": 1, "tie": false, "status": "majority", "member_ids": "2573"}, "geometry": {"type": "Point", "coordinates": [-24.854404043955604, 1.909088931915097]}}, {"type": "Feature", "properties": {"Climate_Cl": "D", "votes": 1, "cluster_size": 1, "tie": false, "status": "majority", "member_ids": "2578"}, "geometry": {"type": "Point", "coordinates": [-25.80466297293484, 4.022456265813944]}}, {"type": "Feature", "properties": {"Climate_Cl": "H", "votes": 1, "cluster_size": 1, "tie": false, "status": "majority", "member_ids": "2641"}, "geometry": {"type": "Point", "coordinates": [-1.860317631983174, -49.70765172006877]}}, {"type": "Feature", "properties": {"Climate_Cl": "H", "votes": 1, "cluster_size": 1, "tie": false, "status": "majority", "member_ids": "2643"}, "geometry": {"type": "Point", "coordinates": [-0.419501362093026, -51.64017785826715]}}, {"type": "Feature", "properties": {"Climate_Cl": "S", "votes": 1, "cluster_size": 1, "tie": false, "status": "majority", "member_ids": "2650"}, "geometry": {"type": "Point", "coordinates": [0.616947383581364, 18.21430282980535]}}, {"type": "Feature", "properties": {"Climate_Cl": "H", "votes": 1, "cluster_size": 2, "tie": true, "status": "tie", "member_ids": "2653,2864"}, "geometry": {"type": "Point", "coordinates": [1.624393274821895, 19.84456467746795]}}, {"type": "Feature", "properties": {"Climate_Cl": "S", "votes": 1, "cluster_size": 2, "tie": true, "status": "tie", "member_ids": "2653,2864"}, "geometry": {"type": "Point", "coordinates": [1.624393274821895, 19.84456467746795]}}, {"type": "Feature", "properties": {"Climate_Cl": "S", "votes": 1, "cluster_size": 1, "tie": false, "status": "majority", "member_ids": "2656"}, "geometry": {"type": "Point", "coordinates": [3.272280892759988, 17.832980815621166]}}, {"type": "Feature", "properties": {"Climate_Cl": "S", "votes": 1, "cluster_size": 1, "tie": false, "status": "majority", "member_ids": "2683"}, "geometry": {"type": "Point", "coordinates": [1.307772595761048, 17.543075412811863]}}, {"type": "Feature", "properties": {"Climate_Cl": "S", "votes": 1, "cluster_size": 1, "tie": false, "status": "majority", "member_ids": "2766"}, "geometry": {"type": "Point", "coordinates": [1.686707812761732, 17.75258131250166]}}, {"type": "Feature", "properties": {"Climate_Cl": "H", "votes": 1, "cluster_size": 1, "tie": false, "status": "majority", "member_ids": "2872"}, "geometry": {"type": "Point", "coordinates": [2.554038646221902, 19.676947744024456]}}, {"type": "Feature", "properties": {"Climate_Cl": "H", "votes": 1, "cluster_size": 1, "tie": false, "status": "majority", "member_ids": "2974"}, "geometry": {"type": "Point", "coordinates": [-45.12108521334926, -41.87393595576547]}}, {"type": "Feature", "properties": {"Climate_Cl": "H", "votes": 1, "cluster_size": 1, "tie": false, "status": "majority", "member_ids": "2989"}, "geometry": {"type": "Point", "coordinates": [-41.80606254212341, -44.03257996807415]}}, {"type": "Feature", "properties": {"Climate_Cl": "H", "votes": 1, "cluster_size": 1, "tie": false, "status": "majority", "member_ids": "3013"}, "geometry": {"type": "Point", "coordinates": [-56.20296831537147, 0.571757819045354]}}, {"type": "Feature", "properties": {"Climate_Cl": "H", "votes": 2, "cluster_size": 2, "tie": false, "status": "majority", "member_ids": "3028,3029"}, "geometry": {"type": "Point", "coordinates": [-55.06437828650247, -0.617777268728286]}}, {"type": "Feature", "properties": {"Climate_Cl": "H", "votes": 2, "cluster_size": 2, "tie": false, "status": "majority", "member_ids": "3065,3066"}, "geometry": {"type": "Point", "coordinates": [-47.50516950284089, 0.995121280337596]}}, {"type": "Feature", "properties": {"Climate_Cl": "H", "votes": 1, "cluster_size": 1, "tie": false, "status": "majority", "member_ids": "3067"}, "geometry": {"type": "Point", "coordinates": [-48.08762290476708, 1.108313086869805]}}, {"type": "Feature", "properties": {"Climate_Cl": "H", "votes": 2, "cluster_size": 2, "tie": false, "status": "majority", "member_ids": "3106,3145"}, "geometry": {"type": "Point", "coordinates": [-57.10239743606177, -0.501622500918652]}}, {"type": "Feature", "properties": {"Climate_Cl": "H", "votes": 1, "cluster_size": 2, "tie": true, "status": "tie", "member_ids": "3140,3141"}, "geometry": {"type": "Point", "coordinates": [-58.678413801976546, -0.618921965530348]}}, {"type": "Feature", "properties": {"Climate_Cl": "S", "votes": 1, "cluster_size": 2, "tie": true, "status": "tie", "member_ids": "3140,3141"}, "geometry": {"type": "Point", "coordinates": [-58.678413801976546, -0.618921965530348]}}, {"type": "Feature", "properties": {"Climate_Cl": "H", "votes": 2, "cluster_size": 3, "tie": false, "status": "majority", "member_ids": "3142,3143,3144"}, "geometry": {"type": "Point", "coordinates": [-58.1717414674138, -1.584711437091679]}}]}