{"type": "FeatureCollection", "features": [{"type": "Feature", "properties": {"Climate_Cl": "S", "votes": 2, "cluster_size": 2, "tie": false, "status": "majority", "member_ids": "47,125"}, "geometry": {"type": "Point", "coordinates": [-0.542631525185889, 17.04068500378058]}}, {"type": "Feature", "properties": {"Climate_Cl": "S", "votes": 1, "cluster_size": 1, "tie": false, "status": "majority", "member_ids": "181"}, "geometry": {"type": "Point", "coordinates": [-2.756816818483945, -27.50627372100498]}}, {"type": "Feature", "properties": {"Climate_Cl": "H", "votes": 2, "cluster_size": 2, "tie": false, "status": "majority", "member_ids": "217,224"}, "geometry": {"type": "Point", "coordinates": [-64.92421965290676, -57.67876396334667]}}, {"type": "Feature", "properties": {"Climate_Cl": "H", "votes": 2, "cluster_size": 2, "tie": false, "status": "majority", "member_ids": "267,272"}, "geometry": {"type": "Point", "coordinates": [-61.32521415985302, -53.77361846122295]}}, {"type": "Feature", "properties": {"Climate_Cl": "H", "votes": 3, "cluster_size": 4, "tie": false, "status": "majority", "member_ids": "294,316,323,336"}, "geometry": {"type": "Point", "coordinates": [-58.45398769835853, -47.38384453256542]}}, {"type": "Feature", "properties": {"Climate_Cl": "H", "votes": 1, "cluster_size": 1, "tie": false, "status": "majority", "member_ids": "325"}, "geometry": {"type": "Point", "coordinates": [-59.37409388834392, -47.474623597264355]}}, {"type": "Feature", "properties": {"Climate_Cl": "D", "votes": 1, "cluster_size": 1, "tie": false, "status": "majority", "member_ids": "352"}, "geometry": {"type": "Point", "coordinates": [-50.088769815632546, -51.607240011856916]}}, {"type": "Feature", "properties": {"Climate_Cl": "D", "votes": 1, "cluster_size": 1, "tie": false, "status": "majority", "member_ids": "411"}, "geometry": {"type": "Point", "coordinates": [-51.90574559570023, -27.11398677996365]}}, {"type": "Feature", "properties": {"Climate_Cl": "D", "votes": 3, "cluster_size": 3, "tie": false, "status": "majority", "member_ids": "429,432,433"}, "geometry": {"type": "Point", "coordinates": [-51.76973996882376, -28.132568865854477]}}, {"type": "Feature", "properties": {"Climate_Cl": "H", "votes": 2, "cluster_size": 2, "tie": false, "status": "majority", "member_ids": "438,439"}, "geometry": {"type": "Point", "coordinates": [-58.80008544852029, -15.313243319913962]}}, {"type": "Feature", "properties": {"Climate_Cl": "H", "votes": 1, "cluster_size": 2, "tie": true, "status": "tie", "member_ids": "598,605"}, "geometry": {"type": "Point", "coordinates": [-22.876708046201305, -11.183818295043343]}}, {"type": "Feature", "properties": {"Climate_Cl": "S", "votes": 1, "cluster_size": 2, "tie": true, "status": "tie", "member_ids": "598,605"}, "geometry": {"type": "Point", "coordinates": [-22.876708046201305, -11.183818295043343]}}, {"type": "Feature", "properties": {"Climate_Cl": "H", "votes": 3, "cluster_size": 3, "tie": false, "status": "majority", "member_ids": "669,679,685"}, "geometry": {"type": "Point", "coordinates": [-24.31599740838025, -33.66623371373128]}}, {"type": "Feature", "properties": {"Climate_Cl": "H", "votes": 1, "cluster_size": 1, "tie": false, "status": "majority", "member_ids": "676"}, "geometry": {"type": "Point", "coordinates": [-25.198622031175894, -34.87057975099666]}}, {"type": "Feature", "properties": {"Climate_Cl": "H", "votes": 1, "cluster_size": 1, "tie": false, "status": "majority", "member_ids": "780"}, "geometry": {"type": "Point", "coordinates": [-32.398476981057584, -7.419122193667286]}}, {"type": "Feature", "properties": {"Climate_Cl": "H", "votes": 1, "cluster_size": 1, "tie": false, "status": "majority", "member_ids": "797"}, "geometry": {"type": "Point", "coordinates": [-34.029699003944394, -5.790181330385791]}}, {"type": "Feature", "properties": {"Climate_Cl": "S", "votes": 1, "cluster_size": 1, "tie": false, "status": "majority", "member_ids": "839"}, "geometry": {"type": "Point", "coordinates": [-21.086427045466987, -23.201233668312028]}}, {"type": "Feature", "properties": {"Climate_Cl": "H", "votes": 1, "cluster_size": 2, "tie": true, "status": "tie", "member_ids": "845,855"}, "geometry": {"type": "Point", "coordinates": [-21.89470286952789, -23.395031716246677]}}, {"type": "Feature", "properties": {"Climate_Cl": "S", "votes": 1, "cluster_size": 2, "tie": true, "status": "tie", "member_ids": "845,855"}, "geometry": {"type": "Point", "coordinates": [-21.89470286952789, -23.395031716246677]}}, {"type": "Feature", "properties": {"Climate_Cl": "H", "votes": 1, "cluster_size": 1, "tie": false, "status": "majority", "member_ids": "896"}, "geometry": {"type": "Point", "coordinates": [-21.475024356576604, -26.198601061303243]}}, {"type": "Feature", "properties": {"Climate_Cl": "S", "votes": 1, "cluster_size": 1, "tie": false, "status": "majority", "member_ids": "937"}, "geometry": {"type": "Point", "coordinates": [-23.66711593285706, -28.6751114358819]}}, {"type": "Feature", "properties": {"Climate_Cl": "H", "votes": 3, "cluster_size": 3, "tie": false, "status": "majority", "member_ids": "973,977,981"}, "geometry": {"type": "Point", "coordinates": [-28.973323046152803, -10.54903470653731]}}, {"type": "Feature", "properties": {"Climate_Cl": "S", "votes": 1, "cluster_size": 1, "tie": false, "status": "majority", "member_ids": "998"}, "geometry": {"type": "Point", "coordinates": [-32.87107330560051, -30.17692685888891]}}, {"type": "Feature", "properties": {"Climate_Cl": "S", "votes": 1, "cluster_size": 1, "tie": false, "status": "majority", "member_ids": "1001"}, "geometry": {"type": "Point", "coordinates": [-32.998539273486784, -32.296239187526204]}}, {"type": "Feature", "properties": {"Climate_Cl": "H", "votes": 1, "cluster_size": 1, "tie": false, "status": "majority", "member_ids": "1004"}, "geometry": {"type": "Point", "coordinates": [-34.66989380465274, -31.345282531904576]}}, {"type": "Feature", "properties": {"Climate_Cl": "S", "votes": 1, "cluster_size": 1, "tie": false, "status": "majority", "member_ids": "1005"}, "geometry": {"type": "Point", "coordinates": [-36.94558098191119, -32.52146238998412]}}, {"type": "Feature", "properties": {"Climate_Cl": "H", "votes": 1, "cluster_size": 1, "tie": false, "status": "majority", "member_ids": "1054"}, "geometry": {"type": "Point", "coordinates": [-42.05285071098747, -21.900954456081298]}}, {"type": "Feature", "properties": {"Climate_Cl": "H", "votes": 1, "cluster_size": 1, "tie": false, "status": "majority", "member_ids": "1058"}, "geometry": {"type": "Point", "coordinates": [-36.72475109113367, -21.227089686045417]}}, {"type": "Feature", "properties": {"Climate_Cl": "H", "votes": 2, "cluster_size": 2, "tie": false, "status": "majority", "member_ids": "1101,1112"}, "geometry": {"type": "Point", "coordinates": [-35.91643248895844, -41.88407463055965]}}, {"type": "Feature", "properties": {"Climate_Cl": "H", "votes": 1, "cluster_size": 1, "tie": false, "status": "majority", "member_ids": "1107"}, "geometry": {"type": "Point", "coordinates": [-33.04124354950461, -39.01988763582683]}}, {"type": "Feature", "properties": {"Climate_Cl": "S", "votes": 1, "cluster_size": 1, "tie": false, "status": "majority", "member_ids": "1123"}, "geometry": {"type": "Point", "coordinates": [-24.462237645833415, -39.66508970579769]}}, {"type": "Feature", "properties": {"Climate_Cl": "S", "votes": 1, "cluster_size": 1, "tie": false, "status": "majority", "member_ids": "1148"}, "geometry": {"type": "Point", "coordinates": [-18.76234684741046, -19.051635832819333]}}, {"type": "Feature", "properties": {"Climate_Cl": "S", "votes": 3, "cluster_size": 3, "tie": false, "status": "majority", "member_ids": "1171,1177,1184"}, "geometry": {"type": "Point", "coordinates": [-18.013516622811768, -17.866621206511944]}}, {"type": "Feature", "properties": {"Climate_Cl": "S", "votes": 1, "cluster_size": 1, "tie": false, "status": "majority", "member_ids": "1238"}, "geometry": {"type": "Point", "coordinates": [-19.825763540627175, -13.70690475642502]}}, {"type": "Feature", "properties": {"Climate_Cl": "S", "votes": 1, "cluster_size": 1, "tie": false, "status": "majority", "member_ids": "1241"}, "geometry": {"type": "Point", "coordinates": [-21.77697246671233, -15.918742610903408]}}, {"type": "Feature", "properties": {"Climate_Cl": "S", "votes": 2, "cluster_size": 2, "tie": false, "status": "majority", "member_ids": "1247,1255"}, "geometry": {"type": "Point", "coordinates": [-20.237087806283565, -15.686547785058359]}}, {"type": "Feature", "properties": {"Climate_Cl": "D", "votes": 6, "cluster_size": 6, "tie": false, "status": "majority", "member_ids": "1424,1425,1426,1427,1428,1429"}, "geometry": {"type": "Point", "coordinates": [-30.962973614077228, -28.49345582146006]}}, {"type": "Feature", "properties": {"Climate_Cl": "S", "votes": 1, "cluster_size": 1, "tie": false, "status": "majority", "member_ids": "1539"}, "geometry": {"type": "Point", "coordinates": [-29.678733238518397, -36.04215937674759]}}, {"type": "Feature", "properties": {"Climate_Cl": "H", "votes": 4, "cluster_size": 8, "tie": true, "status": "tie", "member_ids": "1583,1584,1603,1604,1605,1606,1622,1623"}, "geometry": {"type": "Point", "coordinates": [-19.32126048536551, -21.707866071174546]}}, {"type": "Feature", "properties": {"Climate_Cl": "S", "votes": 4, "cluster_size": 8, "tie": true, "status": "tie", "member_ids": "1583,1584,1603,1604,1605,1606,1622,1623"}, "geometry": {"type": "Point", "coordinates": [-19.32126048536551, -21.707866071174546]}}, {"type": "Feature", "properties": {"Climate_Cl": "H", "votes": 4, "cluster_size": 4, "tie": false, "status": "majority", "member_ids": "1666,1667,1668,1669"}, "geometry": {"type": "Point", "coordinates": [-49.92597042403537, -14.234386698394507]}}, {"type": "Feature", "properties": {"Climate_Cl": "H", "votes": 2, "cluster_size": 2, "tie": false, "status": "majority", "member_ids": "1670,1671"}, "geometry": {"type": "Point", "coordinates": [-46.853792534384866, -14.508139880808507]}}, {"type": "Feature", "properties": {"Climate_Cl": "H", "votes": 1, "cluster_size": 1, "tie": false, "status": "majority", "member_ids": "1705"}, "geometry": {"type": "Point", "coordinates": [-3.913906516315108, -13.728217474565316]}}, {"type": "Feature", "properties": {"Climate_Cl": "H", "votes": 1, "cluster_size": 1, "tie": false, "status": "majority", "member_ids": "1865"}, "geometry": {"type": "Point", "coordinates": [-67.15725055598895, -59.06695994048633]}}, {"type": "Feature", "properties": {"Climate_Cl": "S", "votes": 4, "cluster_size": 6, "tie": false, "status": "majority", "member_ids": "1892,1894,1904,1905,1926,1927"}, "geometry": {"type": "Point", "coordinates": [-58.4488177473174, -37.528530884983375]}}, {"type": "Feature", "properties": {"Climate_Cl": "H", "votes": 1, "cluster_size": 1, "tie": false, "status": "majority", "member_ids": "1997"}, "geometry": {"type": "Point", "coordinates": [-60.077682759789994, -9.116827454973588]}}, {"type": "Feature", "properties": {"Climate_Cl": "S", "votes": 1, "cluster_size": 1, "tie": false, "status": "majority", "member_ids": "1998"}, "geometry": {"type": "Point", "coordinates": [-61.46351600722649, -7.93802596879548]}}, {"type": "Feature", "properties": {"Climate_Cl": "S", "votes": 2, "cluster_size": 2, "tie": false, "status": "majority", "member_ids": "2042,2043"}, "geometry": {"type": "Point", "coordinates": [-5.251885773745278, -18.676717421085858]}}, {"type": "Feature", "properties": {"Climate_Cl": "S", "votes": 1, "cluster_size": 1, "tie": false, "status": "majority", "member_ids": "2048"}, "geometry": {"type": "Point", "coordinates": [-11.958508236618439, -10.57090016097757]}}, {"type": "Feature", "properties": {"Climate_Cl": "H", "votes": 3, "cluster_size": 5, "tie": false, "status": "majority", "member_ids": "2075,2076,2077,2078,2079"}, "geometry": {"type": "Point", "coordinates": [-16.368777666663473, -11.734198178802572]}}, {"type": "Feature", "properties": {"Climate_Cl": "H", "votes": 1, "cluster_size": 1, "tie": false, "status": "majority", "member_ids": "2094"}, "geometry": {"type": "Point", "coordinates": [7.87768342412068, 9.085420308834525]}}, {"type": "Feature", "properties": {"Climate_Cl": "S", "votes": 1, "cluster_size": 1, "tie": false, "status": "majority", "member_ids": "2220"}, "geometry": {"type": "Point", "coordinates": [-17.673150593539457, 14.598011486910298]}}, {"type": "Feature", "properties": {"Climate_Cl": "S", "votes": 2, "cluster_size": 2, "tie": false, "status": "majority", "member_ids": "2230,2231"}, "geometry": {"type": "Point", "coordinates": [-14.414448812456135, 16.34740842272641]}}, {"type": "Feature", "properties": {"Climate_Cl": "S", "votes": 1, "cluster_size": 1, "tie": false, "status": "majority", "member_ids": "2238"}, "geometry": {"type": "Point", "coordinates": [-5.066695478635883, -32.676822221963484]}}, {"type": "Feature", "properties": {"Climate_Cl": "S", "votes": 1, "cluster_size": 1, "tie": false, "status": "majority", "member_ids": "2251"}, "geometry": {"type": "Point", "coordinates": [-6.202673564083597, -3.279557183376637]}}, {"type": "Feature", "properties": {"Climate_Cl": "H", "votes": 1, "cluster_size": 1, "tie": false, "status": "majority", "member_ids": "2261"}, "geometry": {"type": "Point", "coordinates": [3.604872172076201, -4.16487065771457]}}, {"type": "Feature", "properties": {"Climate_Cl": "S", "votes": 1, "cluster_size": 1, "tie": false, "status": "majority", "member_ids": "2344"}, "geometry": {"type": "Point", "coordinates": [-5.417884862514259, -12.299361288032467]}}, {"type": "Feature", "properties": {"Climate_Cl": "S", "votes": 2, "cluster_size": 2, "tie": false, "status": "majority", "member_ids": "2347,2349"}, "geometry": {"type": "Point", "coordinates": [-5.428179686080989, -11.700205401511205]}}, {"type": "Feature", "properties": {"Climate_Cl": "S", "votes": 1, "cluster_size": 2, "tie": true, "status": "tie", "member_ids": "2404,2410"}, "geometry": {"type": "Point", "coordinates": [-58.022974836463135, -24.468053684509975]}}, {"type": "Feature", "properties": {"Climate_Cl": "D", "votes": 1, "cluster_size": 2, "tie": true, "status": "tie", "member_ids": "2404,2410"}, "geometry": {"type": "Point", "coordinates": [-58.022974836463135, -24.468053684509975]}}, {"type": "Feature", "properties": {"Climate_Cl": "S", "votes": 1, "cluster_size": 1, "tie": false, "status": "majority", "member_ids": "2424"}, "geometry": {"type": "Point", "coordinates": [-62.12187616908198, -17.937583031411382]}}, {"type": "Feature", "properties": {"Climate_Cl": "H", "votes": 1, "cluster_size": 1, "tie": false, "status": "majority", "member_ids": "2464"}, "geometry": {"type": "Point", "coordinates": [-61.48775935098099, -13.983030990836124]}}, {"type": "Feature", "properties": {"Climate_Cl": "H", "votes": 1, "cluster_size": 1, "tie": false, "status": "majority", "member_ids": "2475"}, "geometry": {"type": "Point", "coordinates": [-60.11625321031536, -15.15774852151555]}}, {"type": "Feature", "properties": {"Climate_Cl": "H", "votes": 1, "cluster_size": 2, "tie": true, "status": "tie", "member_ids": "2482,2494"}, "geometry": {"type": "Point", "coordinates": [-59.7635467193203, -16.207425816270234]}}, {"type": "Feature", "properties": {"Climate_Cl": "S", "votes": 1, "cluster_size": 2, "tie": true, "status": "tie", "member_ids": "2482,2494"}, "geometry": {"type": "Point", "coordinates": [-59.7635467193203, -16.207425816270234]}}, {"type": "Feature", "properties": {"Climate_Cl": "S", "votes": 1, "cluster_size": 1, "tie": false, "status": "majority", "member_ids": "2502"}, "geometry": {"type": "Point", "coordinates": [-3.775304243267564, -23.275042006897714]}}, {"type": "Feature", "properties": {"Climate_Cl": "H", "votes": 1, "cluster_size": 3, "tie": true, "status": "tie", "member_ids": "2528,2577,2623"}, "geometry": {"type": "Point", "coordinates": [-26.603248867142252, 2.8802455344289832]}}, {"type": "Feature", "properties": {"Climate_Cl": "S", "votes": 1, "cluster_size": 3, "tie": true, "status": "tie", "member_ids": "2528,2577,2623"}, "geometry": {"type": "Point", "coordinates": [-26.603248867142252, 2.8802455344289832]}}, {"type": "Feature", "properties": {"Climate_Cl": "D", "votes": 1, "cluster_size": 3, "tie": true, "status": "tie", "member_ids": "2528,2577,2623"}, "geometry": {"type": "Point", "coordinates": [-26.603248867142252, 2.8802455344289832]}}, {"type": "Feature", "properties": {"Climate_Cl": "H", "votes": 1, "cluster_size": 2, "tie": true, "status": "tie", "member_ids": "2545,2610"}, "geometry": {"type": "Point", "coordinates": [-28.706453562262684, 0.873798938676557]}}, {"type": "Feature", "properties": {"Climate_Cl": "S", "votes": 1, "cluster_size": 2, "tie": true, "status": "tie", "member_ids": "2545,2610"}, "geometry": {"type": "Point", "coordinates": [-28.706453562262684, 0.873798938676557]}}, {"type": "Feature", "properties": {"Climate_Cl": "H", "votes": 1, "cluster_size": 1, "tie": false, "status": "majority", "member_ids": "2562"}, "geometry": {"type": "Point", "coordinates": [-25.682752423810605, 4.151821309937586]}}, {"type": "Feature", "properties": {"Climate_Cl": "S", "votes": 2, "cluster_size": 2, "tie": false, "status": "majority", "member_ids": "2571,2572"}, "geometry": {"type": "Point", "coordinates": [-25.401140368144183, 0.68660724515736]}}, {"type": "Feature", "properties": {"Climate_Cl": "H", "votes": 1, "cluster_size": 2, "tie": true, "status": "tie", "member_ids": "2640,2645"}, "geometry": {"type": "Point", "coordinates": [-5.190072634979193, -51.900479713802504]}}, {"type": "Feature", "properties": {"Climate_Cl": "S", "votes": 1, "cluster_size": 2, "tie": true, "status": "tie", "member_ids": "2640,2645"}, "geometry": {"type": "Point", "coordinates": [-5.190072634979193, -51.900479713802504]}}, {"type": "Feature", "properties": {"Climate_Cl": "H", "votes": 1, "cluster_size": 2, "tie": true, "status": "tie", "member_ids": "2642,2647"}, "geometry": {"type": "Point", "coordinates": [-3.877239434031663, -53.885680603959244]}}, {"type": "Feature", "properties": {"Climate_Cl": "S", "votes": 1, "cluster_size": 2, "tie": true, "status": "tie", "member_ids": "2642,2647"}, "geometry": {"type": "Point", "coordinates": [-3.877239434031663, -53.885680603959244]}}, {"type": "Feature", "properties": {"Climate_Cl": "S", "votes": 11, "cluster_size": 13, "tie": false, "status": "majority", "member_ids": "2684,2685,2686,2687,2689,2694,2710,2813,2814,2815,2817,2818,2947"}, "geometry": {"type": "Point", "coordinates": [1.4685535292969099, 15.46011030420637]}}, {"type": "Feature", "properties": {"Climate_Cl": "S", "votes": 1, "cluster_size": 2, "tie": true, "status": "tie", "member_ids": "2695,2697"}, "geometry": {"type": "Point", "coordinates": [3.180044095004795, 15.271300930965694]}}, {"type": "Feature", "properties": {"Climate_Cl": "D", "votes": 1, "cluster_size": 2, "tie": true, "status": "tie", "member_ids": "2695,2697"}, "geometry": {"type": "Point", "coordinates": [3.180044095004795, 15.271300930965694]}}, {"type": "Feature", "properties": {"Climate_Cl": "S", "votes": 2, "cluster_size": 2, "tie": false, "status": "majority", "member_ids": "2713,2716"}, "geometry": {"type": "Point", "coordinates": [3.163066749907705, 15.781054266408077]}}, {"type": "Feature", "properties": {"Climate_Cl": "H", "votes": 2, "cluster_size": 3, "tie": false, "status": "majority", "member_ids": "2865,2866,2950"}, "geometry": {"type": "Point", "coordinates": [1.690903545362165, 17.461147729697547]}}, {"type": "Feature", "properties": {"Climate_Cl": "H", "votes": 2, "cluster_size": 3, "tie": false, "status": "majority", "member_ids": "2867,2868,2869"}, "geometry": {"type": "Point", "coordinates": [3.239558868113265, 17.604971952965542]}}, {"type": "Feature", "properties": {"Climate_Cl": "S", "votes": 1, "cluster_size": 1, "tie": false, "status": "majority", "member_ids": "2870"}, "geometry": {"type": "Point", "coordinates": [2.181840818508995, 18.118709919564875]}}, {"type": "Feature", "properties": {"Climate_Cl": "H", "votes": 1, "cluster_size": 1, "tie": false, "status": "majority", "member_ids": "2873"}, "geometry": {"type": "Point", "coordinates": [2.600520641772365, 17.261607254244527]}}, {"type": "Feature", "properties": {"Climate_Cl": "H", "votes": 1, "cluster_size": 1, "tie": false, "status": "majority", "member_ids": "2988"}, "geometry": {"type": "Point", "coordinates": [-41.92688990004474, -44.98337042260095]}}, {"type": "Feature", "properties": {"Climate_Cl": "H", "votes": 2, "cluster_size": 4, "tie": true, "status": "tie", "member_ids": "3012,3022,3138,3139"}, "geometry": {"type": "Point", "coordinates": [-55.12562715560791, -0.062371054260732]}}, {"type": "Feature", "properties": {"Climate_Cl": "S", "votes": 2, "cluster_size": 4, "tie": true, "status": "tie", "member_ids": "3012,3022,3138,3139"}, "geometry": {"type": "Point", "coordinates": [-55.12562715560791, -0.062371054260732]}}, {"type": "Feature", "properties": {"Climate_Cl": "H", "votes": 1, "cluster_size": 1, "tie": false, "status": "majority", "member_ids": "3025"}, "geometry": {"type": "Point", "coordinates": [-53.37709797774603, -0.420713812225475]}}, {"type": "Feature", "properties": {"Climate_Cl": "H", "votes": 2, "cluster_size": 2, "tie": false, "status": "majority", "member_ids": "3026,3027"}, "geometry": {"type": "Point", "coordinates": [-54.01632037537539, -1.279329411045888]}}, {"type": "Feature", "properties": {"Climate_Cl": "H", "votes": 1, "cluster_size": 1, "tie": false, "status": "majority", "member_ids": "3061"}, "geometry": {"type": "Point", "coordinates": [-47.00074067465411, 0.282191830706017]}}, {"type": "Feature", "properties": {"Climate_Cl": "H", "votes": 1, "cluster_size": 1, "tie": false, "status": "majority", "member_ids": "3064"}, "geometry": {"type": "Point", "coordinates": [-46.42109121171519, 0.155853038558888]}}, {"type": "Feature", "properties": {"Climate_Cl": "S", "votes": 2, "cluster_size": 3, "tie": false, "status": "majority", "member_ids": "3128,3129,3130"}, "geometry": {"type": "Point", "coordinates": [-57.14275803619953, -0.166983497382902]}}, {"type": "Feature", "properties": {"Climate_Cl": "H", "votes": 1, "cluster_size": 2, "tie": true, "status": "tie", "member_ids": "3131,3132"}, "geometry": {"type": "Point", "coordinates": [-57.629917373966535, -1.191446579347205]}}, {"type": "Feature", "properties": {"Climate_Cl": "S", "votes": 1, "cluster_size": 2, "tie": true, "status": "tie", "member_ids": "3131,3132"}, "geometry": {"type": "Point", "coordinates": [-57.629917373966535, -1.191446579347205]}}, {"type": "Feature", "properties": {"Climate_Cl": "H", "votes": 3, "cluster_size": 4, "tie": false, "status": "majority", "member_ids": "3133,3134,3135,3136"}, "geometry": {"type": "Point", "coordinates": [-57.14736356047769, -2.169563595497755]}}, {"type": "Feature", "properties": {"Climate_Cl": "S", "votes": 1, "cluster_size": 1, "tie": false, "status": "majority", "member_ids": "3137"}, "geometry": {"type": "Point", "coordinates": [-56.051230882124564, -1.11330684641254]}}]}