{"type": "FeatureCollection", "features": [{"type": "Feature", "properties": {"ID": "294", "Country": "Argentina", "Basin_Sub_": "Neuquén", "Group": "Neuquén", "Formation": "Bajo de la Carpa", "Member": null, "Well name/ outcrop": null, "Latitude": "-38.846", "Longitude": "-68.37", "Dating evidence": "biostratigraphy; stratigraphic correlation", "REF(Authors, Year)": "Bonaparte, 1991* /  Legarreta and Gulisano, 1989; Hugo and Leanza, 2001**", "Show_on_Ma": "85", "Lithology, structures, paleowind": "Sandstones, intercalations of claystones and siltstones", "Paleoenvironment": "Continental: braided fluvial system with eolian dunes", "REF (Authors, Year)": "Garrido 2010", "Fossil occurrences": "sauropods; theropods; crocodiles, turtles; snakes", "REF (Authors, Year)_1": "Garrido 2010", "Geochemistry data": null, "REF (Authors, Year)_2": null, "Sediment-based climate inference (hot/cold, humid/semi-arid/desert)": "semi-arid", "Fossil-based climate inference (hot/cold, humid/semi-arid/desert)": null, "Geochemistry-based climate inference  (hot/cold, humid/semi-arid/desert)": null, "Climate assignment leading evidence": "aeolian dunes", "Climate_Cl": "S", "Weight": "2", "PlateID": "283", "Sediment-based climate inference (hot/cold, humid/S/desert)": null, "Fossil-based climate inference (hot/cold, humid/S/desert)": null, "Geochemistry-based climate inference  (hot/cold, humid/S/desert)": null, "PaleozonaCodigo": null, "layer": "85.00Ma_point", "path": "C:/Users/Leonardo Bachi/OneDrive/Desktop/ITT_OCEANEON/20_SETEMBRO_TABELA_FINAL/PONTOS_RETIFICADOS/85.00Ma.geojson", "winner": "H", "cluster_size": 4}, "geometry": {"type": "Point", "coordinates": [-58.123392777829174, -47.510110086001575]}}, {"type": "Feature", "properties": {"ID": "1892", "Country": "Chile", "Basin_Sub_": "Vallenar y La Serena", "Group": " ", "Formation": "Viñita", "Member": null, "Well name/ outcrop": null, "Latitude": "-29", "Longitude": "-70.433", "Dating evidence": null, "REF(Authors, Year)": null, "Show_on_Ma": "85", "Lithology, structures, paleowind": null, "Paleoenvironment": null, "REF (Authors, Year)": null, "Fossil occurrences": null, "REF (Authors, Year)_1": null, "Geochemistry data": null, "REF (Authors, Year)_2": null, "Sediment-based climate inference (hot/cold, humid/semi-arid/desert)": null, "Fossil-based climate inference (hot/cold, humid/semi-arid/desert)": null, "Geochemistry-based climate inference  (hot/cold, humid/semi-arid/desert)": null, "Climate assignment leading evidence": null, "Climate_Cl": "H", "Weight": "1", "PlateID": "202", "Sediment-based climate inference (hot/cold, humid/S/desert)": null, "Fossil-based climate inference (hot/cold, humid/S/desert)": null, "Geochemistry-based climate inference  (hot/cold, humid/S/desert)": null, "PaleozonaCodigo": null, "layer": "85.00Ma_point", "path": "C:/Users/Leonardo Bachi/OneDrive/Desktop/ITT_OCEANEON/20_SETEMBRO_TABELA_FINAL/PONTOS_RETIFICADOS/85.00Ma.geojson", "winner": "S", "cluster_size": 6}, "geometry": {"type": "Point", "coordinates": [-58.51513688067116, -37.52139636760317]}}, {"type": "Feature", "properties": {"ID": "1894", "Country": "Chile", "Basin_Sub_": "Vallenar y La Serena", "Group": "N/A", "Formation": "Viñita", "Member": null, "Well name/ outcrop": null, "Latitude": "-29", "Longitude": "-70.433", "Dating evidence": null, "REF(Authors, Year)": null, "Show_on_Ma": "85", "Lithology, structures, paleowind": null, "Paleoenvironment": null, "REF (Authors, Year)": null, "Fossil occurrences": null, "REF (Authors, Year)_1": null, "Geochemistry data": null, "REF (Authors, Year)_2": null, "Sediment-based climate inference (hot/cold, humid/semi-arid/desert)": null, "Fossil-based climate inference (hot/cold, humid/semi-arid/desert)": null, "Geochemistry-based climate inference  (hot/cold, humid/semi-arid/desert)": null, "Climate assignment leading evidence": null, "Climate_Cl": "H", "Weight": "1", "PlateID": "202", "Sediment-based climate inference (hot/cold, humid/S/desert)": null, "Fossil-based climate inference (hot/cold, humid/S/desert)": null, "Geochemistry-based climate inference  (hot/cold, humid/S/desert)": null, "PaleozonaCodigo": null, "layer": "85.00Ma_point", "path": "C:/Users/Leonardo Bachi/OneDrive/Desktop/ITT_OCEANEON/20_SETEMBRO_TABELA_FINAL/PONTOS_RETIFICADOS/85.00Ma.geojson", "winner": "S", "cluster_size": 6}, "geometry": {"type": "Point", "coordinates": [-58.51513688067116, -37.52139636760317]}}, {"type": "Feature", "properties": {"ID": "2077", "Country": "Ivory Coast", "Basin_Sub_": "Ivorian Basin", "Group": "NA", "Formation": "NA", "Member": "NA", "Well name/ outcrop": "ODP -  Site 959", "Latitude": "3.627", "Longitude": "-2.735", "Dating evidence": "NA", "REF(Authors, Year)": "NA", "Show_on_Ma": "85", "Lithology, structures, paleowind": "Organic-rich black shales, clay-rich hemipelagic sediments", "Paleoenvironment": "Marine: Deep-marine basin", "REF (Authors, Year)": "Beckmann et al., 2005", "Fossil occurrences": "Calcareous nannofossils; nannofossil (zone CC15); foraminiferal assemblages", "REF (Authors, Year)_1": "Beckmann et al., 2005", "Geochemistry data": "K/Al (low values); Ti/Al (cyclic variations) ", "REF (Authors, Year)_2": "Beckmann et al., 2005", "Sediment-based climate inference (hot/cold, humid/semi-arid/desert)": "NA", "Fossil-based climate inference (hot/cold, humid/semi-arid/desert)": "NA", "Geochemistry-based climate inference  (hot/cold, humid/semi-arid/desert)": "Arid", "Climate assignment leading evidence": "K/Al = corresponds to enhanced detrital input from tropical humid regions; Ti/Al = alternating tropical humid and arid conditions", "Climate_Cl": "D", "Weight": "3", "PlateID": "714", "Sediment-based climate inference (hot/cold, humid/S/desert)": null, "Fossil-based climate inference (hot/cold, humid/S/desert)": null, "Geochemistry-based climate inference  (hot/cold, humid/S/desert)": null, "PaleozonaCodigo": null, "layer": "85.00Ma_point", "path": "C:/Users/Leonardo Bachi/OneDrive/Desktop/ITT_OCEANEON/20_SETEMBRO_TABELA_FINAL/PONTOS_RETIFICADOS/85.00Ma.geojson", "winner": "H", "cluster_size": 5}, "geometry": {"type": "Point", "coordinates": [-16.368777666663473, -11.734198178802572]}}, {"type": "Feature", "properties": {"ID": "2078", "Country": "Ivory Coast", "Basin_Sub_": "Ivorian Basin", "Group": "NA", "Formation": "NA", "Member": "NA", "Well name/ outcrop": "ODP -  Site 959", "Latitude": "3.627", "Longitude": "-2.735", "Dating evidence": "NA", "REF(Authors, Year)": "NA", "Show_on_Ma": "85", "Lithology, structures, paleowind": "Organic-rich laminated black shales alternating with less organic-rich siliciclastic/hemipelagic sediments", "Paleoenvironment": "Marine: Deep-marine basin", "REF (Authors, Year)": "Beckmann et al., 2005", "Fossil occurrences": "Nannofossils (zone CC15); foraminifera", "REF (Authors, Year)_1": "Beckmann et al., 2005", "Geochemistry data": "K/Al (progressive increase in values ??towards the top); Ti/Al (persistent contribution from arid-source materia) ", "REF (Authors, Year)_2": "Beckmann et al., 2005", "Sediment-based climate inference (hot/cold, humid/semi-arid/desert)": "NA", "Fossil-based climate inference (hot/cold, humid/semi-arid/desert)": "NA", "Geochemistry-based climate inference  (hot/cold, humid/semi-arid/desert)": "Arid", "Climate assignment leading evidence": "increase in K/Al and Ti/Al indicates increasing supply from semi-arid regions", "Climate_Cl": "D", "Weight": "3", "PlateID": "714", "Sediment-based climate inference (hot/cold, humid/S/desert)": null, "Fossil-based climate inference (hot/cold, humid/S/desert)": null, "Geochemistry-based climate inference  (hot/cold, humid/S/desert)": null, "PaleozonaCodigo": null, "layer": "85.00Ma_point", "path": "C:/Users/Leonardo Bachi/OneDrive/Desktop/ITT_OCEANEON/20_SETEMBRO_TABELA_FINAL/PONTOS_RETIFICADOS/85.00Ma.geojson", "winner": "H", "cluster_size": 5}, "geometry": {"type": "Point", "coordinates": [-16.368777666663473, -11.734198178802572]}}, {"type": "Feature", "properties": {"ID": "2687", "Country": "Tunisia", "Basin_Sub_": "Gafsa", "Group": "N/A", "Formation": "Aleg", "Member": "Douleb", "Well name/ outcrop": "Jebel Berda", "Latitude": "34.21", "Longitude": "8.942", "Dating evidence": "Biostratigraphy: ostracod assemblage", "REF(Authors, Year)": "Jomaa-Salmouna etal 2017", "Show_on_Ma": "85", "Lithology, structures, paleowind": "i) Gypsum, Marls, Lumach. Limestone, Limestone, Biocl. Limestone. / ii) Gypsum, Limestone, Biocl. Limest.", "Paleoenvironment": "Marine: inner shelf", "REF (Authors, Year)": "N/A", "Fossil occurrences": "i) Ostracod: Paracypris mdaouerensis, P. dubertreti,  P. triangularis, Xestoleberis cf. tunisiensis, Cytheropteron sp., Cytherella gr. parallela, C. gr. ovata, C. sarakandaensis, Cythereis diversereticulata, C. gambiensis, C. sp. NB 1665, Limburgina? sp. M532, Pterygocythere allinensis, Bardia sp., Reticulocosta gr. vitiliginosa, Spinoleberis yotvataensis, Veenia sp., Aysegulina selloumensis, Asciocythere cf. sugillata, Ovocytheridea sp. B 780, Sapucariella parvoangulata ; Plankthonic Foraminifers: Textularia sp., Benthic Foraminifers, Echinoderm spicules, Gastropods, Lamellibranches. / ii) Ostracod: Spinoleberis yotvataensis, Cytherella gr. ovata, Paracypris mdaouerensis, P. triangularis, Pterygocythere allinensis, Trachyleberidea gr. geinitzi, Ostracode B4, Fossocytheridea porterovata, Reticulocosta gr. vitiliginosa,  Peloriops sp., Ayseguilina selloumensis, Cythereis morsottensis; Lenticulina sp., Echinoderm spicules, Bryozoans, Lamellibranches, ", "REF (Authors, Year)_1": "Jomaa-Salmouna etal 2017", "Geochemistry data": "N/A", "REF (Authors, Year)_2": "N/A", "Sediment-based climate inference (hot/cold, humid/semi-arid/desert)": "Hot, arid", "Fossil-based climate inference (hot/cold, humid/semi-arid/desert)": "N/A", "Geochemistry-based climate inference  (hot/cold, humid/semi-arid/desert)": "N/A", "Climate assignment leading evidence": "Gypsum", "Climate_Cl": "D", "Weight": "4", "PlateID": "715", "Sediment-based climate inference (hot/cold, humid/S/desert)": null, "Fossil-based climate inference (hot/cold, humid/S/desert)": null, "Geochemistry-based climate inference  (hot/cold, humid/S/desert)": null, "PaleozonaCodigo": null, "layer": "85.00Ma_point", "path": "C:/Users/Leonardo Bachi/OneDrive/Desktop/ITT_OCEANEON/20_SETEMBRO_TABELA_FINAL/PONTOS_RETIFICADOS/85.00Ma.geojson", "winner": "S", "cluster_size": 13}, "geometry": {"type": "Point", "coordinates": [1.432293184366606, 15.52062323195909]}}, {"type": "Feature", "properties": {"ID": "2689", "Country": "Tunisia", "Basin_Sub_": "Gafsa", "Group": "N/A", "Formation": "Aleg", "Member": "lower Aleg marls", "Well name/ outcrop": "Jebel Berda", "Latitude": "34.21", "Longitude": "8.942", "Dating evidence": "Biostratigraphy: ostracod assemblage", "REF(Authors, Year)": "Jomaa-Salmouna etal 2017", "Show_on_Ma": "85", "Lithology, structures, paleowind": "Marls, Lumach. Limestone", "Paleoenvironment": "Marine: inner shelf", "REF (Authors, Year)": "N/A", "Fossil occurrences": "Ostracod: Paracypris mdaouerensis, Cytherella gr. ovata, Spinoleberis yotvataensis, Cythereis gr. rawashensis, Ovocytheridea aff. producta, Cytherepteron sp. DM 1629, Perissocytheridea ascalapha, Trachyleberidea gr. geinitzi, Veenia sp.", "REF (Authors, Year)_1": "Jomaa-Salmouna etal 2017", "Geochemistry data": "N/A", "REF (Authors, Year)_2": "N/A", "Sediment-based climate inference (hot/cold, humid/semi-arid/desert)": "Hot, dry?", "Fossil-based climate inference (hot/cold, humid/semi-arid/desert)": "N/A", "Geochemistry-based climate inference  (hot/cold, humid/semi-arid/desert)": "N/A", "Climate assignment leading evidence": "Carbonate ", "Climate_Cl": "D", "Weight": "2", "PlateID": "7701", "Sediment-based climate inference (hot/cold, humid/S/desert)": null, "Fossil-based climate inference (hot/cold, humid/S/desert)": null, "Geochemistry-based climate inference  (hot/cold, humid/S/desert)": null, "PaleozonaCodigo": null, "layer": "85.00Ma_point", "path": "C:/Users/Leonardo Bachi/OneDrive/Desktop/ITT_OCEANEON/20_SETEMBRO_TABELA_FINAL/PONTOS_RETIFICADOS/85.00Ma.geojson", "winner": "S", "cluster_size": 13}, "geometry": {"type": "Point", "coordinates": [1.432293184366606, 15.52062323195909]}}, {"type": "Feature", "properties": {"ID": "2866", "Country": "Tunisia", "Basin_Sub_": "N/A", "Group": "N/A", "Formation": "Kef", "Member": "Unit 1, Unit 2, Unit 3", "Well name/ outcrop": "Jbil", "Latitude": "36.16", "Longitude": "8.75", "Dating evidence": "Biostratigraphy:  Calcareous nannofossil, Planktonic foraminifera, Ammonites", "REF(Authors, Year)": "Farouk etal. 2017", "Show_on_Ma": "85", "Lithology, structures, paleowind": "Limestone, Marl", "Paleoenvironment": "Marine: outer shelf to upper slope ", "REF (Authors, Year)": "Farouk etal. 2017", "Fossil occurrences": "Unit 1: Ammonites: Paratexanites spp., Scaphites cf. kieslingwaldensis; Calcareous nannofossil: Lithastrinus grillii,  L. cayeuxii, Reinhardtites anthophorus, Micula decussata, M. concava ;Planktonic foraminifera: Dicarinella concavata; Small pelecypod: Pycondonte sp., Inoceramid / Unit 2: Ammonites: Texanites (Texanites) sp; Inoceramid: Platyceramus cycloides ; Calcareous nannofossil: Calculites obscurus; Planktonic foraminifera: Dicarinella asymetrica, Globotruncana manaurensis, Costellagerina pilula, Sigalia deflaensis, S. carpatica,  Ventilabrella decoratissima, Inoceramid / Unit 3: Calcareous nannofossil: Reinhardtites levis, Uniplanarius gothicus; Inoceramid", "REF (Authors, Year)_1": "Farouk etal. 2017", "Geochemistry data": "N/A", "REF (Authors, Year)_2": "N/A", "Sediment-based climate inference (hot/cold, humid/semi-arid/desert)": "Hot", "Fossil-based climate inference (hot/cold, humid/semi-arid/desert)": "N/A", "Geochemistry-based climate inference  (hot/cold, humid/semi-arid/desert)": "N/A", "Climate assignment leading evidence": "Carbonates", "Climate_Cl": "S", "Weight": "1", "PlateID": "715", "Sediment-based climate inference (hot/cold, humid/S/desert)": null, "Fossil-based climate inference (hot/cold, humid/S/desert)": null, "Geochemistry-based climate inference  (hot/cold, humid/S/desert)": null, "PaleozonaCodigo": null, "layer": "85.00Ma_point", "path": "C:/Users/Leonardo Bachi/OneDrive/Desktop/ITT_OCEANEON/20_SETEMBRO_TABELA_FINAL/PONTOS_RETIFICADOS/85.00Ma.geojson", "winner": "H", "cluster_size": 3}, "geometry": {"type": "Point", "coordinates": [1.690903545362165, 17.461147729697547]}}, {"type": "Feature", "properties": {"ID": "2869", "Country": "Tunisia", "Basin_Sub_": "N/A", "Group": "N/A", "Formation": "Kef", "Member": "Unit 1, Unit 2, Unit 3", "Well name/ outcrop": "Fguira Salah", "Latitude": "36.6", "Longitude": "10.51", "Dating evidence": "Biostratigraphy:  Calcareous nannofossil, Planktonic foraminifera, Ammonites", "REF(Authors, Year)": "Farouk etal. 2017", "Show_on_Ma": "85", "Lithology, structures, paleowind": "Limestone, Marl", "Paleoenvironment": "Marine: outer shelf to upper slope ", "REF (Authors, Year)": "Farouk etal. 2017", "Fossil occurrences": "Unit 1 - Calcareous nannofossil: Micula decussata,  Bukryaster hayi, Reinhardtites anthophorus, Lucianorhabdus cayeuxii; Planktonic foraminifera: Dicarinella concavata, Marginotruncana marianosi, M. sigali /  Unit 2 - Calcareous nannofossil: Eprolithus floralis, Lithastrinus grillii, Calculites obscurus, Uniplanarius gothicus; Planktonic foraminifera: Dicarinella asymetrica, D. primitiva, Costellagerina pilula, Globotruncana manaurensis, Sigalia deflaensis, S. carpatica ; Ammonites: Texanites (Texanites) sp; Inoceramid: Platyceramus cycloides / Unit 3 - Calcareous nannofossil: Reinhardtites levis", "REF (Authors, Year)_1": "Farouk etal. 2017", "Geochemistry data": "N/A", "REF (Authors, Year)_2": "N/A", "Sediment-based climate inference (hot/cold, humid/semi-arid/desert)": "Hot", "Fossil-based climate inference (hot/cold, humid/semi-arid/desert)": "N/A", "Geochemistry-based climate inference  (hot/cold, humid/semi-arid/desert)": "N/A", "Climate assignment leading evidence": "Carbonates", "Climate_Cl": "S", "Weight": "1", "PlateID": "7701", "Sediment-based climate inference (hot/cold, humid/S/desert)": null, "Fossil-based climate inference (hot/cold, humid/S/desert)": null, "Geochemistry-based climate inference  (hot/cold, humid/S/desert)": null, "PaleozonaCodigo": null, "layer": "85.00Ma_point", "path": "C:/Users/Leonardo Bachi/OneDrive/Desktop/ITT_OCEANEON/20_SETEMBRO_TABELA_FINAL/PONTOS_RETIFICADOS/85.00Ma.geojson", "winner": "H", "cluster_size": 3}, "geometry": {"type": "Point", "coordinates": [3.239558868113265, 17.604971952965542]}}, {"type": "Feature", "properties": {"ID": "3128", "Country": "Venezuela", "Basin_Sub_": "Maracaibo", "Group": " ", "Formation": "La Luna", "Member": null, "Well name/ outcrop": null, "Latitude": "10", "Longitude": "-72.057", "Dating evidence": null, "REF(Authors, Year)": null, "Show_on_Ma": "85", "Lithology, structures, paleowind": null, "Paleoenvironment": null, "REF (Authors, Year)": null, "Fossil occurrences": null, "REF (Authors, Year)_1": null, "Geochemistry data": null, "REF (Authors, Year)_2": null, "Sediment-based climate inference (hot/cold, humid/semi-arid/desert)": null, "Fossil-based climate inference (hot/cold, humid/semi-arid/desert)": null, "Geochemistry-based climate inference  (hot/cold, humid/semi-arid/desert)": null, "Climate assignment leading evidence": null, "Climate_Cl": "H", "Weight": "1", "PlateID": "2030", "Sediment-based climate inference (hot/cold, humid/S/desert)": null, "Fossil-based climate inference (hot/cold, humid/S/desert)": null, "Geochemistry-based climate inference  (hot/cold, humid/S/desert)": null, "PaleozonaCodigo": null, "layer": "85.00Ma_point", "path": "C:/Users/Leonardo Bachi/OneDrive/Desktop/ITT_OCEANEON/20_SETEMBRO_TABELA_FINAL/PONTOS_RETIFICADOS/85.00Ma.geojson", "winner": "S", "cluster_size": 3}, "geometry": {"type": "Point", "coordinates": [-57.14275803619954, -0.166983497382902]}}, {"type": "Feature", "properties": {"ID": "3133", "Country": "Venezuela", "Basin_Sub_": "Maracaibo", "Group": " ", "Formation": "La Luna", "Member": null, "Well name/ outcrop": null, "Latitude": "8", "Longitude": "-72.16", "Dating evidence": null, "REF(Authors, Year)": null, "Show_on_Ma": "85", "Lithology, structures, paleowind": null, "Paleoenvironment": null, "REF (Authors, Year)": null, "Fossil occurrences": null, "REF (Authors, Year)_1": null, "Geochemistry data": null, "REF (Authors, Year)_2": null, "Sediment-based climate inference (hot/cold, humid/semi-arid/desert)": null, "Fossil-based climate inference (hot/cold, humid/semi-arid/desert)": null, "Geochemistry-based climate inference  (hot/cold, humid/semi-arid/desert)": null, "Climate assignment leading evidence": null, "Climate_Cl": "S", "Weight": "4", "PlateID": "2030", "Sediment-based climate inference (hot/cold, humid/S/desert)": null, "Fossil-based climate inference (hot/cold, humid/S/desert)": null, "Geochemistry-based climate inference  (hot/cold, humid/S/desert)": null, "PaleozonaCodigo": null, "layer": "85.00Ma_point", "path": "C:/Users/Leonardo Bachi/OneDrive/Desktop/ITT_OCEANEON/20_SETEMBRO_TABELA_FINAL/PONTOS_RETIFICADOS/85.00Ma.geojson", "winner": "H", "cluster_size": 4}, "geometry": {"type": "Point", "coordinates": [-57.14736356047769, -2.169563595497755]}}]}