{"type": "FeatureCollection", "features": [{"type": "Feature", "properties": {"Climate_Cl": "S", "votes": 4, "cluster_size": 4, "tie": false, "status": "majority", "member_ids": "31,35,39,97"}, "geometry": {"type": "Point", "coordinates": [-6.557381656802477, 13.770992358206103]}}, {"type": "Feature", "properties": {"Climate_Cl": "S", "votes": 4, "cluster_size": 4, "tie": false, "status": "majority", "member_ids": "51,2720,2721,2871"}, "geometry": {"type": "Point", "coordinates": [1.2868716496712227, 14.458836305164944]}}, {"type": "Feature", "properties": {"Climate_Cl": "S", "votes": 2, "cluster_size": 3, "tie": false, "status": "majority", "member_ids": "102,145,147"}, "geometry": {"type": "Point", "coordinates": [-8.625672952995517, 13.44553556273741]}}, {"type": "Feature", "properties": {"Climate_Cl": "S", "votes": 3, "cluster_size": 4, "tie": false, "status": "majority", "member_ids": "113,115,116,126"}, "geometry": {"type": "Point", "coordinates": [-0.5923211197033682, 14.670073802680472]}}, {"type": "Feature", "properties": {"Climate_Cl": "S", "votes": 1, "cluster_size": 2, "tie": true, "status": "tie", "member_ids": "139,141"}, "geometry": {"type": "Point", "coordinates": [-5.348706306726169, 14.132142335188934]}}, {"type": "Feature", "properties": {"Climate_Cl": "D", "votes": 1, "cluster_size": 2, "tie": true, "status": "tie", "member_ids": "139,141"}, "geometry": {"type": "Point", "coordinates": [-5.348706306726169, 14.132142335188934]}}, {"type": "Feature", "properties": {"Climate_Cl": "S", "votes": 1, "cluster_size": 1, "tie": false, "status": "majority", "member_ids": "152"}, "geometry": {"type": "Point", "coordinates": [-2.33647721674541, 14.933411169606769]}}, {"type": "Feature", "properties": {"Climate_Cl": "H", "votes": 1, "cluster_size": 1, "tie": false, "status": "majority", "member_ids": "182"}, "geometry": {"type": "Point", "coordinates": [-4.555834088597873, -29.739496957380894]}}, {"type": "Feature", "properties": {"Climate_Cl": "H", "votes": 2, "cluster_size": 2, "tie": false, "status": "majority", "member_ids": "216,223"}, "geometry": {"type": "Point", "coordinates": [-66.14195985864464, -58.41614199039991]}}, {"type": "Feature", "properties": {"Climate_Cl": "H", "votes": 1, "cluster_size": 1, "tie": false, "status": "majority", "member_ids": "253"}, "geometry": {"type": "Point", "coordinates": [-59.71841050049363, -53.59917081634975]}}, {"type": "Feature", "properties": {"Climate_Cl": "H", "votes": 1, "cluster_size": 1, "tie": false, "status": "majority", "member_ids": "266"}, "geometry": {"type": "Point", "coordinates": [-62.12067261128914, -54.539967916803924]}}, {"type": "Feature", "properties": {"Climate_Cl": "H", "votes": 1, "cluster_size": 2, "tie": true, "status": "tie", "member_ids": "298,299"}, "geometry": {"type": "Point", "coordinates": [-59.0433763658033, -49.4226775895854]}}, {"type": "Feature", "properties": {"Climate_Cl": "S", "votes": 1, "cluster_size": 2, "tie": true, "status": "tie", "member_ids": "298,299"}, "geometry": {"type": "Point", "coordinates": [-59.0433763658033, -49.4226775895854]}}, {"type": "Feature", "properties": {"Climate_Cl": "H", "votes": 1, "cluster_size": 1, "tie": false, "status": "majority", "member_ids": "301"}, "geometry": {"type": "Point", "coordinates": [-59.96316247929969, -49.35849236099844]}}, {"type": "Feature", "properties": {"Climate_Cl": "H", "votes": 1, "cluster_size": 1, "tie": false, "status": "majority", "member_ids": "324"}, "geometry": {"type": "Point", "coordinates": [-59.951030857668464, -48.32152436024705]}}, {"type": "Feature", "properties": {"Climate_Cl": "D", "votes": 1, "cluster_size": 1, "tie": false, "status": "majority", "member_ids": "351"}, "geometry": {"type": "Point", "coordinates": [-50.65596689238913, -52.60896423836755]}}, {"type": "Feature", "properties": {"Climate_Cl": "S", "votes": 1, "cluster_size": 1, "tie": false, "status": "majority", "member_ids": "420"}, "geometry": {"type": "Point", "coordinates": [-52.07902063179825, -30.0795474969977]}}, {"type": "Feature", "properties": {"Climate_Cl": "H", "votes": 2, "cluster_size": 2, "tie": false, "status": "majority", "member_ids": "437,451"}, "geometry": {"type": "Point", "coordinates": [-58.52510303223486, -16.177913396403504]}}, {"type": "Feature", "properties": {"Climate_Cl": "H", "votes": 1, "cluster_size": 1, "tie": false, "status": "majority", "member_ids": "486"}, "geometry": {"type": "Point", "coordinates": [-43.515241701322175, -7.811322541522808]}}, {"type": "Feature", "properties": {"Climate_Cl": "H", "votes": 1, "cluster_size": 2, "tie": true, "status": "tie", "member_ids": "597,604"}, "geometry": {"type": "Point", "coordinates": [-22.381170470872373, -12.478880418682996]}}, {"type": "Feature", "properties": {"Climate_Cl": "S", "votes": 1, "cluster_size": 2, "tie": true, "status": "tie", "member_ids": "597,604"}, "geometry": {"type": "Point", "coordinates": [-22.381170470872373, -12.478880418682996]}}, {"type": "Feature", "properties": {"Climate_Cl": "H", "votes": 3, "cluster_size": 3, "tie": false, "status": "majority", "member_ids": "668,678,684"}, "geometry": {"type": "Point", "coordinates": [-23.99072408488588, -34.95258147710028]}}, {"type": "Feature", "properties": {"Climate_Cl": "S", "votes": 1, "cluster_size": 1, "tie": false, "status": "majority", "member_ids": "759"}, "geometry": {"type": "Point", "coordinates": [-23.265463356138255, -31.852419167195222]}}, {"type": "Feature", "properties": {"Climate_Cl": "H", "votes": 1, "cluster_size": 1, "tie": false, "status": "majority", "member_ids": "779"}, "geometry": {"type": "Point", "coordinates": [-31.911352817417054, -8.64495184838996]}}, {"type": "Feature", "properties": {"Climate_Cl": "H", "votes": 1, "cluster_size": 1, "tie": false, "status": "majority", "member_ids": "796"}, "geometry": {"type": "Point", "coordinates": [-33.53134189523918, -7.000752695529357]}}, {"type": "Feature", "properties": {"Climate_Cl": "S", "votes": 1, "cluster_size": 1, "tie": false, "status": "majority", "member_ids": "838"}, "geometry": {"type": "Point", "coordinates": [-20.64544842559991, -24.505233968799907]}}, {"type": "Feature", "properties": {"Climate_Cl": "S", "votes": 1, "cluster_size": 1, "tie": false, "status": "majority", "member_ids": "854"}, "geometry": {"type": "Point", "coordinates": [-21.4630513046464, -24.695063756402856]}}, {"type": "Feature", "properties": {"Climate_Cl": "H", "votes": 1, "cluster_size": 1, "tie": false, "status": "majority", "member_ids": "895"}, "geometry": {"type": "Point", "coordinates": [-21.055973619653496, -27.500683934800687]}}, {"type": "Feature", "properties": {"Climate_Cl": "S", "votes": 1, "cluster_size": 1, "tie": false, "status": "majority", "member_ids": "936"}, "geometry": {"type": "Point", "coordinates": [-23.291691984559478, -29.96542461850522]}}, {"type": "Feature", "properties": {"Climate_Cl": "H", "votes": 3, "cluster_size": 3, "tie": false, "status": "majority", "member_ids": "972,976,980"}, "geometry": {"type": "Point", "coordinates": [-28.500968799321623, -11.803712606967999]}}, {"type": "Feature", "properties": {"Climate_Cl": "H", "votes": 2, "cluster_size": 2, "tie": false, "status": "majority", "member_ids": "1052,1053"}, "geometry": {"type": "Point", "coordinates": [-41.7903197838714, -23.02073114960545]}}, {"type": "Feature", "properties": {"Climate_Cl": "H", "votes": 1, "cluster_size": 2, "tie": true, "status": "tie", "member_ids": "1100,1119"}, "geometry": {"type": "Point", "coordinates": [-35.90498089897683, -43.073192191640125]}}, {"type": "Feature", "properties": {"Climate_Cl": "S", "votes": 1, "cluster_size": 2, "tie": true, "status": "tie", "member_ids": "1100,1119"}, "geometry": {"type": "Point", "coordinates": [-35.90498089897683, -43.073192191640125]}}, {"type": "Feature", "properties": {"Climate_Cl": "S", "votes": 1, "cluster_size": 1, "tie": false, "status": "majority", "member_ids": "1116"}, "geometry": {"type": "Point", "coordinates": [-32.92637199723123, -40.238068651667064]}}, {"type": "Feature", "properties": {"Climate_Cl": "S", "votes": 1, "cluster_size": 1, "tie": false, "status": "majority", "member_ids": "1131"}, "geometry": {"type": "Point", "coordinates": [-24.19753049340157, -40.9503707119801]}}, {"type": "Feature", "properties": {"Climate_Cl": "S", "votes": 1, "cluster_size": 1, "tie": false, "status": "majority", "member_ids": "1169"}, "geometry": {"type": "Point", "coordinates": [-17.520586585164875, -20.523335818274617]}}, {"type": "Feature", "properties": {"Climate_Cl": "S", "votes": 3, "cluster_size": 3, "tie": false, "status": "majority", "member_ids": "1170,1176,1182"}, "geometry": {"type": "Point", "coordinates": [-17.519816352678788, -19.1833360140955]}}, {"type": "Feature", "properties": {"Climate_Cl": "S", "votes": 2, "cluster_size": 2, "tie": false, "status": "majority", "member_ids": "1218,1221"}, "geometry": {"type": "Point", "coordinates": [-18.292109014152825, -20.45472851018545]}}, {"type": "Feature", "properties": {"Climate_Cl": "S", "votes": 1, "cluster_size": 1, "tie": false, "status": "majority", "member_ids": "1237"}, "geometry": {"type": "Point", "coordinates": [-19.326910920978246, -15.016660965316223]}}, {"type": "Feature", "properties": {"Climate_Cl": "S", "votes": 1, "cluster_size": 1, "tie": false, "status": "majority", "member_ids": "1240"}, "geometry": {"type": "Point", "coordinates": [-21.301425329724, -17.219474668747694]}}, {"type": "Feature", "properties": {"Climate_Cl": "S", "votes": 2, "cluster_size": 2, "tie": false, "status": "majority", "member_ids": "1246,1254"}, "geometry": {"type": "Point", "coordinates": [-19.749983484979015, -16.99451427537511]}}, {"type": "Feature", "properties": {"Climate_Cl": "D", "votes": 6, "cluster_size": 6, "tie": false, "status": "majority", "member_ids": "1418,1419,1420,1421,1422,1423"}, "geometry": {"type": "Point", "coordinates": [-30.67627537560443, -29.731071900527976]}}, {"type": "Feature", "properties": {"Climate_Cl": "S", "votes": 2, "cluster_size": 2, "tie": false, "status": "majority", "member_ids": "1524,1538"}, "geometry": {"type": "Point", "coordinates": [-29.46414027216317, -37.290208738650016]}}, {"type": "Feature", "properties": {"Climate_Cl": "S", "votes": 1, "cluster_size": 1, "tie": false, "status": "majority", "member_ids": "1533"}, "geometry": {"type": "Point", "coordinates": [-27.172488530939727, -36.28530357918597]}}, {"type": "Feature", "properties": {"Climate_Cl": "H", "votes": 2, "cluster_size": 4, "tie": true, "status": "tie", "member_ids": "1599,1600,1601,1602"}, "geometry": {"type": "Point", "coordinates": [-18.855271844449007, -23.019628240823106]}}, {"type": "Feature", "properties": {"Climate_Cl": "S", "votes": 2, "cluster_size": 4, "tie": true, "status": "tie", "member_ids": "1599,1600,1601,1602"}, "geometry": {"type": "Point", "coordinates": [-18.855271844449007, -23.019628240823106]}}, {"type": "Feature", "properties": {"Climate_Cl": "H", "votes": 2, "cluster_size": 2, "tie": false, "status": "majority", "member_ids": "1663,1664"}, "geometry": {"type": "Point", "coordinates": [-49.59347047003898, -15.245391019182131]}}, {"type": "Feature", "properties": {"Climate_Cl": "H", "votes": 1, "cluster_size": 1, "tie": false, "status": "majority", "member_ids": "1665"}, "geometry": {"type": "Point", "coordinates": [-46.511177251552816, -15.564220507526642]}}, {"type": "Feature", "properties": {"Climate_Cl": "H", "votes": 1, "cluster_size": 1, "tie": false, "status": "majority", "member_ids": "1704"}, "geometry": {"type": "Point", "coordinates": [-5.106981553116741, -15.928504589576479]}}, {"type": "Feature", "properties": {"Climate_Cl": "H", "votes": 1, "cluster_size": 1, "tie": false, "status": "majority", "member_ids": "1864"}, "geometry": {"type": "Point", "coordinates": [-68.52180900424034, -59.75911816588169]}}, {"type": "Feature", "properties": {"Climate_Cl": "S", "votes": 4, "cluster_size": 4, "tie": false, "status": "majority", "member_ids": "1902,1903,1924,1925"}, "geometry": {"type": "Point", "coordinates": [-58.64393034096399, -38.399125418889284]}}, {"type": "Feature", "properties": {"Climate_Cl": "H", "votes": 2, "cluster_size": 2, "tie": false, "status": "majority", "member_ids": "1995,1996"}, "geometry": {"type": "Point", "coordinates": [-61.05715660123564, -8.75589797711419]}}, {"type": "Feature", "properties": {"Climate_Cl": "D", "votes": 1, "cluster_size": 1, "tie": false, "status": "majority", "member_ids": "2022"}, "geometry": {"type": "Point", "coordinates": [-6.334428643157798, -18.872832755990736]}}, {"type": "Feature", "properties": {"Climate_Cl": "S", "votes": 1, "cluster_size": 1, "tie": false, "status": "majority", "member_ids": "2029"}, "geometry": {"type": "Point", "coordinates": [-5.674315407450973, -18.399618663715792]}}, {"type": "Feature", "properties": {"Climate_Cl": "H", "votes": 1, "cluster_size": 1, "tie": false, "status": "majority", "member_ids": "2041"}, "geometry": {"type": "Point", "coordinates": [-6.45289903862397, -20.635281579380518]}}, {"type": "Feature", "properties": {"Climate_Cl": "S", "votes": 1, "cluster_size": 1, "tie": false, "status": "majority", "member_ids": "2047"}, "geometry": {"type": "Point", "coordinates": [-13.073699094185152, -12.440579642378546]}}, {"type": "Feature", "properties": {"Climate_Cl": "H", "votes": 1, "cluster_size": 1, "tie": false, "status": "majority", "member_ids": "2074"}, "geometry": {"type": "Point", "coordinates": [-17.563242557209627, -13.403907574143178]}}, {"type": "Feature", "properties": {"Climate_Cl": "S", "votes": 1, "cluster_size": 1, "tie": false, "status": "majority", "member_ids": "2093"}, "geometry": {"type": "Point", "coordinates": [7.440083082910125, 6.741946158206506]}}, {"type": "Feature", "properties": {"Climate_Cl": "S", "votes": 1, "cluster_size": 1, "tie": false, "status": "majority", "member_ids": "2214"}, "geometry": {"type": "Point", "coordinates": [-15.09023811706747, 14.043846724326068]}}, {"type": "Feature", "properties": {"Climate_Cl": "H", "votes": 1, "cluster_size": 2, "tie": true, "status": "tie", "member_ids": "2218,2219"}, "geometry": {"type": "Point", "coordinates": [-17.625388666927012, 12.959925739864808]}}, {"type": "Feature", "properties": {"Climate_Cl": "S", "votes": 1, "cluster_size": 2, "tie": true, "status": "tie", "member_ids": "2218,2219"}, "geometry": {"type": "Point", "coordinates": [-17.625388666927012, 12.959925739864808]}}, {"type": "Feature", "properties": {"Climate_Cl": "S", "votes": 1, "cluster_size": 1, "tie": false, "status": "majority", "member_ids": "2241"}, "geometry": {"type": "Point", "coordinates": [-7.196386341359613, -34.81359321917477]}}, {"type": "Feature", "properties": {"Climate_Cl": "H", "votes": 1, "cluster_size": 2, "tie": true, "status": "tie", "member_ids": "2250,2253"}, "geometry": {"type": "Point", "coordinates": [-6.982302352068577, -5.397721008338268]}}, {"type": "Feature", "properties": {"Climate_Cl": "S", "votes": 1, "cluster_size": 2, "tie": true, "status": "tie", "member_ids": "2250,2253"}, "geometry": {"type": "Point", "coordinates": [-6.982302352068577, -5.397721008338268]}}, {"type": "Feature", "properties": {"Climate_Cl": "S", "votes": 1, "cluster_size": 1, "tie": false, "status": "majority", "member_ids": "2262"}, "geometry": {"type": "Point", "coordinates": [2.81948037783353, -6.643447275536387]}}, {"type": "Feature", "properties": {"Climate_Cl": "S", "votes": 1, "cluster_size": 1, "tie": false, "status": "majority", "member_ids": "2264"}, "geometry": {"type": "Point", "coordinates": [-4.669367448394024, -3.249813679147843]}}, {"type": "Feature", "properties": {"Climate_Cl": "S", "votes": 7, "cluster_size": 7, "tie": false, "status": "majority", "member_ids": "2346,2348,2350,2351,2352,2353,2355"}, "geometry": {"type": "Point", "coordinates": [-6.4526937535014, -14.076341116531932]}}, {"type": "Feature", "properties": {"Climate_Cl": "S", "votes": 1, "cluster_size": 1, "tie": false, "status": "majority", "member_ids": "2409"}, "geometry": {"type": "Point", "coordinates": [-57.93419756635748, -25.344001003495187]}}, {"type": "Feature", "properties": {"Climate_Cl": "S", "votes": 1, "cluster_size": 1, "tie": false, "status": "majority", "member_ids": "2421"}, "geometry": {"type": "Point", "coordinates": [-61.913271876232635, -18.741496272398052]}}, {"type": "Feature", "properties": {"Climate_Cl": "S", "votes": 1, "cluster_size": 1, "tie": false, "status": "majority", "member_ids": "2436"}, "geometry": {"type": "Point", "coordinates": [-62.430677423197025, -19.679064958910555]}}, {"type": "Feature", "properties": {"Climate_Cl": "H", "votes": 1, "cluster_size": 1, "tie": false, "status": "majority", "member_ids": "2463"}, "geometry": {"type": "Point", "coordinates": [-61.19718540587841, -14.799396978623612]}}, {"type": "Feature", "properties": {"Climate_Cl": "H", "votes": 2, "cluster_size": 2, "tie": false, "status": "majority", "member_ids": "2474,2481"}, "geometry": {"type": "Point", "coordinates": [-59.844571051503564, -15.99876391287286]}}, {"type": "Feature", "properties": {"Climate_Cl": "S", "votes": 1, "cluster_size": 1, "tie": false, "status": "majority", "member_ids": "2493"}, "geometry": {"type": "Point", "coordinates": [-59.509886528146, -17.054751449960737]}}, {"type": "Feature", "properties": {"Climate_Cl": "S", "votes": 1, "cluster_size": 1, "tie": false, "status": "majority", "member_ids": "2504"}, "geometry": {"type": "Point", "coordinates": [-5.387816742181584, -25.472628214812133]}}, {"type": "Feature", "properties": {"Climate_Cl": "H", "votes": 4, "cluster_size": 5, "tie": false, "status": "majority", "member_ids": "2526,2527,2582,2622,2630"}, "geometry": {"type": "Point", "coordinates": [-27.158729051741194, 1.7422568691668647]}}, {"type": "Feature", "properties": {"Climate_Cl": "H", "votes": 3, "cluster_size": 4, "tie": false, "status": "majority", "member_ids": "2543,2544,2606,2609"}, "geometry": {"type": "Point", "coordinates": [-29.29462379171842, -0.208230613971867]}}, {"type": "Feature", "properties": {"Climate_Cl": "H", "votes": 2, "cluster_size": 2, "tie": false, "status": "majority", "member_ids": "2560,2561"}, "geometry": {"type": "Point", "coordinates": [-26.11079763690394, 2.912590388357719]}}, {"type": "Feature", "properties": {"Climate_Cl": "S", "votes": 1, "cluster_size": 1, "tie": false, "status": "majority", "member_ids": "2570"}, "geometry": {"type": "Point", "coordinates": [-26.00323864160976, -0.562361090329809]}}, {"type": "Feature", "properties": {"Climate_Cl": "S", "votes": 1, "cluster_size": 1, "tie": false, "status": "majority", "member_ids": "2644"}, "geometry": {"type": "Point", "coordinates": [-8.862296632593996, -54.00193670683797]}}, {"type": "Feature", "properties": {"Climate_Cl": "S", "votes": 1, "cluster_size": 1, "tie": false, "status": "majority", "member_ids": "2646"}, "geometry": {"type": "Point", "coordinates": [-7.719269875795006, -56.036353100352294]}}, {"type": "Feature", "properties": {"Climate_Cl": "S", "votes": 17, "cluster_size": 20, "tie": false, "status": "majority", "member_ids": "2688,2690,2691,2692,2693,2701,2702,2703,2704,2705,2706,2707,2708,2709,2711,2712,2717,2718,2719,2816"}, "geometry": {"type": "Point", "coordinates": [1.645105718603208, 13.246335288333066]}}, {"type": "Feature", "properties": {"Climate_Cl": "S", "votes": 3, "cluster_size": 4, "tie": false, "status": "majority", "member_ids": "2696,2698,2699,2700"}, "geometry": {"type": "Point", "coordinates": [3.051959696763445, 12.795905065173397]}}, {"type": "Feature", "properties": {"Climate_Cl": "S", "votes": 1, "cluster_size": 2, "tie": true, "status": "tie", "member_ids": "2714,2715"}, "geometry": {"type": "Point", "coordinates": [3.053160109965301, 13.305919448636015]}}, {"type": "Feature", "properties": {"Climate_Cl": "D", "votes": 1, "cluster_size": 2, "tie": true, "status": "tie", "member_ids": "2714,2715"}, "geometry": {"type": "Point", "coordinates": [3.053160109965301, 13.305919448636015]}}, {"type": "Feature", "properties": {"Climate_Cl": "H", "votes": 6, "cluster_size": 12, "tie": true, "status": "tie", "member_ids": "2724,2727,2730,2741,2744,2858,2859,2860,2861,2862,2863,2874"}, "geometry": {"type": "Point", "coordinates": [2.012371950211545, 14.558629872718734]}}, {"type": "Feature", "properties": {"Climate_Cl": "S", "votes": 6, "cluster_size": 12, "tie": true, "status": "tie", "member_ids": "2724,2727,2730,2741,2744,2858,2859,2860,2861,2862,2863,2874"}, "geometry": {"type": "Point", "coordinates": [2.012371950211545, 14.558629872718734]}}, {"type": "Feature", "properties": {"Climate_Cl": "H", "votes": 1, "cluster_size": 1, "tie": false, "status": "majority", "member_ids": "2752"}, "geometry": {"type": "Point", "coordinates": [2.496809016359977, 14.833362032730612]}}, {"type": "Feature", "properties": {"Climate_Cl": "S", "votes": 15, "cluster_size": 15, "tie": false, "status": "majority", "member_ids": "2900,2903,2906,2908,2909,2912,2915,2918,2921,2924,2926,2929,2931,2934,2937"}, "geometry": {"type": "Point", "coordinates": [2.1085422028662975, 11.64950467080889]}}, {"type": "Feature", "properties": {"Climate_Cl": "H", "votes": 1, "cluster_size": 1, "tie": false, "status": "majority", "member_ids": "2987"}, "geometry": {"type": "Point", "coordinates": [-42.10290216277143, -46.10199095859971]}}, {"type": "Feature", "properties": {"Climate_Cl": "H", "votes": 2, "cluster_size": 2, "tie": false, "status": "majority", "member_ids": "3021,3024"}, "geometry": {"type": "Point", "coordinates": [-53.48437214685193, -2.227553495913102]}}, {"type": "Feature", "properties": {"Climate_Cl": "H", "votes": 1, "cluster_size": 1, "tie": false, "status": "majority", "member_ids": "3023"}, "geometry": {"type": "Point", "coordinates": [-52.83104440379499, -1.379425036573374]}}, {"type": "Feature", "properties": {"Climate_Cl": "H", "votes": 2, "cluster_size": 2, "tie": false, "status": "majority", "member_ids": "3059,3063"}, "geometry": {"type": "Point", "coordinates": [-45.86577362140113, -0.907811953830077]}}, {"type": "Feature", "properties": {"Climate_Cl": "H", "votes": 1, "cluster_size": 1, "tie": false, "status": "majority", "member_ids": "3060"}, "geometry": {"type": "Point", "coordinates": [-46.4436447597432, -0.773324359140081]}}, {"type": "Feature", "properties": {"Climate_Cl": "H", "votes": 2, "cluster_size": 3, "tie": false, "status": "majority", "member_ids": "3100,3123,3124"}, "geometry": {"type": "Point", "coordinates": [-57.09422636379188, -2.195465362358901]}}, {"type": "Feature", "properties": {"Climate_Cl": "H", "votes": 1, "cluster_size": 1, "tie": false, "status": "majority", "member_ids": "3101"}, "geometry": {"type": "Point", "coordinates": [-56.631846598855965, -3.065155155525126]}}, {"type": "Feature", "properties": {"Climate_Cl": "H", "votes": 1, "cluster_size": 2, "tie": true, "status": "tie", "member_ids": "3102,3125"}, "geometry": {"type": "Point", "coordinates": [-55.51720116844465, -2.027746149011195]}}, {"type": "Feature", "properties": {"Climate_Cl": "S", "votes": 1, "cluster_size": 2, "tie": true, "status": "tie", "member_ids": "3102,3125"}, "geometry": {"type": "Point", "coordinates": [-55.51720116844465, -2.027746149011195]}}, {"type": "Feature", "properties": {"Climate_Cl": "S", "votes": 2, "cluster_size": 3, "tie": false, "status": "majority", "member_ids": "3120,3121,3122"}, "geometry": {"type": "Point", "coordinates": [-56.59275785178133, -1.062950756113073]}}, {"type": "Feature", "properties": {"Climate_Cl": "H", "votes": 1, "cluster_size": 2, "tie": true, "status": "tie", "member_ids": "3126,3127"}, "geometry": {"type": "Point", "coordinates": [-54.573825219089215, -0.992478914505234]}}, {"type": "Feature", "properties": {"Climate_Cl": "S", "votes": 1, "cluster_size": 2, "tie": true, "status": "tie", "member_ids": "3126,3127"}, "geometry": {"type": "Point", "coordinates": [-54.573825219089215, -0.992478914505234]}}]}