{"type": "FeatureCollection", "features": [{"type": "Feature", "properties": {"ID": "2688", "Country": "Tunisia", "Basin_Sub_": "Gafsa", "Group": "N/A", "Formation": "Aleg", "Member": "lower Aleg marls", "Well name/ outcrop": "Jebel Berda", "Latitude": "34.21", "Longitude": "8.942", "Dating evidence": "Biostratigraphy: ostracod assemblage", "REF(Authors, Year)": "Jomaa-Salmouna etal 2017", "Show_on_Ma": "90", "Lithology, structures, paleowind": "Marls, Lumach. Limestone", "Paleoenvironment": "Marine: inner shelf", "REF (Authors, Year)": "N/A", "Fossil occurrences": "Ostracod: Paracypris mdaouerensis, Cytherella gr. ovata, Spinoleberis yotvataensis, Cythereis gr. rawashensis, Ovocytheridea aff. producta, Cytherepteron sp. DM 1629, Perissocytheridea ascalapha, Trachyleberidea gr. geinitzi, Veenia sp.", "REF (Authors, Year)_1": "Jomaa-Salmouna etal 2017", "Geochemistry data": "N/A", "REF (Authors, Year)_2": "N/A", "Sediment-based climate inference (hot/cold, humid/semi-arid/desert)": "Hot, dry?", "Fossil-based climate inference (hot/cold, humid/semi-arid/desert)": "N/A", "Geochemistry-based climate inference  (hot/cold, humid/semi-arid/desert)": "N/A", "Climate assignment leading evidence": "Carbonate ", "Climate_Cl": "D", "Weight": "2", "PlateID": "7701", "Sediment-based climate inference (hot/cold, humid/S/desert)": null, "Fossil-based climate inference (hot/cold, humid/S/desert)": null, "Geochemistry-based climate inference  (hot/cold, humid/S/desert)": null, "PaleozonaCodigo": null, "layer": "90.00Ma_point", "path": "C:/Users/Leonardo Bachi/OneDrive/Desktop/ITT_OCEANEON/20_SETEMBRO_TABELA_FINAL/PONTOS_RETIFICADOS/90.00Ma.geojson", "winner": "S", "cluster_size": 52}, "geometry": {"type": "Point", "coordinates": [1.332970894318963, 13.104071075305804]}}, {"type": "Feature", "properties": {"ID": "2690", "Country": "Tunisia", "Basin_Sub_": "Gafsa", "Group": "N/A", "Formation": "Aleg", "Member": "Bireno", "Well name/ outcrop": "Jebel Berda", "Latitude": "34.21", "Longitude": "8.942", "Dating evidence": "Biostratigraphy: ostracod assemblage", "REF(Authors, Year)": "Jomaa-Salmouna etal 2017", "Show_on_Ma": "90", "Lithology, structures, paleowind": "Gypsum, Dolomite, Limestone, Marls, Argil. Limestone, , Biocl. Limestone", "Paleoenvironment": "Marine: inner shelf", "REF (Authors, Year)": "N/A", "Fossil occurrences": "Ostracod:  Xestoleberis cf. tunisiensis, Limburgina? sp. M532, Reticulocosta gr. vitiliginosa, Spinoleberis yotvataensis, Cytheropteron gr. rawashensis, C. sp., C. sp. DM 1629, Ovocytheridea aff. Producta, Perissocytheridea ascalapha, Trachyleberidea gr. geinitzi, Veenia sp.; Benthic Foraminifers, Cytherella gr. Ovata, Paracypris mdaouerensis, P. triangularis", "REF (Authors, Year)_1": "Jomaa-Salmouna etal 2017", "Geochemistry data": "N/A", "REF (Authors, Year)_2": "N/A", "Sediment-based climate inference (hot/cold, humid/semi-arid/desert)": "Hot, dry?", "Fossil-based climate inference (hot/cold, humid/semi-arid/desert)": "N/A", "Geochemistry-based climate inference  (hot/cold, humid/semi-arid/desert)": "N/A", "Climate assignment leading evidence": "Gypsum", "Climate_Cl": "D", "Weight": "2", "PlateID": "7701", "Sediment-based climate inference (hot/cold, humid/S/desert)": null, "Fossil-based climate inference (hot/cold, humid/S/desert)": null, "Geochemistry-based climate inference  (hot/cold, humid/S/desert)": null, "PaleozonaCodigo": null, "layer": "90.00Ma_point", "path": "C:/Users/Leonardo Bachi/OneDrive/Desktop/ITT_OCEANEON/20_SETEMBRO_TABELA_FINAL/PONTOS_RETIFICADOS/90.00Ma.geojson", "winner": "S", "cluster_size": 52}, "geometry": {"type": "Point", "coordinates": [1.332970894318963, 13.104071075305804]}}, {"type": "Feature", "properties": {"ID": "2691", "Country": "Tunisia", "Basin_Sub_": "Gafsa", "Group": "N/A", "Formation": "Aleg", "Member": "Bireno", "Well name/ outcrop": "Jebel Berda", "Latitude": "34.21", "Longitude": "8.942", "Dating evidence": "Biostratigraphy: ostracod assemblage", "REF(Authors, Year)": "Jomaa-Salmouna etal 2017", "Show_on_Ma": "90", "Lithology, structures, paleowind": "Limestone, Marls, Argil. Limestone, Gypsum, Biocl. Limestone", "Paleoenvironment": "Marine: inner shelf", "REF (Authors, Year)": "N/A", "Fossil occurrences": "Ostracod: Paracypris mdaouerensis, P. dubertreti, Dolocytheridea sp.1, Pontocyprella sp., Dolocytheridea atlasica, Xestoleberis cf. tunisiensis, Cytheropteron sp., Cytherella gr. parallela, C. gr. ovata, Cytherelloidea sp. A, Nucleolina aff. zeorica, Limnocythere sp., Hemanite sp., Limburgina? sp. M532, Pterygocythere allinensis, Bardia sp., Protobuntonia numidica, Reticulocosta gr. vitiliginosa, Planileberis? sp. BM576 ; Plankthonic Foraminifers: Heterohelix sp.,Textularia sp., Benthic Foraminifers, Miliodidae, Echinoderm spicules, Gastropods Nerinea, Lamellibranches, Fish teeth, Pithonella ovalis", "REF (Authors, Year)_1": "Jomaa-Salmouna etal 2017", "Geochemistry data": "N/A", "REF (Authors, Year)_2": "N/A", "Sediment-based climate inference (hot/cold, humid/semi-arid/desert)": "Hot, dry?", "Fossil-based climate inference (hot/cold, humid/semi-arid/desert)": "N/A", "Geochemistry-based climate inference  (hot/cold, humid/semi-arid/desert)": "N/A", "Climate assignment leading evidence": "Gypsum", "Climate_Cl": "D", "Weight": "2", "PlateID": "7701", "Sediment-based climate inference (hot/cold, humid/S/desert)": null, "Fossil-based climate inference (hot/cold, humid/S/desert)": null, "Geochemistry-based climate inference  (hot/cold, humid/S/desert)": null, "PaleozonaCodigo": null, "layer": "90.00Ma_point", "path": "C:/Users/Leonardo Bachi/OneDrive/Desktop/ITT_OCEANEON/20_SETEMBRO_TABELA_FINAL/PONTOS_RETIFICADOS/90.00Ma.geojson", "winner": "S", "cluster_size": 52}, "geometry": {"type": "Point", "coordinates": [1.332970894318963, 13.104071075305804]}}, {"type": "Feature", "properties": {"ID": "2724", "Country": "Tunisia", "Basin_Sub_": "N/A", "Group": "N/A", "Formation": "Bahloul", "Member": "upper Bahloul  s. str.", "Well name/ outcrop": "Oued Bahloul ", "Latitude": "35.77", "Longitude": "9.35", "Dating evidence": "Biostratigraphy: Ammonite and Foraminifera", "REF(Authors, Year)": "Aguado etal 2016", "Show_on_Ma": "90", "Lithology, structures, paleowind": "Marl, microconglomeratic, Calcarenite, Limestone, Laminited limestone", "Paleoenvironment": "Marine: outer shelf to upper slope", "REF (Authors, Year)": "Zagrarni etal. 2008; Aguado etal 2016", "Fossil occurrences": "  Nannofossil zone: Corollithion exiguum, Rotelapillus biarcus, Helenea chiastia, Eprolithus octopetalus, Quadrum intermedium, Axopodorhabdus albianus, Gartnergo aenigma, Biscutum gaultensis; Ammonite: M. geslinianum, Pseudospidoceras pseudonodosoides, Watinoceras sp.;  Foraminifera: R. cushmani, Whiteinella archaeocretacea", "REF (Authors, Year)_1": "Aguado etal 2016", "Geochemistry data": "high detrital proxies (K/Al) and low aeolian detrital proxies (Zr/Al)", "REF (Authors, Year)_2": "N/A", "Sediment-based climate inference (hot/cold, humid/semi-arid/desert)": "N/A", "Fossil-based climate inference (hot/cold, humid/semi-arid/desert)": "Cold", "Geochemistry-based climate inference  (hot/cold, humid/semi-arid/desert)": "humid, cooling", "Climate assignment leading evidence": "geochimocal proxies (high detrital K/Al proxies and low aeolian Zr/Al detrital proxies)", "Climate_Cl": "H", "Weight": "2", "PlateID": "715", "Sediment-based climate inference (hot/cold, humid/S/desert)": null, "Fossil-based climate inference (hot/cold, humid/S/desert)": null, "Geochemistry-based climate inference  (hot/cold, humid/S/desert)": null, "PaleozonaCodigo": null, "layer": "90.00Ma_point", "path": "C:/Users/Leonardo Bachi/OneDrive/Desktop/ITT_OCEANEON/20_SETEMBRO_TABELA_FINAL/PONTOS_RETIFICADOS/90.00Ma.geojson", "winner": "S", "cluster_size": 52}, "geometry": {"type": "Point", "coordinates": [2.050608789884692, 14.539246467624638]}}, {"type": "Feature", "properties": {"ID": "2727", "Country": "Tunisia", "Basin_Sub_": "N/A", "Group": "N/A", "Formation": "Bahloul", "Member": "upper Bahloul s. str.", "Well name/ outcrop": "Oued Bahloul", "Latitude": "35.77", "Longitude": "9.35", "Dating evidence": "Biostratigraphy: Ammonite, plank. Foram, Calc. Nannofossil bioevents", "REF(Authors, Year)": "Aguado etal. 2016", "Show_on_Ma": "90", "Lithology, structures, paleowind": "marls interbedded with limestones", "Paleoenvironment": "Marine: outer shelf to upper slope", "REF (Authors, Year)": "Aguado etal. 2016, Soua etal. 2008", "Fossil occurrences": "Ammonite zone: M. geslinianum, Pseudaspidoceras pseudonodosoides;  Plank. Foram: Whiteinella archaeocretacea, Watinoceras sp. ; Calc. Nannofossil bioevents: Corollithion exiguum, Rotelapillus biarcus, Lithraphidites acutus, Biscutum gaultensis, Gartnerago aenigma, Axopodorhadus albianus, Quadrum intermedium, Erolithus octopetalus, Helenea chiastia", "REF (Authors, Year)_1": "Aguado etal. 2016", "Geochemistry data": "high detrital proxies (K/Al) and low aeolian detrital proxies (Zr/Al)", "REF (Authors, Year)_2": "Aguado etal.  2016, Farouk etal. 2022", "Sediment-based climate inference (hot/cold, humid/semi-arid/desert)": "N/A", "Fossil-based climate inference (hot/cold, humid/semi-arid/desert)": "Cold", "Geochemistry-based climate inference  (hot/cold, humid/semi-arid/desert)": "humid, cooling", "Climate assignment leading evidence": "geochimocal proxies (high detrital K/Al proxies and low aeolian Zr/Al detrital proxies)", "Climate_Cl": "H", "Weight": "3", "PlateID": "715", "Sediment-based climate inference (hot/cold, humid/S/desert)": null, "Fossil-based climate inference (hot/cold, humid/S/desert)": null, "Geochemistry-based climate inference  (hot/cold, humid/S/desert)": null, "PaleozonaCodigo": null, "layer": "90.00Ma_point", "path": "C:/Users/Leonardo Bachi/OneDrive/Desktop/ITT_OCEANEON/20_SETEMBRO_TABELA_FINAL/PONTOS_RETIFICADOS/90.00Ma.geojson", "winner": "S", "cluster_size": 52}, "geometry": {"type": "Point", "coordinates": [2.050608789884692, 14.539246467624638]}}, {"type": "Feature", "properties": {"ID": "2730", "Country": "Tunisia", "Basin_Sub_": "N/A", "Group": "N/A", "Formation": "Bahloul", "Member": "Bahloul s. str", "Well name/ outcrop": "Oued Bahloul", "Latitude": "35.77", "Longitude": "9.35", "Dating evidence": "Biostratigraphy:  Plank. Foram. zone, Calc. Nannofossil bioevents, Ammonite zone: ", "REF(Authors, Year)": "Aguado etal.  2016, Farouk etal. 2022", "Show_on_Ma": "90", "Lithology, structures, paleowind": "marls interbedded with limestones", "Paleoenvironment": "Marine: outer shelf to upper slope", "REF (Authors, Year)": "N/A", "Fossil occurrences": "Plank. Foram: R.cushmani; Calcareous Nannofossil bioevents: Corollithion kennedyi, Lithraphidites acutus, Axopodorhabdus albianus, Biscutum gualtensis, Quadrum intermedium; Ammonite zone: M. geslinianum,  P. pseudonodosoides", "REF (Authors, Year)_1": "Aguado etal.  2016, Farouk etal. 2022", "Geochemistry data": "high detrital proxies (K/Al) and low aeolian detrital proxies (Zr/Al)", "REF (Authors, Year)_2": "Aguado etal.  2016, Farouk etal. 2022", "Sediment-based climate inference (hot/cold, humid/semi-arid/desert)": "N/A", "Fossil-based climate inference (hot/cold, humid/semi-arid/desert)": "Hot/cold", "Geochemistry-based climate inference  (hot/cold, humid/semi-arid/desert)": "humid, cooling", "Climate assignment leading evidence": "geochimocal proxies (high detrital K/Al proxies and low aeolian Zr/Al detrital proxies)", "Climate_Cl": "H", "Weight": "1", "PlateID": "715", "Sediment-based climate inference (hot/cold, humid/S/desert)": null, "Fossil-based climate inference (hot/cold, humid/S/desert)": null, "Geochemistry-based climate inference  (hot/cold, humid/S/desert)": null, "PaleozonaCodigo": null, "layer": "90.00Ma_point", "path": "C:/Users/Leonardo Bachi/OneDrive/Desktop/ITT_OCEANEON/20_SETEMBRO_TABELA_FINAL/PONTOS_RETIFICADOS/90.00Ma.geojson", "winner": "S", "cluster_size": 52}, "geometry": {"type": "Point", "coordinates": [2.050608789884692, 14.539246467624638]}}, {"type": "Feature", "properties": {"ID": "2741", "Country": "Tunisia", "Basin_Sub_": "N/A", "Group": "N/A", "Formation": "Bahloul", "Member": "Bahloul", "Well name/ outcrop": "Oued Ettalla", "Latitude": "35.79", "Longitude": "9.25", "Dating evidence": "Biostratigraphy:  Plank. Foram, Calc. Nannofossil bioevents", "REF(Authors, Year)": "Aguado etal.  2016, Farouk etal. 2022", "Show_on_Ma": "90", "Lithology, structures, paleowind": "marls interbedded with limestones", "Paleoenvironment": "Marine: outer shelf to upper slope", "REF (Authors, Year)": "N/A", "Fossil occurrences": "Plank. Foram: W. archaeocretacea;Calcareous Nannofossil bioevents:  Helenea chiastia, Eiffellithus eximus, Quadrum gartneri", "REF (Authors, Year)_1": "Aguado etal.  2016, Farouk etal. 2022", "Geochemistry data": "N/A", "REF (Authors, Year)_2": "Aguado etal.  2016, Farouk etal. 2022", "Sediment-based climate inference (hot/cold, humid/semi-arid/desert)": "N/A", "Fossil-based climate inference (hot/cold, humid/semi-arid/desert)": "Hot/cold", "Geochemistry-based climate inference  (hot/cold, humid/semi-arid/desert)": "humid, cooling", "Climate assignment leading evidence": "litthology, geochimocal proxies", "Climate_Cl": "H", "Weight": "1", "PlateID": "7701", "Sediment-based climate inference (hot/cold, humid/S/desert)": null, "Fossil-based climate inference (hot/cold, humid/S/desert)": null, "Geochemistry-based climate inference  (hot/cold, humid/S/desert)": null, "PaleozonaCodigo": null, "layer": "90.00Ma_point", "path": "C:/Users/Leonardo Bachi/OneDrive/Desktop/ITT_OCEANEON/20_SETEMBRO_TABELA_FINAL/PONTOS_RETIFICADOS/90.00Ma.geojson", "winner": "S", "cluster_size": 52}, "geometry": {"type": "Point", "coordinates": [1.974135110538398, 14.578013277812834]}}, {"type": "Feature", "properties": {"ID": "2744", "Country": "Tunisia", "Basin_Sub_": "N/A", "Group": "N/A", "Formation": "Bahloul", "Member": "Bahoul", "Well name/ outcrop": "Oued Ettalla", "Latitude": "35.79", "Longitude": "9.25", "Dating evidence": "Biostratigraphy:  planktonic foraminiferal", "REF(Authors, Year)": "Salhi etal. 2022", "Show_on_Ma": "90", "Lithology, structures, paleowind": "Dark Marl, Laminated Limestone, ", "Paleoenvironment": "Marine: outer shelf to upper slope", "REF (Authors, Year)": "Salhi etal. 2022", "Fossil occurrences": "Planktonic foraminiferal: Whiteinella archaeocretacea Zone; Muricohedbergella delrioensis, Mh. Planispira, Clavihedbergella simplex, Praeglobotruncana stephani, Planoheterohelix moremani, Laeviheterohelix pulchra, Planoheterohelix reussi, Praeglobotruncana gibba, Whiteinella baltica, W. aprica,W. brittonensis, Helvetoglobotruncana praehelvetica, H. helvetica", "REF (Authors, Year)_1": "Salhi etal. 2022", "Geochemistry data": "N/A", "REF (Authors, Year)_2": "N/A", "Sediment-based climate inference (hot/cold, humid/semi-arid/desert)": "humid, hot", "Fossil-based climate inference (hot/cold, humid/semi-arid/desert)": "N/A", "Geochemistry-based climate inference  (hot/cold, humid/semi-arid/desert)": "humid, cooling", "Climate assignment leading evidence": "stable (13C and 18O) isotopes analyses", "Climate_Cl": "H", "Weight": "3", "PlateID": "7701", "Sediment-based climate inference (hot/cold, humid/S/desert)": null, "Fossil-based climate inference (hot/cold, humid/S/desert)": null, "Geochemistry-based climate inference  (hot/cold, humid/S/desert)": null, "PaleozonaCodigo": null, "layer": "90.00Ma_point", "path": "C:/Users/Leonardo Bachi/OneDrive/Desktop/ITT_OCEANEON/20_SETEMBRO_TABELA_FINAL/PONTOS_RETIFICADOS/90.00Ma.geojson", "winner": "S", "cluster_size": 52}, "geometry": {"type": "Point", "coordinates": [1.974135110538398, 14.578013277812834]}}, {"type": "Feature", "properties": {"ID": "2752", "Country": "Tunisia", "Basin_Sub_": "Mellegue ", "Group": "N/A", "Formation": "Bahloul", "Member": "N/A", "Well name/ outcrop": "El Gliaa", "Latitude": "36.158", "Longitude": "9.782", "Dating evidence": "Biostratigraphy: Foraminifera", "REF(Authors, Year)": "Bachari et al., 2019", "Show_on_Ma": "90", "Lithology, structures, paleowind": "limestone-dominated limestone-marl alternation", "Paleoenvironment": "Marine: outer shelf to upper slope", "REF (Authors, Year)": "N/A", "Fossil occurrences": "Biozone: Whiteinella archaeocretacea; Foraminifera:Globigerinelloides bentonensis, G. ultramicra,  Praeglobotruncana stephani , P. gibba, Whiteinella aprica, W. baltica", "REF (Authors, Year)_1": "Bachari etal 2019", "Geochemistry data": "N/A", "REF (Authors, Year)_2": "N/A", "Sediment-based climate inference (hot/cold, humid/semi-arid/desert)": "N/A", "Fossil-based climate inference (hot/cold, humid/semi-arid/desert)": "warm, humid?", "Geochemistry-based climate inference  (hot/cold, humid/semi-arid/desert)": "N/A", "Climate assignment leading evidence": "microfossil assemblage", "Climate_Cl": "H", "Weight": "3", "PlateID": "715", "Sediment-based climate inference (hot/cold, humid/S/desert)": null, "Fossil-based climate inference (hot/cold, humid/S/desert)": null, "Geochemistry-based climate inference  (hot/cold, humid/S/desert)": null, "PaleozonaCodigo": null, "layer": "90.00Ma_point", "path": "C:/Users/Leonardo Bachi/OneDrive/Desktop/ITT_OCEANEON/20_SETEMBRO_TABELA_FINAL/PONTOS_RETIFICADOS/90.00Ma.geojson", "winner": "S", "cluster_size": 52}, "geometry": {"type": "Point", "coordinates": [2.496809016359977, 14.833362032730612]}}, {"type": "Feature", "properties": {"ID": "2859", "Country": "Tunisia", "Basin_Sub_": "N/A", "Group": "N/A", "Formation": "Kef", "Member": "Annaba", "Well name/ outcrop": "Oued Bahloul", "Latitude": "35.77", "Longitude": "9.35", "Dating evidence": "Biostratigraphy:  Plank. Foram. zone, Calc. Nannofossil bioevents, Ammonite zone", "REF(Authors, Year)": "Aguado etal.  2016, Farouk etal. 2022", "Show_on_Ma": "90", "Lithology, structures, paleowind": "Marl interbedded with limestone", "Paleoenvironment": "Marine: outer shelf to upper slope ", "REF (Authors, Year)": "N/A", "Fossil occurrences": "Plank. Foram: H. helvetica; Calcareous Nannofossil bioevents: Eprolithus moratus;Ammonite zone: W. sp., P. flex., T. rollandi", "REF (Authors, Year)_1": "Aguado etal.  2016, Farouk etal. 2022", "Geochemistry data": "N/A", "REF (Authors, Year)_2": "N/A", "Sediment-based climate inference (hot/cold, humid/semi-arid/desert)": "N/A", "Fossil-based climate inference (hot/cold, humid/semi-arid/desert)": "Hot", "Geochemistry-based climate inference  (hot/cold, humid/semi-arid/desert)": "N/A", "Climate assignment leading evidence": "microfossil assemblage", "Climate_Cl": "H", "Weight": "1", "PlateID": "715", "Sediment-based climate inference (hot/cold, humid/S/desert)": null, "Fossil-based climate inference (hot/cold, humid/S/desert)": null, "Geochemistry-based climate inference  (hot/cold, humid/S/desert)": null, "PaleozonaCodigo": null, "layer": "90.00Ma_point", "path": "C:/Users/Leonardo Bachi/OneDrive/Desktop/ITT_OCEANEON/20_SETEMBRO_TABELA_FINAL/PONTOS_RETIFICADOS/90.00Ma.geojson", "winner": "S", "cluster_size": 52}, "geometry": {"type": "Point", "coordinates": [2.050608789884692, 14.539246467624638]}}, {"type": "Feature", "properties": {"ID": "145", "Country": "Algeria", "Basin_Sub_": "Guir ", "Group": "N/A", "Formation": "Rhoundja?", "Member": "N/A", "Well name/ outcrop": "Djebel Asfer", "Latitude": "31.873", "Longitude": "-2.203", "Dating evidence": "Biostratigraphy:Ammonites", "REF(Authors, Year)": "?er & Benyoucef, 2021", "Show_on_Ma": "90", "Lithology, structures, paleowind": "Thick fossiliferous limestones, massive limestones, marls, stromatolitic limestones, birdseye (fenestral) limestones, bioturbated limestones (Thalassinoides), chert-bearing limestones", "Paleoenvironment": "Coastal to marine: lagoon to restricted very shallow inner carbonate shelf", "REF (Authors, Year)": "?er & Benyoucef, 2021", "Fossil occurrences": "Rudists (Sauvagesia sharpei, S. nicaisei, Durania blayaci, D. arnaudi, Apricardia sp.), oysters, bivalves, gastropods, echinoids, ammonite Neolobites vibrayeanus", "REF (Authors, Year)_1": "?er & Benyoucef, 2021", "Geochemistry data": "N/A", "REF (Authors, Year)_2": "N/A", "Sediment-based climate inference (hot/cold, humid/semi-arid/desert)": "Semi-arid to arid", "Fossil-based climate inference (hot/cold, humid/semi-arid/desert)": "N/A", "Geochemistry-based climate inference  (hot/cold, humid/semi-arid/desert)": "N/A", "Climate assignment leading evidence": "Carbonates (restricted carbonate shelf, stromatolites and birdseye-limestones indicating high evaporation)", "Climate_Cl": "D", "Weight": "4", "PlateID": "714", "Sediment-based climate inference (hot/cold, humid/S/desert)": null, "Fossil-based climate inference (hot/cold, humid/S/desert)": null, "Geochemistry-based climate inference  (hot/cold, humid/S/desert)": null, "PaleozonaCodigo": null, "layer": "90.00Ma_point", "path": "C:/Users/Leonardo Bachi/OneDrive/Desktop/ITT_OCEANEON/20_SETEMBRO_TABELA_FINAL/PONTOS_RETIFICADOS/90.00Ma.geojson", "winner": "S", "cluster_size": 3}, "geometry": {"type": "Point", "coordinates": [-8.551098780567685, 13.398232797965104]}}, {"type": "Feature", "properties": {"ID": "115", "Country": "Algeria", "Basin_Sub_": "Aures/Auresian", "Group": "N/A", "Formation": "Adahri", "Member": "N/A", "Well name/ outcrop": "southern Aures Range", "Latitude": "35.19", "Longitude": "6.3", "Dating evidence": "Biostratigraphy: ammonites", "REF(Authors, Year)": "Garah et al. 2023", "Show_on_Ma": "90", "Lithology, structures, paleowind": "grey massive limestone beds", "Paleoenvironment": "Marine:  inner carbonate shelf mid/inner ramp", "REF (Authors, Year)": "Garah et al. 2023", "Fossil occurrences": "Planktonic foraminifer: Rotalipora cushmani; Gastropod: Strombus incertus, Tylostoma sp.; Ammonites: Calycoceras (Calycoceras) naviculare", "REF (Authors, Year)_1": "Garah et al. 2023", "Geochemistry data": "N/A", "REF (Authors, Year)_2": "N/A", "Sediment-based climate inference (hot/cold, humid/semi-arid/desert)": "hot", "Fossil-based climate inference (hot/cold, humid/semi-arid/desert)": "N/A", "Geochemistry-based climate inference  (hot/cold, humid/semi-arid/desert)": "N/A", "Climate assignment leading evidence": "N/A", "Climate_Cl": "H", "Weight": "2", "PlateID": "714", "Sediment-based climate inference (hot/cold, humid/S/desert)": null, "Fossil-based climate inference (hot/cold, humid/S/desert)": null, "Geochemistry-based climate inference  (hot/cold, humid/S/desert)": null, "PaleozonaCodigo": null, "layer": "90.00Ma_point", "path": "C:/Users/Leonardo Bachi/OneDrive/Desktop/ITT_OCEANEON/20_SETEMBRO_TABELA_FINAL/PONTOS_RETIFICADOS/90.00Ma.geojson", "winner": "S", "cluster_size": 4}, "geometry": {"type": "Point", "coordinates": [-0.583902502205413, 14.592099914380233]}}, {"type": "Feature", "properties": {"ID": "298", "Country": "Argentina", "Basin_Sub_": "Neuquén", "Group": "Neuquén", "Formation": "Cerro Lisandro", "Member": null, "Well name/ outcrop": "Cerro Lisandro", "Latitude": "-39.915", "Longitude": "-68.432", "Dating evidence": "stratigraphic correlation", "REF(Authors, Year)": "Hugo and Leanza, 2001; Leanza et al., 2004", "Show_on_Ma": "90", "Lithology, structures, paleowind": "Claystones with layers of siltstones, sandstones, evaporites (gypsum)", "Paleoenvironment": "Continental: meandering fluvial systems of low sinuosity and floodplains", "REF (Authors, Year)": "Garrido 2010", "Fossil occurrences": "freshwater bivalves, ornithopods, dipnoid fish, crocodiles, turtles.* Pollen (Cretacaeiporites scabratus).**", "REF (Authors, Year)_1": "Garrido, 2010* Vallati, 2013**", "Geochemistry data": null, "REF (Authors, Year)_2": null, "Sediment-based climate inference (hot/cold, humid/semi-arid/desert)": "humid / semi-arid", "Fossil-based climate inference (hot/cold, humid/semi-arid/desert)": "humid / semi-arid", "Geochemistry-based climate inference  (hot/cold, humid/semi-arid/desert)": null, "Climate assignment leading evidence": "depositional environment", "Climate_Cl": "S", "Weight": "4", "PlateID": "283", "Sediment-based climate inference (hot/cold, humid/S/desert)": null, "Fossil-based climate inference (hot/cold, humid/S/desert)": null, "Geochemistry-based climate inference  (hot/cold, humid/S/desert)": null, "PaleozonaCodigo": null, "layer": "90.00Ma_point", "path": "C:/Users/Leonardo Bachi/OneDrive/Desktop/ITT_OCEANEON/20_SETEMBRO_TABELA_FINAL/PONTOS_RETIFICADOS/90.00Ma.geojson", "winner": "H", "cluster_size": 3}, "geometry": {"type": "Point", "coordinates": [-59.0433763658033, -49.4226775895854]}}, {"type": "Feature", "properties": {"ID": "2622", "Country": "Senegal", "Basin_Sub_": "Senegal basin", "Group": "N/A", "Formation": "N/A", "Member": "N/A", "Well name/ outcrop": "DrF1 Djif?e (Dans le domaine occidental)", "Latitude": "14.717", "Longitude": "-16.941", "Dating evidence": "N/A", "REF(Authors, Year)": "Michaud & Flicoteaux 1987", "Show_on_Ma": "90", "Lithology, structures, paleowind": "Eastern sector: red beds, relatively fine and well-sorted sandstones; central sector: fine detrital sediments and silty argillites; western sector: predominantly argillaceous marine sediments", "Paleoenvironment": "Continental to marine: fluvial to shallow- and open-marine shelf", "REF (Authors, Year)": "Michaud & Flicoteaux 1987, Michaud 1984", "Fossil occurrences": "Deep-water planktonic and benthic microfauna near the Cape Verde region; abundant ostracods in the Saloum region; marine microfauna in the western sector", "REF (Authors, Year)_1": "Michaud & Flicoteaux 1987, Michaud 1984", "Geochemistry data": "Strong dominance of smectite (30?5% in central facies; dominant in western facies); minor kaolinite, illite and chlorite.", "REF (Authors, Year)_2": "Michaud & Flicoteaux 1987, Michaud 1984", "Sediment-based climate inference (hot/cold, humid/semi-arid/desert)": "Hot", "Fossil-based climate inference (hot/cold, humid/semi-arid/desert)": "N/A", "Geochemistry-based climate inference  (hot/cold, humid/semi-arid/desert)": "Semi-arid", "Climate assignment leading evidence": "Smectite-rich clay assemblage", "Climate_Cl": "S", "Weight": "3", "PlateID": "714", "Sediment-based climate inference (hot/cold, humid/S/desert)": null, "Fossil-based climate inference (hot/cold, humid/S/desert)": null, "Geochemistry-based climate inference  (hot/cold, humid/S/desert)": null, "PaleozonaCodigo": null, "layer": "90.00Ma_point", "path": "C:/Users/Leonardo Bachi/OneDrive/Desktop/ITT_OCEANEON/20_SETEMBRO_TABELA_FINAL/PONTOS_RETIFICADOS/90.00Ma.geojson", "winner": "H", "cluster_size": 5}, "geometry": {"type": "Point", "coordinates": [-27.1524152374792, 1.713333898244169]}}, {"type": "Feature", "properties": {"ID": "2609", "Country": "Senegal", "Basin_Sub_": "Senegal basin", "Group": "N/A", "Formation": "N/A", "Member": "N/A", "Well name/ outcrop": "DSDP 367", "Latitude": "12.15", "Longitude": "-18.278", "Dating evidence": "N/A", "REF(Authors, Year)": "Chamley et al., 1988", "Show_on_Ma": "90", "Lithology, structures, paleowind": "Predominantly claystones and mudstones, with black shale at Site 367; progressive replacement of carbonate by terrigenous clay", "Paleoenvironment": "Marine: open-marine shelf to deep-marine basin", "REF (Authors, Year)": "Chamley et al., 1988", "Fossil occurrences": "Marine microfossils; black-shale facies contain organic matter", "REF (Authors, Year)_1": "Chamley et al., 1988", "Geochemistry data": "Al?e smectites, illite, kaolinite and mixed-layer clays; smectite chemistry determined by microprobe.", "REF (Authors, Year)_2": "Chamley et al., 1988", "Sediment-based climate inference (hot/cold, humid/semi-arid/desert)": "N/A", "Fossil-based climate inference (hot/cold, humid/semi-arid/desert)": "N/A", "Geochemistry-based climate inference  (hot/cold, humid/semi-arid/desert)": "semi-arid to seasonally humid", "Climate assignment leading evidence": "smectite abundance", "Climate_Cl": "S", "Weight": "3", "PlateID": "714", "Sediment-based climate inference (hot/cold, humid/S/desert)": null, "Fossil-based climate inference (hot/cold, humid/S/desert)": null, "Geochemistry-based climate inference  (hot/cold, humid/S/desert)": null, "PaleozonaCodigo": null, "layer": "90.00Ma_point", "path": "C:/Users/Leonardo Bachi/OneDrive/Desktop/ITT_OCEANEON/20_SETEMBRO_TABELA_FINAL/PONTOS_RETIFICADOS/90.00Ma.geojson", "winner": "H", "cluster_size": 4}, "geometry": {"type": "Point", "coordinates": [-29.29462379171842, -0.208230613971867]}}, {"type": "Feature", "properties": {"ID": "2696", "Country": "Tunisia", "Basin_Sub_": "Gabes", "Group": "N/A", "Formation": "Aleg", "Member": "Douleb", "Well name/ outcrop": "P3Well", "Latitude": "34.3", "Longitude": "11", "Dating evidence": "Biostratigraphy: Planktonic Foraminifera", "REF(Authors, Year)": "Jomaa-Salmouna etal 2017", "Show_on_Ma": "90", "Lithology, structures, paleowind": "Anhydrites, Limestones, Dolomite,Marls", "Paleoenvironment": "Marine: inner to outer shelf", "REF (Authors, Year)": "N/A", "Fossil occurrences": "Planktic foraminifers: Marginotruncana cf. tartayensis, M. pseudolinneiana, M. coronata, M. renzi, M. sigali, M. sinuosa, M. undulata, M. schneegansi, M. marianosi, Heterohelix globulosa, Dicarinella primitiva, D. imbricata, Praeglobotruncana inomata, Pseudotextularia nuttali,  ; Ostracod: Cytherella gr. ovata, C. paralella,  C. gambiensis, Paracypris mdaouerensis, P. triangularis, Veenidea sp. M537, Sapucariella parvoangulata, Spinoleberis yotvataensis, Pterygocythere pennata,  Reticulocosta gr. vitiginosa, Ovocytheridea sp. B780, Bairdia sp., Amphycytherura yankiniensis, Mauritsina dyrensis,Trachyleberiddea gr. geinitzi, Cythereis sp.; Benthic Foraminifers: Tritaxia midouayensis, Lenticulina sp., Gaudryna pyramidata, Dorothia bulleta, D. oxycona, Spiroplectamina knebeli, Arenobulimina obesa, Bolivina incrassata", "REF (Authors, Year)_1": "Jomaa-Salmouna etal 2017", "Geochemistry data": "N/A", "REF (Authors, Year)_2": "N/A", "Sediment-based climate inference (hot/cold, humid/semi-arid/desert)": "Hot, dry?", "Fossil-based climate inference (hot/cold, humid/semi-arid/desert)": "N/A", "Geochemistry-based climate inference  (hot/cold, humid/semi-arid/desert)": "N/A", "Climate assignment leading evidence": "Anhydrites", "Climate_Cl": "D", "Weight": "2", "PlateID": "715", "Sediment-based climate inference (hot/cold, humid/S/desert)": null, "Fossil-based climate inference (hot/cold, humid/S/desert)": null, "Geochemistry-based climate inference  (hot/cold, humid/S/desert)": null, "PaleozonaCodigo": null, "layer": "90.00Ma_point", "path": "C:/Users/Leonardo Bachi/OneDrive/Desktop/ITT_OCEANEON/20_SETEMBRO_TABELA_FINAL/PONTOS_RETIFICADOS/90.00Ma.geojson", "winner": "S", "cluster_size": 6}, "geometry": {"type": "Point", "coordinates": [3.051959696763445, 12.795905065173397]}}, {"type": "Feature", "properties": {"ID": "2714", "Country": "Tunisia", "Basin_Sub_": "Gabes", "Group": "N/A", "Formation": "Aleg", "Member": "Bireno", "Well name/ outcrop": "P1 Well", "Latitude": "34.797", "Longitude": "10.861", "Dating evidence": "Biostratigraphy: Planktonic Foraminifera", "REF(Authors, Year)": "Jomaa-Salmouna etal 2017", "Show_on_Ma": "90", "Lithology, structures, paleowind": "Dolomite, Limestones, Dolomite, Biocl. Limestones", "Paleoenvironment": "Marine: outer shelf", "REF (Authors, Year)": "N/A", "Fossil occurrences": "Planktic foraminifers: Dicarinella canalicuta, Marginotruncana pseudolinneiana, M. renzi, M. shneegansi, M. coronata, M. sp., Whiteinella baltica,W. aprica, W. sp., Globotruncana sp., Heterohelix globulosa,  ; Ostracod: Sapucariella parvoangulata, Cytherella gr. ovata, Cytherella gr. paralella, C. sp. Ovocytheridea sp. B. 780, Spinoleberis yotvataensis; Pithonella sphaerica, Lenticulina sp.; Gastropods Nerinea; Arenobulimina obesa, ", "REF (Authors, Year)_1": "Jomaa-Salmouna etal 2017", "Geochemistry data": "N/A", "REF (Authors, Year)_2": "N/A", "Sediment-based climate inference (hot/cold, humid/semi-arid/desert)": "Hot, dry?", "Fossil-based climate inference (hot/cold, humid/semi-arid/desert)": "N/A", "Geochemistry-based climate inference  (hot/cold, humid/semi-arid/desert)": "N/A", "Climate assignment leading evidence": "Carbonate (dolomite)", "Climate_Cl": "D", "Weight": "2", "PlateID": "715", "Sediment-based climate inference (hot/cold, humid/S/desert)": null, "Fossil-based climate inference (hot/cold, humid/S/desert)": null, "Geochemistry-based climate inference  (hot/cold, humid/S/desert)": null, "PaleozonaCodigo": null, "layer": "90.00Ma_point", "path": "C:/Users/Leonardo Bachi/OneDrive/Desktop/ITT_OCEANEON/20_SETEMBRO_TABELA_FINAL/PONTOS_RETIFICADOS/90.00Ma.geojson", "winner": "S", "cluster_size": 6}, "geometry": {"type": "Point", "coordinates": [3.053160109965301, 13.305919448636015]}}, {"type": "Feature", "properties": {"ID": "3124", "Country": "Venezuela", "Basin_Sub_": "Maracaibo", "Group": " ", "Formation": "La Luna", "Member": null, "Well name/ outcrop": null, "Latitude": "9", "Longitude": "-72.6", "Dating evidence": null, "REF(Authors, Year)": null, "Show_on_Ma": "90", "Lithology, structures, paleowind": null, "Paleoenvironment": null, "REF (Authors, Year)": null, "Fossil occurrences": null, "REF (Authors, Year)_1": null, "Geochemistry data": null, "REF (Authors, Year)_2": null, "Sediment-based climate inference (hot/cold, humid/semi-arid/desert)": null, "Fossil-based climate inference (hot/cold, humid/semi-arid/desert)": null, "Geochemistry-based climate inference  (hot/cold, humid/semi-arid/desert)": null, "Climate assignment leading evidence": null, "Climate_Cl": "S", "Weight": "4", "PlateID": "2030", "Sediment-based climate inference (hot/cold, humid/S/desert)": null, "Fossil-based climate inference (hot/cold, humid/S/desert)": null, "Geochemistry-based climate inference  (hot/cold, humid/S/desert)": null, "PaleozonaCodigo": null, "layer": "90.00Ma_point", "path": "C:/Users/Leonardo Bachi/OneDrive/Desktop/ITT_OCEANEON/20_SETEMBRO_TABELA_FINAL/PONTOS_RETIFICADOS/90.00Ma.geojson", "winner": "H", "cluster_size": 4}, "geometry": {"type": "Point", "coordinates": [-57.09768964049801, -2.078850031410692]}}, {"type": "Feature", "properties": {"ID": "3121", "Country": "Venezuela", "Basin_Sub_": "Maracaibo", "Group": " ", "Formation": "La Luna", "Member": null, "Well name/ outcrop": null, "Latitude": "10", "Longitude": "-72.057", "Dating evidence": null, "REF(Authors, Year)": null, "Show_on_Ma": "90", "Lithology, structures, paleowind": null, "Paleoenvironment": null, "REF (Authors, Year)": null, "Fossil occurrences": null, "REF (Authors, Year)_1": null, "Geochemistry data": null, "REF (Authors, Year)_2": null, "Sediment-based climate inference (hot/cold, humid/semi-arid/desert)": null, "Fossil-based climate inference (hot/cold, humid/semi-arid/desert)": null, "Geochemistry-based climate inference  (hot/cold, humid/semi-arid/desert)": null, "Climate assignment leading evidence": null, "Climate_Cl": "H", "Weight": "1", "PlateID": "2030", "Sediment-based climate inference (hot/cold, humid/S/desert)": null, "Fossil-based climate inference (hot/cold, humid/S/desert)": null, "Geochemistry-based climate inference  (hot/cold, humid/S/desert)": null, "PaleozonaCodigo": null, "layer": "90.00Ma_point", "path": "C:/Users/Leonardo Bachi/OneDrive/Desktop/ITT_OCEANEON/20_SETEMBRO_TABELA_FINAL/PONTOS_RETIFICADOS/90.00Ma.geojson", "winner": "S", "cluster_size": 3}, "geometry": {"type": "Point", "coordinates": [-56.59275785178133, -1.062950756113073]}}]}