{"type": "FeatureCollection", "features": [{"type": "Feature", "properties": {"ID": "52", "Country": "Algeria", "Basin_Sub_": "Guir", "Group": "N/A", "Formation": "Rhoundja? ", "Member": "Middle marly unit", "Well name/ outcrop": "Djebel Rhoundja? (Section 1) ", "Latitude": "35.56", "Longitude": "8.08", "Dating evidence": "Biostratigraphy: Ammonites", "REF(Authors, Year)": "Benyoucef et al., 2017", "Show_on_Ma": "95", "Lithology, structures, paleowind": "Fossiliferous marlstone alternating with grey bioclastic limestone; mudstone?ackestone; abundant pelagic and benthic components", "Paleoenvironment": "Marine:  Middle to outer ramp", "REF (Authors, Year)": "Benyoucef et al., 2017", "Fossil occurrences": "Ammonites: Nigericeras gadeni, Vascoceras durandi, V. gamai, Fikaites subtuberculatus,Fikaites cf. varicostatus; Gastropods: Tylostoma cossoni; Bivalves:  Orthopsis ovata; Echinoderms: Anorthopygus michelini; Planktonic foraminifers: Muricohedbergella delrioensis, Heterohelix moremani, H. reussi, Asterohedbergella sp., Dicarinella cf. canaliculata, Whiteinella archaeocretacea, W. praehelvetica; Benthonic foraminifers: Gavelinella berthelini, Valvulammina picardi, Frondicularia sp., Thomasinella sp.; Ostracode: Bairdia sp., Haughtonileberis mdaouerensis, Cytherella gr. ovata, Paracypris mdaouerensis, P. sp., Cythereis algeriana, Reticulocosta gr. tarfayaensi", "REF (Authors, Year)_1": "Benyoucef et al., 2017", "Geochemistry data": "N/A", "REF (Authors, Year)_2": "N/A", "Sediment-based climate inference (hot/cold, humid/semi-arid/desert)": "semi-arid", "Fossil-based climate inference (hot/cold, humid/semi-arid/desert)": "N/A", "Geochemistry-based climate inference  (hot/cold, humid/semi-arid/desert)": "N/A", "Climate assignment leading evidence": "carbonate ramp (limited siliciclastic input)", "Climate_Cl": "S", "Weight": "2", "PlateID": "706", "Sediment-based climate inference (hot/cold, humid/S/desert)": null, "Fossil-based climate inference (hot/cold, humid/S/desert)": null, "Geochemistry-based climate inference  (hot/cold, humid/S/desert)": null, "PaleozonaCodigo": null, "layer": "95.00Ma_point", "path": "C:/Users/Leonardo Bachi/OneDrive/Desktop/ITT_OCEANEON/20_SETEMBRO_TABELA_FINAL/PONTOS_RETIFICADOS/95.00Ma.geojson", "winner": "D", "cluster_size": 6}, "geometry": {"type": "Point", "coordinates": [1.057562182576028, 13.139722127973938]}}, {"type": "Feature", "properties": {"ID": "54", "Country": "Algeria", "Basin_Sub_": "Guir", "Group": "N/A", "Formation": "Rhoundja? ", "Member": "Lower limestone unit", "Well name/ outcrop": "Djebel El Rhelida and Oued Boudjihane (Section 3)", "Latitude": "35.56", "Longitude": "8.08", "Dating evidence": "Biostratigraphy: Ammonites", "REF(Authors, Year)": "Benyoucef et al., 2017", "Show_on_Ma": "95", "Lithology, structures, paleowind": "Massive grey limestone; mudstone?ackestone, rare packstone; bioclastic limestone; strongly bioturbated horizons", "Paleoenvironment": "Marine: Middle carbonate ramp / open-marine shelf", "REF (Authors, Year)": "Benyoucef et al., 2017", "Fossil occurrences": "Oysters: Costagyra olisiponensis, Rhynchostreon suborbiculatum, Costagyra olisiponensis, Ceratostreon flabellatum, Ilymatogyra africana;  Bivalves: Plicatula auressensis,\nPlicatula ferryi, Neithea (N.) quinquecostat, N. (N.) notabilis, N. sp., Costagyra olisiponensis, Plicatula ferryi, Camptonectes curvatus, Granocardium productum, G. (G.) cf. desvauxi, Pholadomya (P.) pedernalis, P. (P.) vignesi; Gastropods:  Cerithiinae indet., Cimolithium tenouklense, Ampullina sp., Strombus incertus,Tylostoma sp.; Echinoids: Tetragramma variolare, Heterodiadema libycum, Mecaster batnensis; Ammonites: Neolobites vibrayeanus, Calycoceras (C.) naviculare; Icnhotaxa: Thalassinoides occurs, Rhizocorallium isp., Planolites isp. ", "REF (Authors, Year)_1": "Benyoucef et al., 2017", "Geochemistry data": "N/A", "REF (Authors, Year)_2": "N/A", "Sediment-based climate inference (hot/cold, humid/semi-arid/desert)": "semi-arid", "Fossil-based climate inference (hot/cold, humid/semi-arid/desert)": "N/A", "Geochemistry-based climate inference  (hot/cold, humid/semi-arid/desert)": "N/A", "Climate assignment leading evidence": "carbonate ramp (limited siliciclastic input)", "Climate_Cl": "S", "Weight": "2", "PlateID": "706", "Sediment-based climate inference (hot/cold, humid/S/desert)": null, "Fossil-based climate inference (hot/cold, humid/S/desert)": null, "Geochemistry-based climate inference  (hot/cold, humid/S/desert)": null, "PaleozonaCodigo": null, "layer": "95.00Ma_point", "path": "C:/Users/Leonardo Bachi/OneDrive/Desktop/ITT_OCEANEON/20_SETEMBRO_TABELA_FINAL/PONTOS_RETIFICADOS/95.00Ma.geojson", "winner": "D", "cluster_size": 6}, "geometry": {"type": "Point", "coordinates": [1.057562182576028, 13.139722127973938]}}, {"type": "Feature", "properties": {"ID": "138", "Country": "Algeria", "Basin_Sub_": "Guir ", "Group": "N/A", "Formation": "Rhoundja?", "Member": "N/A", "Well name/ outcrop": "Toualil", "Latitude": "33.492", "Longitude": "1.071", "Dating evidence": "Biostratigraphy:Ammonites", "REF(Authors, Year)": "?er & Benyoucef, 2021", "Show_on_Ma": "95", "Lithology, structures, paleowind": "Thick fossiliferous limestones, massive limestones, marls, stromatolitic limestones, birdseye (fenestral) limestones, bioturbated limestones (Thalassinoides), chert-bearing limestones", "Paleoenvironment": "Coastal to marine: lagoon to restricted very shallow inner carbonate shelf", "REF (Authors, Year)": "?er & Benyoucef, 2021", "Fossil occurrences": "Rudists (Sauvagesia sharpei, S. nicaisei, Durania blayaci, D. arnaudi, Apricardia sp.), oysters, bivalves, gastropods, echinoids, ammonite Neolobites vibrayeanus", "REF (Authors, Year)_1": "?er & Benyoucef, 2021", "Geochemistry data": "N/A", "REF (Authors, Year)_2": "N/A", "Sediment-based climate inference (hot/cold, humid/semi-arid/desert)": "Semi-arid to arid", "Fossil-based climate inference (hot/cold, humid/semi-arid/desert)": "N/A", "Geochemistry-based climate inference  (hot/cold, humid/semi-arid/desert)": "N/A", "Climate assignment leading evidence": "Carbonates (restricted carbonate shelf, stromatolites and birdseye-limestones indicating high evaporation)", "Climate_Cl": "D", "Weight": "4", "PlateID": "714", "Sediment-based climate inference (hot/cold, humid/S/desert)": null, "Fossil-based climate inference (hot/cold, humid/S/desert)": null, "Geochemistry-based climate inference  (hot/cold, humid/S/desert)": null, "PaleozonaCodigo": null, "layer": "95.00Ma_point", "path": "C:/Users/Leonardo Bachi/OneDrive/Desktop/ITT_OCEANEON/20_SETEMBRO_TABELA_FINAL/PONTOS_RETIFICADOS/95.00Ma.geojson", "winner": "S", "cluster_size": 3}, "geometry": {"type": "Point", "coordinates": [-5.229147668115941, 12.859609149998688]}}, {"type": "Feature", "properties": {"ID": "144", "Country": "Algeria", "Basin_Sub_": "Guir ", "Group": "N/A", "Formation": "Rhoundja?", "Member": "N/A", "Well name/ outcrop": "Djebel Asfer", "Latitude": "31.873", "Longitude": "-2.203", "Dating evidence": "Biostratigraphy:Ammonites", "REF(Authors, Year)": "?er & Benyoucef, 2021", "Show_on_Ma": "95", "Lithology, structures, paleowind": "Thick fossiliferous limestones, massive limestones, marls, stromatolitic limestones, birdseye (fenestral) limestones, bioturbated limestones (Thalassinoides), chert-bearing limestones", "Paleoenvironment": "Coastal to marine: lagoon to restricted very shallow inner carbonate shelf", "REF (Authors, Year)": "?er & Benyoucef, 2021", "Fossil occurrences": "Rudists (Sauvagesia sharpei, S. nicaisei, Durania blayaci, D. arnaudi, Apricardia sp.), oysters, bivalves, gastropods, echinoids, ammonite Neolobites vibrayeanus", "REF (Authors, Year)_1": "?er & Benyoucef, 2021", "Geochemistry data": "N/A", "REF (Authors, Year)_2": "N/A", "Sediment-based climate inference (hot/cold, humid/semi-arid/desert)": "Semi-arid to arid", "Fossil-based climate inference (hot/cold, humid/semi-arid/desert)": "N/A", "Geochemistry-based climate inference  (hot/cold, humid/semi-arid/desert)": "N/A", "Climate assignment leading evidence": "Carbonates (restricted carbonate shelf, stromatolites and birdseye-limestones indicating high evaporation)", "Climate_Cl": "D", "Weight": "4", "PlateID": "714", "Sediment-based climate inference (hot/cold, humid/S/desert)": null, "Fossil-based climate inference (hot/cold, humid/S/desert)": null, "Geochemistry-based climate inference  (hot/cold, humid/S/desert)": null, "PaleozonaCodigo": null, "layer": "95.00Ma_point", "path": "C:/Users/Leonardo Bachi/OneDrive/Desktop/ITT_OCEANEON/20_SETEMBRO_TABELA_FINAL/PONTOS_RETIFICADOS/95.00Ma.geojson", "winner": "S", "cluster_size": 3}, "geometry": {"type": "Point", "coordinates": [-8.436772074249669, 12.219758698140685]}}, {"type": "Feature", "properties": {"ID": "1731", "Country": "Cameroon", "Basin_Sub_": "Manfe", "Group": "Manfe", "Formation": "Cross River/Ikom-Munaya", "Member": "N/A", "Well name/ outcrop": "Bakwelle (Bkw) ", "Latitude": "5.687778", "Longitude": "9.151667", "Dating evidence": "Palinology", "REF(Authors, Year)": "Bilobe et al 2021", "Show_on_Ma": "95", "Lithology, structures, paleowind": "sandstones interbedded with sandy mudstones", "Paleoenvironment": "Continental: fluvial ", "REF (Authors, Year)": "Bilobe et al 2021", "Fossil occurrences": "Opaque phytoclasts and a low diversity palynomorph assemblage. Classopollis spp. and some Araucariacites spp., some trilete spores, including Cicatricosisporites venustus, and a few single grains of angiosperm pollen indet. Other palynomorphs include Deltoidospora spp., Echinatisporis spp., Callialasporites and Matonisporites spp.", "REF (Authors, Year)_1": "Bilobe et al 2021", "Geochemistry data": "N/A", "REF (Authors, Year)_2": "N/A", "Sediment-based climate inference (hot/cold, humid/semi-arid/desert)": null, "Fossil-based climate inference (hot/cold, humid/semi-arid/desert)": "(warm) semi arid to Arid/Humid to semi-humid", "Geochemistry-based climate inference  (hot/cold, humid/semi-arid/desert)": "N/A", "Climate assignment leading evidence": "palynoflora (low-diversity palynomorph assemblage dominated by Classopollis spp.)", "Climate_Cl": "S", "Weight": "3", "PlateID": "701", "Sediment-based climate inference (hot/cold, humid/S/desert)": null, "Fossil-based climate inference (hot/cold, humid/S/desert)": null, "Geochemistry-based climate inference  (hot/cold, humid/S/desert)": null, "PaleozonaCodigo": null, "layer": "95.00Ma_point", "path": "C:/Users/Leonardo Bachi/OneDrive/Desktop/ITT_OCEANEON/20_SETEMBRO_TABELA_FINAL/PONTOS_RETIFICADOS/95.00Ma.geojson", "winner": "H", "cluster_size": 45}, "geometry": {"type": "Point", "coordinates": [-5.963729930850746, -15.931179098059008]}}, {"type": "Feature", "properties": {"ID": "1739", "Country": "Cameroon", "Basin_Sub_": "Manfe", "Group": "Manfe", "Formation": "Cross River/Ikom-Munaya", "Member": "N/A", "Well name/ outcrop": "Akwen (Akw)", "Latitude": "5.761667", "Longitude": "9.059722", "Dating evidence": "Palinology", "REF(Authors, Year)": "Bilobe et al 2021", "Show_on_Ma": "95", "Lithology, structures, paleowind": "sandstones interbedded with sandy mudstones", "Paleoenvironment": "Continental: fluvial ", "REF (Authors, Year)": "Bilobe et al 2021", "Fossil occurrences": "palynomorphs, including Classopollis spp., Araucariacites spp., Cicatricosisporites venustus, Deltoidospora spp. and trilete spore indet", "REF (Authors, Year)_1": "Bilobe et al 2021", "Geochemistry data": "N/A", "REF (Authors, Year)_2": "N/A", "Sediment-based climate inference (hot/cold, humid/semi-arid/desert)": null, "Fossil-based climate inference (hot/cold, humid/semi-arid/desert)": "(warm) semi arid to Arid/Humid to semi-humid", "Geochemistry-based climate inference  (hot/cold, humid/semi-arid/desert)": "N/A", "Climate assignment leading evidence": "palynoflora (Classopollis spp)", "Climate_Cl": "S", "Weight": "3", "PlateID": "701", "Sediment-based climate inference (hot/cold, humid/S/desert)": null, "Fossil-based climate inference (hot/cold, humid/S/desert)": null, "Geochemistry-based climate inference  (hot/cold, humid/S/desert)": null, "PaleozonaCodigo": null, "layer": "95.00Ma_point", "path": "C:/Users/Leonardo Bachi/OneDrive/Desktop/ITT_OCEANEON/20_SETEMBRO_TABELA_FINAL/PONTOS_RETIFICADOS/95.00Ma.geojson", "winner": "H", "cluster_size": 45}, "geometry": {"type": "Point", "coordinates": [-6.034711940295897, -15.835427925016793]}}, {"type": "Feature", "properties": {"ID": "1747", "Country": "Cameroon", "Basin_Sub_": "Manfe", "Group": "Manfe", "Formation": "Baso", "Member": "N/A", "Well name/ outcrop": "Okoyong (Oky)", "Latitude": "5.723056", "Longitude": "9.341944", "Dating evidence": "Palinology", "REF(Authors, Year)": "Bilobe et al 2021", "Show_on_Ma": "95", "Lithology, structures, paleowind": "cross-stratified pebble sandstones interfingered with thinly bedded clayshale and mudstones", "Paleoenvironment": "Continental: Fluvio-lacustrine ", "REF (Authors, Year)": "Bilobe et al 2021", "Fossil occurrences": "Palynomorphs consist of gymnosperm pollen, mainly Classopollis spp. and some Araucariacites spp., some trilete spores, including Cicatricosisporites venustus, and some angiosperm pollen. The two samples contain Afropollis spp., the topmost sample (Oky2) contains additionally Trisectoris reticulatus, Echinatisporis spp., trilete spore indet, Concavisporites spp., Classopollis spp. (tetrads), Callialasporites spp., Crybelosporites spp., Deltoidospora spp. and Matonisporites spp.", "REF (Authors, Year)_1": "Bilobe et al 2021", "Geochemistry data": "N/A", "REF (Authors, Year)_2": "N/A", "Sediment-based climate inference (hot/cold, humid/semi-arid/desert)": null, "Fossil-based climate inference (hot/cold, humid/semi-arid/desert)": "(warm) semi arid to Arid/Humid to semi-humid", "Geochemistry-based climate inference  (hot/cold, humid/semi-arid/desert)": "N/A", "Climate assignment leading evidence": "palynoflora (Classopollis spp., Callialasporites spp.)", "Climate_Cl": "S", "Weight": "3", "PlateID": "701", "Sediment-based climate inference (hot/cold, humid/S/desert)": null, "Fossil-based climate inference (hot/cold, humid/S/desert)": null, "Geochemistry-based climate inference  (hot/cold, humid/S/desert)": null, "PaleozonaCodigo": null, "layer": "95.00Ma_point", "path": "C:/Users/Leonardo Bachi/OneDrive/Desktop/ITT_OCEANEON/20_SETEMBRO_TABELA_FINAL/PONTOS_RETIFICADOS/95.00Ma.geojson", "winner": "H", "cluster_size": 45}, "geometry": {"type": "Point", "coordinates": [-5.764191760662409, -15.94789328710619]}}, {"type": "Feature", "properties": {"ID": "1759", "Country": "Cameroon", "Basin_Sub_": "Manfe", "Group": "Manfe", "Formation": "Nfaitok", "Member": "N/A", "Well name/ outcrop": "Mbinjong: Mamue River (Mam)", "Latitude": "5.556111", "Longitude": "9.650278", "Dating evidence": "Palinology", "REF(Authors, Year)": "Bilobe et al 2021", "Show_on_Ma": "95", "Lithology, structures, paleowind": "siltstones, fine to coarse-grained sandstones, siltshales with ripple marks", "Paleoenvironment": "Continental: lacustrine to fluvio-deltaic", "REF (Authors, Year)": "Bilobe et al 2021", "Fossil occurrences": "Opaque phytoclasts. sporomorphs, mainly Classopollis spp. Few other palynomorphs include Araucariacites spp., Cicatricosisporites venustus, Deltoidospora spp. and Equisetosporites spp.", "REF (Authors, Year)_1": "Bilobe et al 2021", "Geochemistry data": "N/A", "REF (Authors, Year)_2": "N/A", "Sediment-based climate inference (hot/cold, humid/semi-arid/desert)": "Humid (coaly)", "Fossil-based climate inference (hot/cold, humid/semi-arid/desert)": "(warm) semi arid to Arid/Humid to semi-humid", "Geochemistry-based climate inference  (hot/cold, humid/semi-arid/desert)": "N/A", "Climate assignment leading evidence": "palynoflora (Classopollis spp.)", "Climate_Cl": "S", "Weight": "3", "PlateID": "701", "Sediment-based climate inference (hot/cold, humid/S/desert)": null, "Fossil-based climate inference (hot/cold, humid/S/desert)": null, "Geochemistry-based climate inference  (hot/cold, humid/S/desert)": null, "PaleozonaCodigo": null, "layer": "95.00Ma_point", "path": "C:/Users/Leonardo Bachi/OneDrive/Desktop/ITT_OCEANEON/20_SETEMBRO_TABELA_FINAL/PONTOS_RETIFICADOS/95.00Ma.geojson", "winner": "H", "cluster_size": 45}, "geometry": {"type": "Point", "coordinates": [-5.502673505587373, -16.1905260216959]}}, {"type": "Feature", "properties": {"ID": "1767", "Country": "Cameroon", "Basin_Sub_": "Manfe", "Group": "Manfe", "Formation": "Nfaitok", "Member": "N/A", "Well name/ outcrop": "Nchemba II (Nch)", "Latitude": "5.700611", "Longitude": "9.520278", "Dating evidence": "Palinology", "REF(Authors, Year)": "Bilobe et al 2021", "Show_on_Ma": "95", "Lithology, structures, paleowind": "siliceous and carbonate sandstones, siltstones and shales. ", "Paleoenvironment": "Continental: lacustrine to fluvio-deltaic", "REF (Authors, Year)": "Bilobe et al 2021", "Fossil occurrences": "tridactyl dinosaur footprints. Opaque phytoclasts, a few palynomorphs including Classopollis spp., Callialasporites spp., Cicatricosisporites venustus, Araucariacites australis", "REF (Authors, Year)_1": "Bilobe et al 2021", "Geochemistry data": "N/A", "REF (Authors, Year)_2": "N/A", "Sediment-based climate inference (hot/cold, humid/semi-arid/desert)": "Humid (coaly)", "Fossil-based climate inference (hot/cold, humid/semi-arid/desert)": "(warm) semi arid to Arid/Humid to semi-humid", "Geochemistry-based climate inference  (hot/cold, humid/semi-arid/desert)": "N/A", "Climate assignment leading evidence": "palynoflora (Classopollis spp.)", "Climate_Cl": "S", "Weight": "3", "PlateID": "701", "Sediment-based climate inference (hot/cold, humid/S/desert)": null, "Fossil-based climate inference (hot/cold, humid/S/desert)": null, "Geochemistry-based climate inference  (hot/cold, humid/S/desert)": null, "PaleozonaCodigo": null, "layer": "95.00Ma_point", "path": "C:/Users/Leonardo Bachi/OneDrive/Desktop/ITT_OCEANEON/20_SETEMBRO_TABELA_FINAL/PONTOS_RETIFICADOS/95.00Ma.geojson", "winner": "H", "cluster_size": 45}, "geometry": {"type": "Point", "coordinates": [-5.592515819306866, -16.016839343568716]}}, {"type": "Feature", "properties": {"ID": "1775", "Country": "Cameroon", "Basin_Sub_": "Manfe", "Group": "Manfe", "Formation": "Nfaitok", "Member": "N/A", "Well name/ outcrop": "Nfaitok (NFE)", "Latitude": "5.726667", "Longitude": "9.507778", "Dating evidence": "Palinology", "REF(Authors, Year)": "Bilobe et al 2021", "Show_on_Ma": "95", "Lithology, structures, paleowind": "siliceous and carbonate sandstones, siltstones and shales.", "Paleoenvironment": "Continental: lacustrine to fluvio-deltaic", "REF (Authors, Year)": "Bilobe et al 2021", "Fossil occurrences": "tridactyl dinosaur footprints. Opaque phytoclasts and/or amorphous organic matter (AOM). Classopollis spp., Classopollis spp. (tetrad) a few Araucariacites spp., Cicatricosisporites venustus, and abundant fungal remains", "REF (Authors, Year)_1": "Bilobe et al 2021", "Geochemistry data": "N/A", "REF (Authors, Year)_2": "N/A", "Sediment-based climate inference (hot/cold, humid/semi-arid/desert)": "Humid (coaly)", "Fossil-based climate inference (hot/cold, humid/semi-arid/desert)": "(warm) semi arid to Arid/Humid to semi-humid", "Geochemistry-based climate inference  (hot/cold, humid/semi-arid/desert)": "N/A", "Climate assignment leading evidence": "palynoflora (Classopollis spp., Classopollis spp. tetrad)", "Climate_Cl": "S", "Weight": "3", "PlateID": "701", "Sediment-based climate inference (hot/cold, humid/S/desert)": null, "Fossil-based climate inference (hot/cold, humid/S/desert)": null, "Geochemistry-based climate inference  (hot/cold, humid/S/desert)": null, "PaleozonaCodigo": null, "layer": "95.00Ma_point", "path": "C:/Users/Leonardo Bachi/OneDrive/Desktop/ITT_OCEANEON/20_SETEMBRO_TABELA_FINAL/PONTOS_RETIFICADOS/95.00Ma.geojson", "winner": "H", "cluster_size": 45}, "geometry": {"type": "Point", "coordinates": [-5.597775339086719, -15.988413012974911]}}, {"type": "Feature", "properties": {"ID": "1783", "Country": "Cameroon", "Basin_Sub_": "Manfe", "Group": "Manfe", "Formation": "Nfaitok", "Member": "N/A", "Well name/ outcrop": "Mamfe: John Hault (Jh)", "Latitude": "5.753889", "Longitude": "9.300378", "Dating evidence": "Palinology", "REF(Authors, Year)": "Bilobe et al 2021", "Show_on_Ma": "95", "Lithology, structures, paleowind": "siliceous and carbonate sandstones, limestones, black shales with carbonate nodules, volcanoclastics and coal beds ", "Paleoenvironment": "Continental: lacustrine to fluvio-deltaic", "REF (Authors, Year)": "Bilobe et al 2021", "Fossil occurrences": "low diversity sporomorph assemblage. Most abundant taxa are gymnosperm pollen, especially Classopollis classoides and Classopopllis spp. (tetrad), in some samples, Araucariacites spp., Concavisporites spp., Exesipollenites spp., Callialasporites spp., Equisetosporites spp. and few fungal remains were also recorded. Trilete spores are represented mainly by Deltoidospora spp. and Cicatricosisporites venustus. In two samples (Jh5 and Jh12), a few single specimens of Afropollis spp.are recorded.", "REF (Authors, Year)_1": "Bilobe et al 2021", "Geochemistry data": "N/A", "REF (Authors, Year)_2": "N/A", "Sediment-based climate inference (hot/cold, humid/semi-arid/desert)": "Humid (coaly)", "Fossil-based climate inference (hot/cold, humid/semi-arid/desert)": "(warm) semi arid to Arid/Humid to semi-humid", "Geochemistry-based climate inference  (hot/cold, humid/semi-arid/desert)": "N/A", "Climate assignment leading evidence": "palynoflora (Classopollis spp., Classopollis classoides, Classopollis spp. tetrad)", "Climate_Cl": "S", "Weight": "3", "PlateID": "701", "Sediment-based climate inference (hot/cold, humid/S/desert)": null, "Fossil-based climate inference (hot/cold, humid/S/desert)": null, "Geochemistry-based climate inference  (hot/cold, humid/S/desert)": null, "PaleozonaCodigo": null, "layer": "95.00Ma_point", "path": "C:/Users/Leonardo Bachi/OneDrive/Desktop/ITT_OCEANEON/20_SETEMBRO_TABELA_FINAL/PONTOS_RETIFICADOS/95.00Ma.geojson", "winner": "H", "cluster_size": 45}, "geometry": {"type": "Point", "coordinates": [-5.797065375581715, -15.907127605741248]}}, {"type": "Feature", "properties": {"ID": "1791", "Country": "Cameroon", "Basin_Sub_": "Manfe", "Group": "Manfe", "Formation": "Nfaitok", "Member": "N/A", "Well name/ outcrop": "Mamfe: Below Satom Bridge (Sat)", "Latitude": "5.695833", "Longitude": "9.046111", "Dating evidence": "Palinology", "REF(Authors, Year)": "Bilobe et al 2021", "Show_on_Ma": "95", "Lithology, structures, paleowind": "siliceous and carbonate sandstones, limestones, black shales with carbonate nodules, volcanoclastics and coal beds", "Paleoenvironment": "Continental: lacustrine to fluvio-deltaic", "REF (Authors, Year)": "Bilobe et al 2021", "Fossil occurrences": "Opaque phytoclasts and some amorphous organic matter (AOM). sporomorph assemblage, slightly brighter and well preserved, low diversity with Classopollis spp. Araucariacites spp.,  Cicatricosisporites venustus, Cyathidites spp., Deltoidospora spp. and Exesipollenites spp", "REF (Authors, Year)_1": "Bilobe et al 2021", "Geochemistry data": "N/A", "REF (Authors, Year)_2": "N/A", "Sediment-based climate inference (hot/cold, humid/semi-arid/desert)": "Humid (coaly)", "Fossil-based climate inference (hot/cold, humid/semi-arid/desert)": "(warm) semi arid to Arid/Humid to semi-humid", "Geochemistry-based climate inference  (hot/cold, humid/semi-arid/desert)": "N/A", "Climate assignment leading evidence": "palynoflora (Classopollis spp.)", "Climate_Cl": "S", "Weight": "3", "PlateID": "701", "Sediment-based climate inference (hot/cold, humid/S/desert)": null, "Fossil-based climate inference (hot/cold, humid/S/desert)": null, "Geochemistry-based climate inference  (hot/cold, humid/S/desert)": null, "PaleozonaCodigo": null, "layer": "95.00Ma_point", "path": "C:/Users/Leonardo Bachi/OneDrive/Desktop/ITT_OCEANEON/20_SETEMBRO_TABELA_FINAL/PONTOS_RETIFICADOS/95.00Ma.geojson", "winner": "H", "cluster_size": 45}, "geometry": {"type": "Point", "coordinates": [-6.066681991845022, -15.895192716115154]}}, {"type": "Feature", "properties": {"ID": "1799", "Country": "Cameroon", "Basin_Sub_": "Manfe", "Group": "Manfe", "Formation": "Nfaitok", "Member": "N/A", "Well name/ outcrop": "Besongabang: Bakiep River (Bes)", "Latitude": "5.699444", "Longitude": "9.304722", "Dating evidence": "Palinology", "REF(Authors, Year)": "Bilobe et al 2021", "Show_on_Ma": "95", "Lithology, structures, paleowind": "siliceous and carbonate sandstones, limestones, black shales with carbonate nodules, volcanoclastics and coal beds", "Paleoenvironment": "Continental: lacustrine to fluvio-deltaic", "REF (Authors, Year)": "Bilobe et al 2021", "Fossil occurrences": "dominated by amorphous organic matter (AOM). The most abundant taxa are gymnosperm pollen, especially Classopollis spp. Araucariacites spp., Concavisporites spp., Callialasporites spp., Eucommiidites spp. and Equisetosporites spp. Trilete spores are represented by Deltoidospora spp. and Cicatricosisporites venustus. In one of the samples (Bes5) a few specimens of Afropollis spp.", "REF (Authors, Year)_1": "Bilobe et al 2021", "Geochemistry data": "N/A", "REF (Authors, Year)_2": "N/A", "Sediment-based climate inference (hot/cold, humid/semi-arid/desert)": "Humid (coaly)", "Fossil-based climate inference (hot/cold, humid/semi-arid/desert)": "(warm) semi arid to Arid/Humid to semi-humid", "Geochemistry-based climate inference  (hot/cold, humid/semi-arid/desert)": "N/A", "Climate assignment leading evidence": "palynoflora (Classopollis spp.)", "Climate_Cl": "S", "Weight": "3", "PlateID": "701", "Sediment-based climate inference (hot/cold, humid/S/desert)": null, "Fossil-based climate inference (hot/cold, humid/S/desert)": null, "Geochemistry-based climate inference  (hot/cold, humid/S/desert)": null, "PaleozonaCodigo": null, "layer": "95.00Ma_point", "path": "C:/Users/Leonardo Bachi/OneDrive/Desktop/ITT_OCEANEON/20_SETEMBRO_TABELA_FINAL/PONTOS_RETIFICADOS/95.00Ma.geojson", "winner": "H", "cluster_size": 45}, "geometry": {"type": "Point", "coordinates": [-5.807875625228038, -15.960745572683926]}}, {"type": "Feature", "properties": {"ID": "1811", "Country": "Cameroon", "Basin_Sub_": "Manfe", "Group": "Manfe", "Formation": "Ngeme", "Member": "N/A", "Well name/ outcrop": "Etoko (Etk)", "Latitude": "5.704722", "Longitude": "9.556389", "Dating evidence": "Palinology", "REF(Authors, Year)": "Bilobe et al 2021", "Show_on_Ma": "95", "Lithology, structures, paleowind": "sandstones and clast-supported conglomerates", "Paleoenvironment": "Continental: fluvial", "REF (Authors, Year)": "Bilobe et al 2021", "Fossil occurrences": "Classopollis spp., rich in AOM, Cicatricosisporites venustus, Cicatricosisporites spp, Araucariacites spp", "REF (Authors, Year)_1": "Bilobe et al 2021", "Geochemistry data": "N/A", "REF (Authors, Year)_2": "N/A", "Sediment-based climate inference (hot/cold, humid/semi-arid/desert)": "Humid (coaly)", "Fossil-based climate inference (hot/cold, humid/semi-arid/desert)": "(warm) semi arid to Arid/Humid to semi-humid", "Geochemistry-based climate inference  (hot/cold, humid/semi-arid/desert)": "N/A", "Climate assignment leading evidence": "palynoflora (Classopollis spp.)", "Climate_Cl": "S", "Weight": "3", "PlateID": "701", "Sediment-based climate inference (hot/cold, humid/S/desert)": null, "Fossil-based climate inference (hot/cold, humid/S/desert)": null, "Geochemistry-based climate inference  (hot/cold, humid/S/desert)": null, "PaleozonaCodigo": null, "layer": "95.00Ma_point", "path": "C:/Users/Leonardo Bachi/OneDrive/Desktop/ITT_OCEANEON/20_SETEMBRO_TABELA_FINAL/PONTOS_RETIFICADOS/95.00Ma.geojson", "winner": "H", "cluster_size": 45}, "geometry": {"type": "Point", "coordinates": [-5.555340748000319, -16.022433296098765]}}, {"type": "Feature", "properties": {"ID": "2183", "Country": "Manfe", "Basin_Sub_": "Mamfe", "Group": "Cross River/Ikom-Munaya", "Formation": "N/A", "Member": null, "Well name/ outcrop": null, "Latitude": "6", "Longitude": "9.151", "Dating evidence": null, "REF(Authors, Year)": null, "Show_on_Ma": "95", "Lithology, structures, paleowind": null, "Paleoenvironment": null, "REF (Authors, Year)": null, "Fossil occurrences": null, "REF (Authors, Year)_1": null, "Geochemistry data": null, "REF (Authors, Year)_2": null, "Sediment-based climate inference (hot/cold, humid/semi-arid/desert)": null, "Fossil-based climate inference (hot/cold, humid/semi-arid/desert)": null, "Geochemistry-based climate inference  (hot/cold, humid/semi-arid/desert)": null, "Climate assignment leading evidence": null, "Climate_Cl": "S", "Weight": "3", "PlateID": "701", "Sediment-based climate inference (hot/cold, humid/S/desert)": null, "Fossil-based climate inference (hot/cold, humid/S/desert)": null, "Geochemistry-based climate inference  (hot/cold, humid/S/desert)": null, "PaleozonaCodigo": null, "layer": "95.00Ma_point", "path": "C:/Users/Leonardo Bachi/OneDrive/Desktop/ITT_OCEANEON/20_SETEMBRO_TABELA_FINAL/PONTOS_RETIFICADOS/95.00Ma.geojson", "winner": "H", "cluster_size": 45}, "geometry": {"type": "Point", "coordinates": [-5.87736946391426, -15.63021977970483]}}, {"type": "Feature", "properties": {"ID": "2185", "Country": "Manfe", "Basin_Sub_": "Mamfe", "Group": "Cross River/Ikom-Munaya", "Formation": "N/A", "Member": null, "Well name/ outcrop": null, "Latitude": "6", "Longitude": "9.059", "Dating evidence": null, "REF(Authors, Year)": null, "Show_on_Ma": "95", "Lithology, structures, paleowind": null, "Paleoenvironment": null, "REF (Authors, Year)": null, "Fossil occurrences": null, "REF (Authors, Year)_1": null, "Geochemistry data": null, "REF (Authors, Year)_2": null, "Sediment-based climate inference (hot/cold, humid/semi-arid/desert)": null, "Fossil-based climate inference (hot/cold, humid/semi-arid/desert)": null, "Geochemistry-based climate inference  (hot/cold, humid/semi-arid/desert)": null, "Climate assignment leading evidence": null, "Climate_Cl": "S", "Weight": "3", "PlateID": "701", "Sediment-based climate inference (hot/cold, humid/S/desert)": null, "Fossil-based climate inference (hot/cold, humid/S/desert)": null, "Geochemistry-based climate inference  (hot/cold, humid/S/desert)": null, "PaleozonaCodigo": null, "layer": "95.00Ma_point", "path": "C:/Users/Leonardo Bachi/OneDrive/Desktop/ITT_OCEANEON/20_SETEMBRO_TABELA_FINAL/PONTOS_RETIFICADOS/95.00Ma.geojson", "winner": "H", "cluster_size": 45}, "geometry": {"type": "Point", "coordinates": [-5.968889556715314, -15.60567018920297]}}, {"type": "Feature", "properties": {"ID": "2187", "Country": "Manfe", "Basin_Sub_": "Mamfe", "Group": "Baso", "Formation": "N/A", "Member": null, "Well name/ outcrop": null, "Latitude": "6", "Longitude": "9.341", "Dating evidence": null, "REF(Authors, Year)": null, "Show_on_Ma": "95", "Lithology, structures, paleowind": null, "Paleoenvironment": null, "REF (Authors, Year)": null, "Fossil occurrences": null, "REF (Authors, Year)_1": null, "Geochemistry data": null, "REF (Authors, Year)_2": null, "Sediment-based climate inference (hot/cold, humid/semi-arid/desert)": null, "Fossil-based climate inference (hot/cold, humid/semi-arid/desert)": null, "Geochemistry-based climate inference  (hot/cold, humid/semi-arid/desert)": null, "Climate assignment leading evidence": null, "Climate_Cl": "S", "Weight": "3", "PlateID": "701", "Sediment-based climate inference (hot/cold, humid/S/desert)": null, "Fossil-based climate inference (hot/cold, humid/S/desert)": null, "Geochemistry-based climate inference  (hot/cold, humid/S/desert)": null, "PaleozonaCodigo": null, "layer": "95.00Ma_point", "path": "C:/Users/Leonardo Bachi/OneDrive/Desktop/ITT_OCEANEON/20_SETEMBRO_TABELA_FINAL/PONTOS_RETIFICADOS/95.00Ma.geojson", "winner": "H", "cluster_size": 45}, "geometry": {"type": "Point", "coordinates": [-5.688277678430035, -15.680753014384788]}}, {"type": "Feature", "properties": {"ID": "2189", "Country": "Manfe", "Basin_Sub_": "Mamfe", "Group": "Nfaitok", "Formation": "N/A", "Member": null, "Well name/ outcrop": null, "Latitude": "6", "Longitude": "9.65", "Dating evidence": null, "REF(Authors, Year)": null, "Show_on_Ma": "95", "Lithology, structures, paleowind": null, "Paleoenvironment": null, "REF (Authors, Year)": null, "Fossil occurrences": null, "REF (Authors, Year)_1": null, "Geochemistry data": null, "REF (Authors, Year)_2": null, "Sediment-based climate inference (hot/cold, humid/semi-arid/desert)": null, "Fossil-based climate inference (hot/cold, humid/semi-arid/desert)": null, "Geochemistry-based climate inference  (hot/cold, humid/semi-arid/desert)": null, "Climate assignment leading evidence": null, "Climate_Cl": "S", "Weight": "3", "PlateID": "701", "Sediment-based climate inference (hot/cold, humid/S/desert)": null, "Fossil-based climate inference (hot/cold, humid/S/desert)": null, "Geochemistry-based climate inference  (hot/cold, humid/S/desert)": null, "PaleozonaCodigo": null, "layer": "95.00Ma_point", "path": "C:/Users/Leonardo Bachi/OneDrive/Desktop/ITT_OCEANEON/20_SETEMBRO_TABELA_FINAL/PONTOS_RETIFICADOS/95.00Ma.geojson", "winner": "H", "cluster_size": 45}, "geometry": {"type": "Point", "coordinates": [-5.380516431216491, -15.762453892791287]}}, {"type": "Feature", "properties": {"ID": "2191", "Country": "Manfe", "Basin_Sub_": "Mamfe", "Group": "Nfaitok", "Formation": "N/A", "Member": null, "Well name/ outcrop": null, "Latitude": "6", "Longitude": "9.52", "Dating evidence": null, "REF(Authors, Year)": null, "Show_on_Ma": "95", "Lithology, structures, paleowind": null, "Paleoenvironment": null, "REF (Authors, Year)": null, "Fossil occurrences": null, "REF (Authors, Year)_1": null, "Geochemistry data": null, "REF (Authors, Year)_2": null, "Sediment-based climate inference (hot/cold, humid/semi-arid/desert)": null, "Fossil-based climate inference (hot/cold, humid/semi-arid/desert)": null, "Geochemistry-based climate inference  (hot/cold, humid/semi-arid/desert)": null, "Climate assignment leading evidence": null, "Climate_Cl": "S", "Weight": "3", "PlateID": "701", "Sediment-based climate inference (hot/cold, humid/S/desert)": null, "Fossil-based climate inference (hot/cold, humid/S/desert)": null, "Geochemistry-based climate inference  (hot/cold, humid/S/desert)": null, "PaleozonaCodigo": null, "layer": "95.00Ma_point", "path": "C:/Users/Leonardo Bachi/OneDrive/Desktop/ITT_OCEANEON/20_SETEMBRO_TABELA_FINAL/PONTOS_RETIFICADOS/95.00Ma.geojson", "winner": "H", "cluster_size": 45}, "geometry": {"type": "Point", "coordinates": [-5.510031208864283, -15.72815425706659]}}, {"type": "Feature", "properties": {"ID": "2193", "Country": "Manfe", "Basin_Sub_": "Mamfe", "Group": "Nfaitok", "Formation": "N/A", "Member": null, "Well name/ outcrop": null, "Latitude": "6", "Longitude": "9.507", "Dating evidence": null, "REF(Authors, Year)": null, "Show_on_Ma": "95", "Lithology, structures, paleowind": null, "Paleoenvironment": null, "REF (Authors, Year)": null, "Fossil occurrences": null, "REF (Authors, Year)_1": null, "Geochemistry data": null, "REF (Authors, Year)_2": null, "Sediment-based climate inference (hot/cold, humid/semi-arid/desert)": null, "Fossil-based climate inference (hot/cold, humid/semi-arid/desert)": null, "Geochemistry-based climate inference  (hot/cold, humid/semi-arid/desert)": null, "Climate assignment leading evidence": null, "Climate_Cl": "S", "Weight": "3", "PlateID": "701", "Sediment-based climate inference (hot/cold, humid/S/desert)": null, "Fossil-based climate inference (hot/cold, humid/S/desert)": null, "Geochemistry-based climate inference  (hot/cold, humid/S/desert)": null, "PaleozonaCodigo": null, "layer": "95.00Ma_point", "path": "C:/Users/Leonardo Bachi/OneDrive/Desktop/ITT_OCEANEON/20_SETEMBRO_TABELA_FINAL/PONTOS_RETIFICADOS/95.00Ma.geojson", "winner": "H", "cluster_size": 45}, "geometry": {"type": "Point", "coordinates": [-5.522979816747332, -15.724718464362306]}}, {"type": "Feature", "properties": {"ID": "2195", "Country": "Manfe", "Basin_Sub_": "Mamfe", "Group": "Nfaitok", "Formation": "N/A", "Member": null, "Well name/ outcrop": null, "Latitude": "6", "Longitude": "9.3", "Dating evidence": null, "REF(Authors, Year)": null, "Show_on_Ma": "95", "Lithology, structures, paleowind": null, "Paleoenvironment": null, "REF (Authors, Year)": null, "Fossil occurrences": null, "REF (Authors, Year)_1": null, "Geochemistry data": null, "REF (Authors, Year)_2": null, "Sediment-based climate inference (hot/cold, humid/semi-arid/desert)": null, "Fossil-based climate inference (hot/cold, humid/semi-arid/desert)": null, "Geochemistry-based climate inference  (hot/cold, humid/semi-arid/desert)": null, "Climate assignment leading evidence": null, "Climate_Cl": "S", "Weight": "3", "PlateID": "701", "Sediment-based climate inference (hot/cold, humid/S/desert)": null, "Fossil-based climate inference (hot/cold, humid/S/desert)": null, "Geochemistry-based climate inference  (hot/cold, humid/S/desert)": null, "PaleozonaCodigo": null, "layer": "95.00Ma_point", "path": "C:/Users/Leonardo Bachi/OneDrive/Desktop/ITT_OCEANEON/20_SETEMBRO_TABELA_FINAL/PONTOS_RETIFICADOS/95.00Ma.geojson", "winner": "H", "cluster_size": 45}, "geometry": {"type": "Point", "coordinates": [-5.729091142765827, -15.669867540221574]}}, {"type": "Feature", "properties": {"ID": "2197", "Country": "Manfe", "Basin_Sub_": "Mamfe", "Group": "Nfaitok", "Formation": "N/A", "Member": null, "Well name/ outcrop": null, "Latitude": "6", "Longitude": "9.046", "Dating evidence": null, "REF(Authors, Year)": null, "Show_on_Ma": "95", "Lithology, structures, paleowind": null, "Paleoenvironment": null, "REF (Authors, Year)": null, "Fossil occurrences": null, "REF (Authors, Year)_1": null, "Geochemistry data": null, "REF (Authors, Year)_2": null, "Sediment-based climate inference (hot/cold, humid/semi-arid/desert)": null, "Fossil-based climate inference (hot/cold, humid/semi-arid/desert)": null, "Geochemistry-based climate inference  (hot/cold, humid/semi-arid/desert)": null, "Climate assignment leading evidence": null, "Climate_Cl": "S", "Weight": "3", "PlateID": "701", "Sediment-based climate inference (hot/cold, humid/S/desert)": null, "Fossil-based climate inference (hot/cold, humid/S/desert)": null, "Geochemistry-based climate inference  (hot/cold, humid/S/desert)": null, "PaleozonaCodigo": null, "layer": "95.00Ma_point", "path": "C:/Users/Leonardo Bachi/OneDrive/Desktop/ITT_OCEANEON/20_SETEMBRO_TABELA_FINAL/PONTOS_RETIFICADOS/95.00Ma.geojson", "winner": "H", "cluster_size": 45}, "geometry": {"type": "Point", "coordinates": [-5.981819630680749, -15.602196977376085]}}, {"type": "Feature", "properties": {"ID": "2199", "Country": "Manfe", "Basin_Sub_": "Mamfe", "Group": "Nfaitok", "Formation": "N/A", "Member": null, "Well name/ outcrop": null, "Latitude": "6", "Longitude": "9.304", "Dating evidence": null, "REF(Authors, Year)": null, "Show_on_Ma": "95", "Lithology, structures, paleowind": null, "Paleoenvironment": null, "REF (Authors, Year)": null, "Fossil occurrences": null, "REF (Authors, Year)_1": null, "Geochemistry data": null, "REF (Authors, Year)_2": null, "Sediment-based climate inference (hot/cold, humid/semi-arid/desert)": null, "Fossil-based climate inference (hot/cold, humid/semi-arid/desert)": null, "Geochemistry-based climate inference  (hot/cold, humid/semi-arid/desert)": null, "Climate assignment leading evidence": null, "Climate_Cl": "S", "Weight": "3", "PlateID": "701", "Sediment-based climate inference (hot/cold, humid/S/desert)": null, "Fossil-based climate inference (hot/cold, humid/S/desert)": null, "Geochemistry-based climate inference  (hot/cold, humid/S/desert)": null, "PaleozonaCodigo": null, "layer": "95.00Ma_point", "path": "C:/Users/Leonardo Bachi/OneDrive/Desktop/ITT_OCEANEON/20_SETEMBRO_TABELA_FINAL/PONTOS_RETIFICADOS/95.00Ma.geojson", "winner": "H", "cluster_size": 45}, "geometry": {"type": "Point", "coordinates": [-5.725109570179836, -15.67092999997908]}}, {"type": "Feature", "properties": {"ID": "2201", "Country": "Manfe", "Basin_Sub_": "Mamfe", "Group": "Ngeme", "Formation": "N/A", "Member": null, "Well name/ outcrop": null, "Latitude": "6", "Longitude": "9.556", "Dating evidence": null, "REF(Authors, Year)": null, "Show_on_Ma": "95", "Lithology, structures, paleowind": null, "Paleoenvironment": null, "REF (Authors, Year)": null, "Fossil occurrences": null, "REF (Authors, Year)_1": null, "Geochemistry data": null, "REF (Authors, Year)_2": null, "Sediment-based climate inference (hot/cold, humid/semi-arid/desert)": null, "Fossil-based climate inference (hot/cold, humid/semi-arid/desert)": null, "Geochemistry-based climate inference  (hot/cold, humid/semi-arid/desert)": null, "Climate assignment leading evidence": null, "Climate_Cl": "S", "Weight": "3", "PlateID": "701", "Sediment-based climate inference (hot/cold, humid/S/desert)": null, "Fossil-based climate inference (hot/cold, humid/S/desert)": null, "Geochemistry-based climate inference  (hot/cold, humid/S/desert)": null, "PaleozonaCodigo": null, "layer": "95.00Ma_point", "path": "C:/Users/Leonardo Bachi/OneDrive/Desktop/ITT_OCEANEON/20_SETEMBRO_TABELA_FINAL/PONTOS_RETIFICADOS/95.00Ma.geojson", "winner": "H", "cluster_size": 45}, "geometry": {"type": "Point", "coordinates": [-5.474170801747576, -15.73766323143559]}}, {"type": "Feature", "properties": {"ID": "2608", "Country": "Senegal", "Basin_Sub_": "Senegal basin", "Group": "N/A", "Formation": "N/A", "Member": "N/A", "Well name/ outcrop": "DSDP 367", "Latitude": "12.15", "Longitude": "-18.278", "Dating evidence": "N/A", "REF(Authors, Year)": "Chamley et al., 1988", "Show_on_Ma": "95", "Lithology, structures, paleowind": "Predominantly claystones and mudstones, with black shale at Site 367; progressive replacement of carbonate by terrigenous clay", "Paleoenvironment": "Marine: open-marine shelf to deep-marine basin", "REF (Authors, Year)": "Chamley et al., 1988", "Fossil occurrences": "Marine microfossils; black-shale facies contain organic matter", "REF (Authors, Year)_1": "Chamley et al., 1988", "Geochemistry data": "Al?e smectites, illite, kaolinite and mixed-layer clays; smectite chemistry determined by microprobe.", "REF (Authors, Year)_2": "Chamley et al., 1988", "Sediment-based climate inference (hot/cold, humid/semi-arid/desert)": "N/A", "Fossil-based climate inference (hot/cold, humid/semi-arid/desert)": "N/A", "Geochemistry-based climate inference  (hot/cold, humid/semi-arid/desert)": "semi-arid to seasonally humid", "Climate assignment leading evidence": "smectite abundance", "Climate_Cl": "S", "Weight": "3", "PlateID": "714", "Sediment-based climate inference (hot/cold, humid/S/desert)": null, "Fossil-based climate inference (hot/cold, humid/S/desert)": null, "Geochemistry-based climate inference  (hot/cold, humid/S/desert)": null, "PaleozonaCodigo": null, "layer": "95.00Ma_point", "path": "C:/Users/Leonardo Bachi/OneDrive/Desktop/ITT_OCEANEON/20_SETEMBRO_TABELA_FINAL/PONTOS_RETIFICADOS/95.00Ma.geojson", "winner": "H", "cluster_size": 4}, "geometry": {"type": "Point", "coordinates": [-29.58629638849733, -0.695563096959174]}}, {"type": "Feature", "properties": {"ID": "2732", "Country": "Tunisia", "Basin_Sub_": "N/A", "Group": "N/A", "Formation": "Bahloul", "Member": "lower Pre-Bahloul", "Well name/ outcrop": "Oued Bahloul ", "Latitude": "35.77", "Longitude": "9.35", "Dating evidence": "Biostratigraphy: Ammonite and Foraminifera", "REF(Authors, Year)": "Aguado etal 2016", "Show_on_Ma": "95", "Lithology, structures, paleowind": "Marl, microconglomeratic, Calcarenite, ", "Paleoenvironment": "Marine: outer shelf to upper slope", "REF (Authors, Year)": "Aguado etal 2016", "Fossil occurrences": "Nannofossil zone: Corollithion kennedyi, Cretarhabdus striatus, Eiffellithus hancockii; Ammonite: M. geslinianum;  Foraminifera: R. cushmani", "REF (Authors, Year)_1": "Aguado etal 2016", "Geochemistry data": "low detrital proxies (K/Al) and high aeolian detrital proxies (Zr/Al)", "REF (Authors, Year)_2": "N/A", "Sediment-based climate inference (hot/cold, humid/semi-arid/desert)": "semi-arid?", "Fossil-based climate inference (hot/cold, humid/semi-arid/desert)": "N/A", "Geochemistry-based climate inference  (hot/cold, humid/semi-arid/desert)": "semi-arid", "Climate assignment leading evidence": "litthology, geochimocal proxies", "Climate_Cl": "S", "Weight": "3", "PlateID": "715", "Sediment-based climate inference (hot/cold, humid/S/desert)": null, "Fossil-based climate inference (hot/cold, humid/S/desert)": null, "Geochemistry-based climate inference  (hot/cold, humid/S/desert)": null, "PaleozonaCodigo": null, "layer": "95.00Ma_point", "path": "C:/Users/Leonardo Bachi/OneDrive/Desktop/ITT_OCEANEON/20_SETEMBRO_TABELA_FINAL/PONTOS_RETIFICADOS/95.00Ma.geojson", "winner": "H", "cluster_size": 13}, "geometry": {"type": "Point", "coordinates": [2.135976372314831, 13.06567843763319]}}, {"type": "Feature", "properties": {"ID": "3116", "Country": "Venezuela", "Basin_Sub_": "Maracaibo", "Group": " ", "Formation": "La Luna", "Member": null, "Well name/ outcrop": null, "Latitude": "10", "Longitude": "-72.057", "Dating evidence": null, "REF(Authors, Year)": null, "Show_on_Ma": "95", "Lithology, structures, paleowind": null, "Paleoenvironment": null, "REF (Authors, Year)": null, "Fossil occurrences": null, "REF (Authors, Year)_1": null, "Geochemistry data": null, "REF (Authors, Year)_2": null, "Sediment-based climate inference (hot/cold, humid/semi-arid/desert)": null, "Fossil-based climate inference (hot/cold, humid/semi-arid/desert)": null, "Geochemistry-based climate inference  (hot/cold, humid/semi-arid/desert)": null, "Climate assignment leading evidence": null, "Climate_Cl": "H", "Weight": "1", "PlateID": "2030", "Sediment-based climate inference (hot/cold, humid/S/desert)": null, "Fossil-based climate inference (hot/cold, humid/S/desert)": null, "Geochemistry-based climate inference  (hot/cold, humid/S/desert)": null, "PaleozonaCodigo": null, "layer": "95.00Ma_point", "path": "C:/Users/Leonardo Bachi/OneDrive/Desktop/ITT_OCEANEON/20_SETEMBRO_TABELA_FINAL/PONTOS_RETIFICADOS/95.00Ma.geojson", "winner": "S", "cluster_size": 3}, "geometry": {"type": "Point", "coordinates": [-55.74257866740256, -1.907331566173536]}}]}