{"type": "FeatureCollection", "features": [{"type": "Feature", "properties": {"Climate_Cl": "S", "votes": 9, "cluster_size": 9, "tie": false, "status": "majority", "member_ids": "30,32,33,34,36,37,94,95,96"}, "geometry": {"type": "Point", "coordinates": [-6.504390571261372, 12.454391339194338]}}, {"type": "Feature", "properties": {"Climate_Cl": "S", "votes": 3, "cluster_size": 3, "tie": false, "status": "majority", "member_ids": "38,40,41"}, "geometry": {"type": "Point", "coordinates": [-6.255065402445058, 12.770998616277742]}}, {"type": "Feature", "properties": {"Climate_Cl": "D", "votes": 4, "cluster_size": 6, "tie": false, "status": "majority", "member_ids": "52,54,56,58,60,62"}, "geometry": {"type": "Point", "coordinates": [1.057562182576028, 13.139722127973938]}}, {"type": "Feature", "properties": {"Climate_Cl": "S", "votes": 4, "cluster_size": 4, "tie": false, "status": "majority", "member_ids": "98,99,100,101"}, "geometry": {"type": "Point", "coordinates": [-8.654876782311531, 12.368289345913281]}}, {"type": "Feature", "properties": {"Climate_Cl": "S", "votes": 2, "cluster_size": 2, "tie": false, "status": "majority", "member_ids": "103,104"}, "geometry": {"type": "Point", "coordinates": [-8.744179421468948, 11.966375587271422]}}, {"type": "Feature", "properties": {"Climate_Cl": "H", "votes": 2, "cluster_size": 4, "tie": true, "status": "tie", "member_ids": "109,111,112,114"}, "geometry": {"type": "Point", "coordinates": [-0.47985064853172, 13.187385825254204]}}, {"type": "Feature", "properties": {"Climate_Cl": "S", "votes": 2, "cluster_size": 4, "tie": true, "status": "tie", "member_ids": "109,111,112,114"}, "geometry": {"type": "Point", "coordinates": [-0.47985064853172, 13.187385825254204]}}, {"type": "Feature", "properties": {"Climate_Cl": "H", "votes": 1, "cluster_size": 2, "tie": true, "status": "tie", "member_ids": "119,2826"}, "geometry": {"type": "Point", "coordinates": [1.3035969365702116, 12.637752678026285]}}, {"type": "Feature", "properties": {"Climate_Cl": "S", "votes": 1, "cluster_size": 2, "tie": true, "status": "tie", "member_ids": "119,2826"}, "geometry": {"type": "Point", "coordinates": [1.3035969365702116, 12.637752678026285]}}, {"type": "Feature", "properties": {"Climate_Cl": "D", "votes": 1, "cluster_size": 1, "tie": false, "status": "majority", "member_ids": "129"}, "geometry": {"type": "Point", "coordinates": [-0.504450004842888, 13.500062049289493]}}, {"type": "Feature", "properties": {"Climate_Cl": "S", "votes": 2, "cluster_size": 3, "tie": false, "status": "majority", "member_ids": "138,140,143"}, "geometry": {"type": "Point", "coordinates": [-5.229147668115941, 12.859609149998688]}}, {"type": "Feature", "properties": {"Climate_Cl": "S", "votes": 2, "cluster_size": 3, "tie": false, "status": "majority", "member_ids": "144,146,149"}, "geometry": {"type": "Point", "coordinates": [-8.436772074249669, 12.219758698140685]}}, {"type": "Feature", "properties": {"Climate_Cl": "S", "votes": 2, "cluster_size": 2, "tie": false, "status": "majority", "member_ids": "150,151"}, "geometry": {"type": "Point", "coordinates": [-2.211358810484736, 13.576024713672766]}}, {"type": "Feature", "properties": {"Climate_Cl": "H", "votes": 1, "cluster_size": 1, "tie": false, "status": "majority", "member_ids": "215"}, "geometry": {"type": "Point", "coordinates": [-65.22510063457165, -59.151036467325945]}}, {"type": "Feature", "properties": {"Climate_Cl": "H", "votes": 1, "cluster_size": 1, "tie": false, "status": "majority", "member_ids": "222"}, "geometry": {"type": "Point", "coordinates": [-65.49076227302646, -59.38094750709204]}}, {"type": "Feature", "properties": {"Climate_Cl": "H", "votes": 1, "cluster_size": 1, "tie": false, "status": "majority", "member_ids": "252"}, "geometry": {"type": "Point", "coordinates": [-58.79099117069055, -54.447907794516375]}}, {"type": "Feature", "properties": {"Climate_Cl": "H", "votes": 1, "cluster_size": 1, "tie": false, "status": "majority", "member_ids": "265"}, "geometry": {"type": "Point", "coordinates": [-61.24175350320276, -55.39040005593068]}}, {"type": "Feature", "properties": {"Climate_Cl": "S", "votes": 1, "cluster_size": 1, "tie": false, "status": "majority", "member_ids": "297"}, "geometry": {"type": "Point", "coordinates": [-59.25788763634682, -49.39774816599806]}}, {"type": "Feature", "properties": {"Climate_Cl": "H", "votes": 1, "cluster_size": 1, "tie": false, "status": "majority", "member_ids": "300"}, "geometry": {"type": "Point", "coordinates": [-59.05148016733189, -50.20747681707283]}}, {"type": "Feature", "properties": {"Climate_Cl": "D", "votes": 1, "cluster_size": 1, "tie": false, "status": "majority", "member_ids": "350"}, "geometry": {"type": "Point", "coordinates": [-49.55313057889164, -53.437677221831756]}}, {"type": "Feature", "properties": {"Climate_Cl": "H", "votes": 1, "cluster_size": 2, "tie": true, "status": "tie", "member_ids": "383,384"}, "geometry": {"type": "Point", "coordinates": [-52.66047964564453, -36.60523778283989]}}, {"type": "Feature", "properties": {"Climate_Cl": "S", "votes": 1, "cluster_size": 2, "tie": true, "status": "tie", "member_ids": "383,384"}, "geometry": {"type": "Point", "coordinates": [-52.66047964564453, -36.60523778283989]}}, {"type": "Feature", "properties": {"Climate_Cl": "S", "votes": 1, "cluster_size": 1, "tie": false, "status": "majority", "member_ids": "419"}, "geometry": {"type": "Point", "coordinates": [-51.13111973429594, -30.913008648555586]}}, {"type": "Feature", "properties": {"Climate_Cl": "H", "votes": 2, "cluster_size": 2, "tie": false, "status": "majority", "member_ids": "436,450"}, "geometry": {"type": "Point", "coordinates": [-57.655173134792946, -17.025295734926814]}}, {"type": "Feature", "properties": {"Climate_Cl": "H", "votes": 1, "cluster_size": 1, "tie": false, "status": "majority", "member_ids": "485"}, "geometry": {"type": "Point", "coordinates": [-42.62557353632179, -8.610254101107081]}}, {"type": "Feature", "properties": {"Climate_Cl": "H", "votes": 1, "cluster_size": 1, "tie": false, "status": "majority", "member_ids": "489"}, "geometry": {"type": "Point", "coordinates": [-22.583298833258787, -19.91691523489389]}}, {"type": "Feature", "properties": {"Climate_Cl": "H", "votes": 2, "cluster_size": 2, "tie": false, "status": "majority", "member_ids": "543,548"}, "geometry": {"type": "Point", "coordinates": [-22.18089205441878, -19.791427161596204]}}, {"type": "Feature", "properties": {"Climate_Cl": "S", "votes": 1, "cluster_size": 1, "tie": false, "status": "majority", "member_ids": "551"}, "geometry": {"type": "Point", "coordinates": [-21.814341506299428, -20.035058267368893]}}, {"type": "Feature", "properties": {"Climate_Cl": "S", "votes": 3, "cluster_size": 3, "tie": false, "status": "majority", "member_ids": "587,595,603"}, "geometry": {"type": "Point", "coordinates": [-21.40619855079848, -13.118277187509056]}}, {"type": "Feature", "properties": {"Climate_Cl": "S", "votes": 3, "cluster_size": 3, "tie": false, "status": "majority", "member_ids": "626,1546,1547"}, "geometry": {"type": "Point", "coordinates": [-25.549038643536374, -14.554007364157245]}}, {"type": "Feature", "properties": {"Climate_Cl": "S", "votes": 2, "cluster_size": 2, "tie": false, "status": "majority", "member_ids": "643,648"}, "geometry": {"type": "Point", "coordinates": [-20.984100210389613, -26.451584491523736]}}, {"type": "Feature", "properties": {"Climate_Cl": "S", "votes": 1, "cluster_size": 1, "tie": false, "status": "majority", "member_ids": "691"}, "geometry": {"type": "Point", "coordinates": [-22.758026017025095, -35.606268219247134]}}, {"type": "Feature", "properties": {"Climate_Cl": "S", "votes": 2, "cluster_size": 2, "tie": false, "status": "majority", "member_ids": "738,743"}, "geometry": {"type": "Point", "coordinates": [-21.008624611632012, -29.621510619064505]}}, {"type": "Feature", "properties": {"Climate_Cl": "S", "votes": 1, "cluster_size": 1, "tie": false, "status": "majority", "member_ids": "758"}, "geometry": {"type": "Point", "coordinates": [-22.070381661993025, -32.499342749169024]}}, {"type": "Feature", "properties": {"Climate_Cl": "H", "votes": 1, "cluster_size": 1, "tie": false, "status": "majority", "member_ids": "778"}, "geometry": {"type": "Point", "coordinates": [-30.992976398917754, -9.368652764248608]}}, {"type": "Feature", "properties": {"Climate_Cl": "H", "votes": 1, "cluster_size": 1, "tie": false, "status": "majority", "member_ids": "795"}, "geometry": {"type": "Point", "coordinates": [-32.6286979935468, -7.736864936917002]}}, {"type": "Feature", "properties": {"Climate_Cl": "S", "votes": 4, "cluster_size": 4, "tie": false, "status": "majority", "member_ids": "810,819,1573,1574"}, "geometry": {"type": "Point", "coordinates": [-28.199100987922158, -16.480895201615915]}}, {"type": "Feature", "properties": {"Climate_Cl": "S", "votes": 1, "cluster_size": 1, "tie": false, "status": "majority", "member_ids": "837"}, "geometry": {"type": "Point", "coordinates": [-19.529279675809, -25.126626251937314]}}, {"type": "Feature", "properties": {"Climate_Cl": "S", "votes": 1, "cluster_size": 1, "tie": false, "status": "majority", "member_ids": "853"}, "geometry": {"type": "Point", "coordinates": [-20.348660147689465, -25.324692549838865]}}, {"type": "Feature", "properties": {"Climate_Cl": "S", "votes": 2, "cluster_size": 2, "tie": false, "status": "majority", "member_ids": "905,910"}, "geometry": {"type": "Point", "coordinates": [-19.90421195307144, -28.12604468701851]}}, {"type": "Feature", "properties": {"Climate_Cl": "H", "votes": 1, "cluster_size": 1, "tie": false, "status": "majority", "member_ids": "920"}, "geometry": {"type": "Point", "coordinates": [-32.767630533742256, -14.291403919235567]}}, {"type": "Feature", "properties": {"Climate_Cl": "S", "votes": 3, "cluster_size": 3, "tie": false, "status": "majority", "member_ids": "934,946,951"}, "geometry": {"type": "Point", "coordinates": [-22.121754854718215, -30.612721766599744]}}, {"type": "Feature", "properties": {"Climate_Cl": "S", "votes": 3, "cluster_size": 3, "tie": false, "status": "majority", "member_ids": "983,985,987"}, "geometry": {"type": "Point", "coordinates": [-27.548039273814663, -12.499382623832195]}}, {"type": "Feature", "properties": {"Climate_Cl": "H", "votes": 2, "cluster_size": 2, "tie": false, "status": "majority", "member_ids": "1050,1051"}, "geometry": {"type": "Point", "coordinates": [-40.80560690896182, -23.81024081394409]}}, {"type": "Feature", "properties": {"Climate_Cl": "S", "votes": 1, "cluster_size": 1, "tie": false, "status": "majority", "member_ids": "1074"}, "geometry": {"type": "Point", "coordinates": [-26.698466906463615, -18.52656780376821]}}, {"type": "Feature", "properties": {"Climate_Cl": "H", "votes": 2, "cluster_size": 2, "tie": false, "status": "majority", "member_ids": "1099,1120"}, "geometry": {"type": "Point", "coordinates": [-34.680733394609135, -43.825225272028476]}}, {"type": "Feature", "properties": {"Climate_Cl": "H", "votes": 1, "cluster_size": 1, "tie": false, "status": "majority", "member_ids": "1118"}, "geometry": {"type": "Point", "coordinates": [-31.70492887644099, -40.9684302516294]}}, {"type": "Feature", "properties": {"Climate_Cl": "S", "votes": 1, "cluster_size": 1, "tie": false, "status": "majority", "member_ids": "1130"}, "geometry": {"type": "Point", "coordinates": [-22.873705206609745, -41.6055890082489]}}, {"type": "Feature", "properties": {"Climate_Cl": "S", "votes": 1, "cluster_size": 1, "tie": false, "status": "majority", "member_ids": "1168"}, "geometry": {"type": "Point", "coordinates": [-16.43968721072188, -21.11231957292321]}}, {"type": "Feature", "properties": {"Climate_Cl": "S", "votes": 2, "cluster_size": 2, "tie": false, "status": "majority", "member_ids": "1217,1220"}, "geometry": {"type": "Point", "coordinates": [-17.2150340600323, -21.051944769288532]}}, {"type": "Feature", "properties": {"Climate_Cl": "S", "votes": 2, "cluster_size": 2, "tie": false, "status": "majority", "member_ids": "1245,1253"}, "geometry": {"type": "Point", "coordinates": [-18.71864502564266, -17.60718643993167]}}, {"type": "Feature", "properties": {"Climate_Cl": "S", "votes": 1, "cluster_size": 1, "tie": false, "status": "majority", "member_ids": "1262"}, "geometry": {"type": "Point", "coordinates": [-18.316514115906944, -15.62506681675255]}}, {"type": "Feature", "properties": {"Climate_Cl": "D", "votes": 1, "cluster_size": 1, "tie": false, "status": "majority", "member_ids": "1412"}, "geometry": {"type": "Point", "coordinates": [-29.93656264843626, -30.430695423566007]}}, {"type": "Feature", "properties": {"Climate_Cl": "D", "votes": 4, "cluster_size": 4, "tie": false, "status": "majority", "member_ids": "1413,1414,1415,1416"}, "geometry": {"type": "Point", "coordinates": [-29.578372172000915, -30.443597784813967]}}, {"type": "Feature", "properties": {"Climate_Cl": "D", "votes": 1, "cluster_size": 1, "tie": false, "status": "majority", "member_ids": "1417"}, "geometry": {"type": "Point", "coordinates": [-29.109877431607472, -30.45987424263565]}}, {"type": "Feature", "properties": {"Climate_Cl": "S", "votes": 1, "cluster_size": 1, "tie": false, "status": "majority", "member_ids": "1523"}, "geometry": {"type": "Point", "coordinates": [-28.246804372854918, -37.992910223174306]}}, {"type": "Feature", "properties": {"Climate_Cl": "S", "votes": 1, "cluster_size": 1, "tie": false, "status": "majority", "member_ids": "1532"}, "geometry": {"type": "Point", "coordinates": [-25.947881374024433, -36.9682369999737]}}, {"type": "Feature", "properties": {"Climate_Cl": "H", "votes": 2, "cluster_size": 4, "tie": true, "status": "tie", "member_ids": "1595,1596,1597,1598"}, "geometry": {"type": "Point", "coordinates": [-17.74906438175215, -23.622618278703502]}}, {"type": "Feature", "properties": {"Climate_Cl": "S", "votes": 2, "cluster_size": 4, "tie": true, "status": "tie", "member_ids": "1595,1596,1597,1598"}, "geometry": {"type": "Point", "coordinates": [-17.74906438175215, -23.622618278703502]}}, {"type": "Feature", "properties": {"Climate_Cl": "H", "votes": 2, "cluster_size": 2, "tie": false, "status": "majority", "member_ids": "1660,1661"}, "geometry": {"type": "Point", "coordinates": [-48.688191071856785, -16.070751451786293]}}, {"type": "Feature", "properties": {"Climate_Cl": "H", "votes": 1, "cluster_size": 1, "tie": false, "status": "majority", "member_ids": "1662"}, "geometry": {"type": "Point", "coordinates": [-45.592038313604434, -16.37727182737098]}}, {"type": "Feature", "properties": {"Climate_Cl": "H", "votes": 1, "cluster_size": 1, "tie": false, "status": "majority", "member_ids": "1712"}, "geometry": {"type": "Point", "coordinates": [-5.873806128149476, -17.19524361040857]}}, {"type": "Feature", "properties": {"Climate_Cl": "H", "votes": 25, "cluster_size": 45, "tie": false, "status": "majority", "member_ids": "1718,1720,1731,1735,1739,1743,1747,1751,1755,1759,1763,1767,1771,1775,1779,1783,1787,1791,1795,1799,1803,1811,1815,1817,1834,2183,2184,2185,2186,2187,2188,2189,2190,2191,2192,2193,2194,2195,2196,2197,2198,2199,2200,2201,2202"}, "geometry": {"type": "Point", "coordinates": [-5.738794017384638, -15.838057770458855]}}, {"type": "Feature", "properties": {"Climate_Cl": "S", "votes": 2, "cluster_size": 2, "tie": false, "status": "majority", "member_ids": "1922,1923"}, "geometry": {"type": "Point", "coordinates": [-57.95350611560179, -39.220252596845945]}}, {"type": "Feature", "properties": {"Climate_Cl": "H", "votes": 2, "cluster_size": 2, "tie": false, "status": "majority", "member_ids": "1942,1961"}, "geometry": {"type": "Point", "coordinates": [4.891061446699029, -24.214585643184524]}}, {"type": "Feature", "properties": {"Climate_Cl": "H", "votes": 2, "cluster_size": 2, "tie": false, "status": "majority", "member_ids": "1943,1962"}, "geometry": {"type": "Point", "coordinates": [1.679850237154803, -23.596558574865004]}}, {"type": "Feature", "properties": {"Climate_Cl": "H", "votes": 2, "cluster_size": 2, "tie": false, "status": "majority", "member_ids": "1944,1963"}, "geometry": {"type": "Point", "coordinates": [3.136608359366785, -26.952432830390563]}}, {"type": "Feature", "properties": {"Climate_Cl": "H", "votes": 1, "cluster_size": 1, "tie": false, "status": "majority", "member_ids": "1964"}, "geometry": {"type": "Point", "coordinates": [4.234471652396302, -27.155675245450233]}}, {"type": "Feature", "properties": {"Climate_Cl": "H", "votes": 1, "cluster_size": 2, "tie": true, "status": "tie", "member_ids": "1982,1983"}, "geometry": {"type": "Point", "coordinates": [16.993651387923418, 2.281750026337098]}}, {"type": "Feature", "properties": {"Climate_Cl": "S", "votes": 1, "cluster_size": 2, "tie": true, "status": "tie", "member_ids": "1982,1983"}, "geometry": {"type": "Point", "coordinates": [16.993651387923418, 2.281750026337098]}}, {"type": "Feature", "properties": {"Climate_Cl": "H", "votes": 2, "cluster_size": 2, "tie": false, "status": "majority", "member_ids": "1993,1994"}, "geometry": {"type": "Point", "coordinates": [-60.203583178613606, -9.605782988374914]}}, {"type": "Feature", "properties": {"Climate_Cl": "D", "votes": 1, "cluster_size": 1, "tie": false, "status": "majority", "member_ids": "2021"}, "geometry": {"type": "Point", "coordinates": [-7.204397878295064, -20.10240396978662]}}, {"type": "Feature", "properties": {"Climate_Cl": "S", "votes": 1, "cluster_size": 1, "tie": false, "status": "majority", "member_ids": "2028"}, "geometry": {"type": "Point", "coordinates": [-6.524044985690184, -19.648745912146765]}}, {"type": "Feature", "properties": {"Climate_Cl": "S", "votes": 1, "cluster_size": 1, "tie": false, "status": "majority", "member_ids": "2066"}, "geometry": {"type": "Point", "coordinates": [-12.488607132052092, -14.726262961135992]}}, {"type": "Feature", "properties": {"Climate_Cl": "H", "votes": 1, "cluster_size": 1, "tie": false, "status": "majority", "member_ids": "2092"}, "geometry": {"type": "Point", "coordinates": [7.302558101025205, 5.139452306321271]}}, {"type": "Feature", "properties": {"Climate_Cl": "S", "votes": 1, "cluster_size": 1, "tie": false, "status": "majority", "member_ids": "2213"}, "geometry": {"type": "Point", "coordinates": [-14.922767908394492, 13.067534980202565]}}, {"type": "Feature", "properties": {"Climate_Cl": "H", "votes": 1, "cluster_size": 1, "tie": false, "status": "majority", "member_ids": "2217"}, "geometry": {"type": "Point", "coordinates": [-17.483929376033494, 12.066296061232109]}}, {"type": "Feature", "properties": {"Climate_Cl": "S", "votes": 1, "cluster_size": 1, "tie": false, "status": "majority", "member_ids": "2229"}, "geometry": {"type": "Point", "coordinates": [-11.28983281383605, 12.861383503802756]}}, {"type": "Feature", "properties": {"Climate_Cl": "S", "votes": 1, "cluster_size": 1, "tie": false, "status": "majority", "member_ids": "2240"}, "geometry": {"type": "Point", "coordinates": [-8.683620088046057, -36.00865568182903]}}, {"type": "Feature", "properties": {"Climate_Cl": "H", "votes": 1, "cluster_size": 1, "tie": false, "status": "majority", "member_ids": "2252"}, "geometry": {"type": "Point", "coordinates": [-7.435680523898856, -6.614359032601703]}}, {"type": "Feature", "properties": {"Climate_Cl": "S", "votes": 1, "cluster_size": 1, "tie": false, "status": "majority", "member_ids": "2263"}, "geometry": {"type": "Point", "coordinates": [-5.056485296696906, -4.5345483105198]}}, {"type": "Feature", "properties": {"Climate_Cl": "S", "votes": 1, "cluster_size": 1, "tie": false, "status": "majority", "member_ids": "2354"}, "geometry": {"type": "Point", "coordinates": [-7.292514201340473, -15.66645496503186]}}, {"type": "Feature", "properties": {"Climate_Cl": "S", "votes": 1, "cluster_size": 1, "tie": false, "status": "majority", "member_ids": "2357"}, "geometry": {"type": "Point", "coordinates": [-7.158152837633006, -15.298925126618096]}}, {"type": "Feature", "properties": {"Climate_Cl": "S", "votes": 1, "cluster_size": 1, "tie": false, "status": "majority", "member_ids": "2408"}, "geometry": {"type": "Point", "coordinates": [-57.046095689478044, -26.190548882980515]}}, {"type": "Feature", "properties": {"Climate_Cl": "S", "votes": 1, "cluster_size": 1, "tie": false, "status": "majority", "member_ids": "2420"}, "geometry": {"type": "Point", "coordinates": [-61.05710987261481, -19.591848026216255]}}, {"type": "Feature", "properties": {"Climate_Cl": "S", "votes": 1, "cluster_size": 1, "tie": false, "status": "majority", "member_ids": "2435"}, "geometry": {"type": "Point", "coordinates": [-61.57687281689179, -20.52960762936455]}}, {"type": "Feature", "properties": {"Climate_Cl": "H", "votes": 1, "cluster_size": 1, "tie": false, "status": "majority", "member_ids": "2462"}, "geometry": {"type": "Point", "coordinates": [-60.34001112826986, -15.649370290370106]}}, {"type": "Feature", "properties": {"Climate_Cl": "H", "votes": 1, "cluster_size": 1, "tie": false, "status": "majority", "member_ids": "2480"}, "geometry": {"type": "Point", "coordinates": [-58.98169344194694, -16.84751771453007]}}, {"type": "Feature", "properties": {"Climate_Cl": "S", "votes": 1, "cluster_size": 1, "tie": false, "status": "majority", "member_ids": "2492"}, "geometry": {"type": "Point", "coordinates": [-58.64329329575025, -17.903303779433156]}}, {"type": "Feature", "properties": {"Climate_Cl": "S", "votes": 1, "cluster_size": 1, "tie": false, "status": "majority", "member_ids": "2506"}, "geometry": {"type": "Point", "coordinates": [-6.477304774124571, -26.726606806861795]}}, {"type": "Feature", "properties": {"Climate_Cl": "H", "votes": 4, "cluster_size": 4, "tie": false, "status": "majority", "member_ids": "2523,2525,2620,2629"}, "geometry": {"type": "Point", "coordinates": [-27.48811651221732, 1.2090539988201878]}}, {"type": "Feature", "properties": {"Climate_Cl": "H", "votes": 3, "cluster_size": 4, "tie": false, "status": "majority", "member_ids": "2540,2542,2605,2608"}, "geometry": {"type": "Point", "coordinates": [-29.58629638849733, -0.695563096959174]}}, {"type": "Feature", "properties": {"Climate_Cl": "H", "votes": 2, "cluster_size": 2, "tie": false, "status": "majority", "member_ids": "2557,2559"}, "geometry": {"type": "Point", "coordinates": [-26.29559777916622, 2.311771579799184]}}, {"type": "Feature", "properties": {"Climate_Cl": "H", "votes": 1, "cluster_size": 1, "tie": false, "status": "majority", "member_ids": "2569"}, "geometry": {"type": "Point", "coordinates": [-26.308981591844802, -1.164817157459888]}}, {"type": "Feature", "properties": {"Climate_Cl": "S", "votes": 2, "cluster_size": 2, "tie": false, "status": "majority", "member_ids": "2584,2586"}, "geometry": {"type": "Point", "coordinates": [-26.96433129307404, 1.057200897554808]}}, {"type": "Feature", "properties": {"Climate_Cl": "H", "votes": 12, "cluster_size": 13, "tie": false, "status": "majority", "member_ids": "2723,2726,2729,2732,2734,2736,2738,2740,2743,2746,2748,2750,2824"}, "geometry": {"type": "Point", "coordinates": [2.1012548981927877, 13.083948109938643]}}, {"type": "Feature", "properties": {"Climate_Cl": "H", "votes": 1, "cluster_size": 2, "tie": true, "status": "tie", "member_ids": "2751,2822"}, "geometry": {"type": "Point", "coordinates": [2.492847852322794, 13.309489296420715]}}, {"type": "Feature", "properties": {"Climate_Cl": "S", "votes": 1, "cluster_size": 2, "tie": true, "status": "tie", "member_ids": "2751,2822"}, "geometry": {"type": "Point", "coordinates": [2.492847852322794, 13.309489296420715]}}, {"type": "Feature", "properties": {"Climate_Cl": "S", "votes": 7, "cluster_size": 7, "tie": false, "status": "majority", "member_ids": "2905,2911,2914,2917,2923,2928,2933"}, "geometry": {"type": "Point", "coordinates": [2.112620053604338, 10.143075797455825]}}, {"type": "Feature", "properties": {"Climate_Cl": "S", "votes": 2, "cluster_size": 2, "tie": false, "status": "majority", "member_ids": "2936,2939"}, "geometry": {"type": "Point", "coordinates": [2.111834976994393, 10.694191073584564]}}, {"type": "Feature", "properties": {"Climate_Cl": "S", "votes": 1, "cluster_size": 1, "tie": false, "status": "majority", "member_ids": "2941"}, "geometry": {"type": "Point", "coordinates": [1.973885667326961, 12.06820363872427]}}, {"type": "Feature", "properties": {"Climate_Cl": "S", "votes": 2, "cluster_size": 2, "tie": false, "status": "majority", "member_ids": "2943,2944"}, "geometry": {"type": "Point", "coordinates": [1.222154873054154, 11.310354722733598]}}, {"type": "Feature", "properties": {"Climate_Cl": "H", "votes": 1, "cluster_size": 1, "tie": false, "status": "majority", "member_ids": "2986"}, "geometry": {"type": "Point", "coordinates": [-40.92467221866339, -46.89269126266633]}}, {"type": "Feature", "properties": {"Climate_Cl": "S", "votes": 1, "cluster_size": 1, "tie": false, "status": "majority", "member_ids": "3019"}, "geometry": {"type": "Point", "coordinates": [-51.97856819845576, -2.215184123275074]}}, {"type": "Feature", "properties": {"Climate_Cl": "H", "votes": 1, "cluster_size": 1, "tie": false, "status": "majority", "member_ids": "3020"}, "geometry": {"type": "Point", "coordinates": [-52.629979034601675, -3.065066778840311]}}, {"type": "Feature", "properties": {"Climate_Cl": "H", "votes": 1, "cluster_size": 1, "tie": false, "status": "majority", "member_ids": "3057"}, "geometry": {"type": "Point", "coordinates": [-45.012344812044645, -1.718140406401339]}}, {"type": "Feature", "properties": {"Climate_Cl": "H", "votes": 1, "cluster_size": 1, "tie": false, "status": "majority", "member_ids": "3058"}, "geometry": {"type": "Point", "coordinates": [-45.590987104465945, -1.586225550132319]}}, {"type": "Feature", "properties": {"Climate_Cl": "H", "votes": 1, "cluster_size": 1, "tie": false, "status": "majority", "member_ids": "3096"}, "geometry": {"type": "Point", "coordinates": [-56.235008065879, -3.273938137021562]}}, {"type": "Feature", "properties": {"Climate_Cl": "H", "votes": 1, "cluster_size": 1, "tie": false, "status": "majority", "member_ids": "3097"}, "geometry": {"type": "Point", "coordinates": [-55.77807180463787, -3.909603240723901]}}, {"type": "Feature", "properties": {"Climate_Cl": "S", "votes": 2, "cluster_size": 2, "tie": false, "status": "majority", "member_ids": "3098,3099"}, "geometry": {"type": "Point", "coordinates": [-54.6645986936731, -2.870030283622683]}}, {"type": "Feature", "properties": {"Climate_Cl": "S", "votes": 2, "cluster_size": 3, "tie": false, "status": "majority", "member_ids": "3116,3117,3118"}, "geometry": {"type": "Point", "coordinates": [-55.74257866740256, -1.907331566173536]}}, {"type": "Feature", "properties": {"Climate_Cl": "H", "votes": 1, "cluster_size": 1, "tie": false, "status": "majority", "member_ids": "3119"}, "geometry": {"type": "Point", "coordinates": [-53.723045294221734, -1.832683737637992]}}, {"type": "Feature", "properties": {"Climate_Cl": "H", "votes": 1, "cluster_size": 1, "tie": false, "status": "majority", "member_ids": "3173"}, "geometry": {"type": "Point", "coordinates": [-47.334594984263504, -3.151132102098843]}}]}